[
  {
    "id": 1,
    "district_id": 1,
    "name_en": "Akkaraipattu",
    "postcode": 32400
  },
  {
    "id": 2,
    "district_id": 1,
    "name_en": "Ambagahawatta",
    "postcode": 90326
  },
  {
    "id": 3,
    "district_id": 1,
    "name_en": "Ampara",
    "postcode": 32000
  },
  {
    "id": 4,
    "district_id": 1,
    "name_en": "Bakmitiyawa",
    "postcode": 32024
  },
  {
    "id": 5,
    "district_id": 1,
    "name_en": "Deegawapiya",
    "postcode": 32006
  },
  {
    "id": 6,
    "district_id": 1,
    "name_en": "Devalahinda",
    "postcode": 32038
  },
  {
    "id": 7,
    "district_id": 1,
    "name_en": "Digamadulla Weeragoda",
    "postcode": 32008
  },
  {
    "id": 8,
    "district_id": 1,
    "name_en": "Dorakumbura",
    "postcode": 32104
  },
  {
    "id": 9,
    "district_id": 1,
    "name_en": "Gonagolla",
    "postcode": 32064
  },
  {
    "id": 10,
    "district_id": 1,
    "name_en": "Hulannuge",
    "postcode": 32514
  },
  {
    "id": 11,
    "district_id": 1,
    "name_en": "Kalmunai",
    "postcode": 32300
  },
  {
    "id": 12,
    "district_id": 1,
    "name_en": "Kannakipuram",
    "postcode": 32405
  },
  {
    "id": 13,
    "district_id": 1,
    "name_en": "Karativu",
    "postcode": 32250
  },
  {
    "id": 14,
    "district_id": 1,
    "name_en": "Kekirihena",
    "postcode": 32074
  },
  {
    "id": 15,
    "district_id": 1,
    "name_en": "Koknahara",
    "postcode": 32035
  },
  {
    "id": 16,
    "district_id": 1,
    "name_en": "Kolamanthalawa",
    "postcode": 32102
  },
  {
    "id": 17,
    "district_id": 1,
    "name_en": "Komari",
    "postcode": 32418
  },
  {
    "id": 18,
    "district_id": 1,
    "name_en": "Lahugala",
    "postcode": 32512
  },
  {
    "id": 19,
    "district_id": 1,
    "name_en": "Irakkamam",
    "postcode": 32450
  },
  {
    "id": 20,
    "district_id": 1,
    "name_en": "Mahaoya",
    "postcode": 32070
  },
  {
    "id": 21,
    "district_id": 1,
    "name_en": "Marathamune",
    "postcode": 32314
  },
  {
    "id": 22,
    "district_id": 1,
    "name_en": "Namaloya",
    "postcode": 32037
  },
  {
    "id": 23,
    "district_id": 1,
    "name_en": "Navithanveli",
    "postcode": 32308
  },
  {
    "id": 24,
    "district_id": 1,
    "name_en": "Nintavur",
    "postcode": 32340
  },
  {
    "id": 25,
    "district_id": 1,
    "name_en": "Oluvil",
    "postcode": 32360
  },
  {
    "id": 26,
    "district_id": 1,
    "name_en": "Padiyatalawa",
    "postcode": 32100
  },
  {
    "id": 27,
    "district_id": 1,
    "name_en": "Pahalalanda",
    "postcode": 32034
  },
  {
    "id": 28,
    "district_id": 1,
    "name_en": "Panama",
    "postcode": 32508
  },
  {
    "id": 29,
    "district_id": 1,
    "name_en": "Pannalagama",
    "postcode": 32022
  },
  {
    "id": 30,
    "district_id": 1,
    "name_en": "Paragahakele",
    "postcode": 32031
  },
  {
    "id": 31,
    "district_id": 1,
    "name_en": "Periyaneelavanai",
    "postcode": 32316
  },
  {
    "id": 32,
    "district_id": 1,
    "name_en": "Polwaga Janapadaya",
    "postcode": 32032
  },
  {
    "id": 33,
    "district_id": 1,
    "name_en": "Pottuvil",
    "postcode": 32500
  },
  {
    "id": 34,
    "district_id": 1,
    "name_en": "Sainthamaruthu",
    "postcode": 32280
  },
  {
    "id": 35,
    "district_id": 1,
    "name_en": "Samanthurai",
    "postcode": 32200
  },
  {
    "id": 36,
    "district_id": 1,
    "name_en": "Serankada",
    "postcode": 32101
  },
  {
    "id": 37,
    "district_id": 1,
    "name_en": "Tempitiya",
    "postcode": 32072
  },
  {
    "id": 38,
    "district_id": 1,
    "name_en": "Thambiluvil",
    "postcode": 32415
  },
  {
    "id": 39,
    "district_id": 1,
    "name_en": "Tirukovil",
    "postcode": 32420
  },
  {
    "id": 40,
    "district_id": 1,
    "name_en": "Uhana",
    "postcode": 32060
  },
  {
    "id": 41,
    "district_id": 1,
    "name_en": "Wadinagala",
    "postcode": 32039
  },
  {
    "id": 42,
    "district_id": 1,
    "name_en": "Wanagamuwa",
    "postcode": 32454
  },
  {
    "id": 43,
    "district_id": 2,
    "name_en": "Angamuwa",
    "postcode": 50248
  },
  {
    "id": 44,
    "district_id": 2,
    "name_en": "Anuradhapura",
    "postcode": 50000
  },
  {
    "id": 45,
    "district_id": 2,
    "name_en": "Awukana",
    "postcode": 50169
  },
  {
    "id": 46,
    "district_id": 2,
    "name_en": "Bogahawewa",
    "postcode": 50566
  },
  {
    "id": 47,
    "district_id": 2,
    "name_en": "Dematawewa",
    "postcode": 50356
  },
  {
    "id": 48,
    "district_id": 2,
    "name_en": "Dimbulagala",
    "postcode": 51031
  },
  {
    "id": 49,
    "district_id": 2,
    "name_en": "Dutuwewa",
    "postcode": 50393
  },
  {
    "id": 50,
    "district_id": 2,
    "name_en": "Elayapattuwa",
    "postcode": 50014
  },
  {
    "id": 51,
    "district_id": 2,
    "name_en": "Ellewewa",
    "postcode": 51034
  },
  {
    "id": 52,
    "district_id": 2,
    "name_en": "Eppawala",
    "postcode": 50260
  },
  {
    "id": 53,
    "district_id": 2,
    "name_en": "Etawatunuwewa",
    "postcode": 50584
  },
  {
    "id": 54,
    "district_id": 2,
    "name_en": "Etaweeragollewa",
    "postcode": 50518
  },
  {
    "id": 55,
    "district_id": 2,
    "name_en": "Galapitagala",
    "postcode": 32066
  },
  {
    "id": 56,
    "district_id": 2,
    "name_en": "Galenbindunuwewa",
    "postcode": 50390
  },
  {
    "id": 57,
    "district_id": 2,
    "name_en": "Galkadawala",
    "postcode": 50006
  },
  {
    "id": 58,
    "district_id": 2,
    "name_en": "Galkiriyagama",
    "postcode": 50120
  },
  {
    "id": 59,
    "district_id": 2,
    "name_en": "Galkulama",
    "postcode": 50064
  },
  {
    "id": 60,
    "district_id": 2,
    "name_en": "Galnewa",
    "postcode": 50170
  },
  {
    "id": 61,
    "district_id": 2,
    "name_en": "Gambirigaswewa",
    "postcode": 50057
  },
  {
    "id": 62,
    "district_id": 2,
    "name_en": "Ganewalpola",
    "postcode": 50142
  },
  {
    "id": 63,
    "district_id": 2,
    "name_en": "Gemunupura",
    "postcode": 50224
  },
  {
    "id": 64,
    "district_id": 2,
    "name_en": "Getalawa",
    "postcode": 50392
  },
  {
    "id": 65,
    "district_id": 2,
    "name_en": "Gnanikulama",
    "postcode": 50036
  },
  {
    "id": 66,
    "district_id": 2,
    "name_en": "Gonahaddenawa",
    "postcode": 50554
  },
  {
    "id": 67,
    "district_id": 2,
    "name_en": "Habarana",
    "postcode": 50150
  },
  {
    "id": 68,
    "district_id": 2,
    "name_en": "Halmillawa Dambulla",
    "postcode": 50124
  },
  {
    "id": 69,
    "district_id": 2,
    "name_en": "Halmillawetiya",
    "postcode": 50552
  },
  {
    "id": 70,
    "district_id": 2,
    "name_en": "Hidogama",
    "postcode": 50044
  },
  {
    "id": 71,
    "district_id": 2,
    "name_en": "Horawpatana",
    "postcode": 50350
  },
  {
    "id": 72,
    "district_id": 2,
    "name_en": "Horiwila",
    "postcode": 50222
  },
  {
    "id": 73,
    "district_id": 2,
    "name_en": "Hurigaswewa",
    "postcode": 50176
  },
  {
    "id": 74,
    "district_id": 2,
    "name_en": "Hurulunikawewa",
    "postcode": 50394
  },
  {
    "id": 75,
    "district_id": 2,
    "name_en": "Ihala Puliyankulama",
    "postcode": 61316
  },
  {
    "id": 76,
    "district_id": 2,
    "name_en": "Kagama",
    "postcode": 50282
  },
  {
    "id": 77,
    "district_id": 2,
    "name_en": "Kahatagasdigiliya",
    "postcode": 50320
  },
  {
    "id": 78,
    "district_id": 2,
    "name_en": "Kahatagollewa",
    "postcode": 50562
  },
  {
    "id": 79,
    "district_id": 2,
    "name_en": "Kalakarambewa",
    "postcode": 50288
  },
  {
    "id": 80,
    "district_id": 2,
    "name_en": "Kalaoya",
    "postcode": 50226
  },
  {
    "id": 81,
    "district_id": 2,
    "name_en": "Kalawedi Ulpotha",
    "postcode": 50556
  },
  {
    "id": 82,
    "district_id": 2,
    "name_en": "Kallanchiya",
    "postcode": 50454
  },
  {
    "id": 83,
    "district_id": 2,
    "name_en": "Kalpitiya",
    "postcode": 61360
  },
  {
    "id": 84,
    "district_id": 2,
    "name_en": "Kalukele Badanagala",
    "postcode": 51037
  },
  {
    "id": 85,
    "district_id": 2,
    "name_en": "Kapugallawa",
    "postcode": 50370
  },
  {
    "id": 86,
    "district_id": 2,
    "name_en": "Karagahawewa",
    "postcode": 50232
  },
  {
    "id": 87,
    "district_id": 2,
    "name_en": "Kashyapapura",
    "postcode": 51032
  },
  {
    "id": 88,
    "district_id": 2,
    "name_en": "Kebithigollewa",
    "postcode": 50500
  },
  {
    "id": 89,
    "district_id": 2,
    "name_en": "Kekirawa",
    "postcode": 50100
  },
  {
    "id": 90,
    "district_id": 2,
    "name_en": "Kendewa",
    "postcode": 50452
  },
  {
    "id": 91,
    "district_id": 2,
    "name_en": "Kiralogama",
    "postcode": 50259
  },
  {
    "id": 92,
    "district_id": 2,
    "name_en": "Kirigalwewa",
    "postcode": 50511
  },
  {
    "id": 93,
    "district_id": 2,
    "name_en": "Kirimundalama",
    "postcode": 61362
  },
  {
    "id": 94,
    "district_id": 2,
    "name_en": "Kitulhitiyawa",
    "postcode": 50132
  },
  {
    "id": 95,
    "district_id": 2,
    "name_en": "Kurundankulama",
    "postcode": 50062
  },
  {
    "id": 96,
    "district_id": 2,
    "name_en": "Labunoruwa",
    "postcode": 50088
  },
  {
    "id": 97,
    "district_id": 2,
    "name_en": "Ihalagama",
    "postcode": 50304
  },
  {
    "id": 98,
    "district_id": 2,
    "name_en": "Ipologama",
    "postcode": 50280
  },
  {
    "id": 99,
    "district_id": 2,
    "name_en": "Madatugama",
    "postcode": 50130
  },
  {
    "id": 100,
    "district_id": 2,
    "name_en": "Maha Elagamuwa",
    "postcode": 50126
  },
  {
    "id": 101,
    "district_id": 2,
    "name_en": "Mahabulankulama",
    "postcode": 50196
  },
  {
    "id": 102,
    "district_id": 2,
    "name_en": "Mahailluppallama",
    "postcode": 50270
  },
  {
    "id": 103,
    "district_id": 2,
    "name_en": "Mahakanadarawa",
    "postcode": 50306
  },
  {
    "id": 104,
    "district_id": 2,
    "name_en": "Mahapothana",
    "postcode": 50327
  },
  {
    "id": 105,
    "district_id": 2,
    "name_en": "Mahasenpura",
    "postcode": 50574
  },
  {
    "id": 106,
    "district_id": 2,
    "name_en": "Mahawilachchiya",
    "postcode": 50022
  },
  {
    "id": 107,
    "district_id": 2,
    "name_en": "Mailagaswewa",
    "postcode": 50384
  },
  {
    "id": 108,
    "district_id": 2,
    "name_en": "Malwanagama",
    "postcode": 50236
  },
  {
    "id": 109,
    "district_id": 2,
    "name_en": "Maneruwa",
    "postcode": 50182
  },
  {
    "id": 110,
    "district_id": 2,
    "name_en": "Maradankadawala",
    "postcode": 50080
  },
  {
    "id": 111,
    "district_id": 2,
    "name_en": "Maradankalla",
    "postcode": 50308
  },
  {
    "id": 112,
    "district_id": 2,
    "name_en": "Medawachchiya",
    "postcode": 50500
  },
  {
    "id": 113,
    "district_id": 2,
    "name_en": "Megodawewa",
    "postcode": 50334
  },
  {
    "id": 114,
    "district_id": 2,
    "name_en": "Mihintale",
    "postcode": 50300
  },
  {
    "id": 115,
    "district_id": 2,
    "name_en": "Morakewa",
    "postcode": 50349
  },
  {
    "id": 116,
    "district_id": 2,
    "name_en": "Mulkiriyawa",
    "postcode": 50324
  },
  {
    "id": 117,
    "district_id": 2,
    "name_en": "Muriyakadawala",
    "postcode": 50344
  },
  {
    "id": 118,
    "district_id": 5,
    "name_en": "Colombo 15",
    "postcode": 1500
  },
  {
    "id": 119,
    "district_id": 2,
    "name_en": "Nachchaduwa",
    "postcode": 50046
  },
  {
    "id": 120,
    "district_id": 2,
    "name_en": "Namalpura",
    "postcode": 50339
  },
  {
    "id": 121,
    "district_id": 2,
    "name_en": "Negampaha",
    "postcode": 50180
  },
  {
    "id": 122,
    "district_id": 2,
    "name_en": "Nochchiyagama",
    "postcode": 50200
  },
  {
    "id": 123,
    "district_id": 2,
    "name_en": "Nuwaragala",
    "postcode": 51039
  },
  {
    "id": 124,
    "district_id": 2,
    "name_en": "Padavi Maithripura",
    "postcode": 50572
  },
  {
    "id": 125,
    "district_id": 2,
    "name_en": "Padavi Parakramapura",
    "postcode": 50582
  },
  {
    "id": 126,
    "district_id": 2,
    "name_en": "Padavi Sripura",
    "postcode": 50587
  },
  {
    "id": 127,
    "district_id": 2,
    "name_en": "Padavi Sritissapura",
    "postcode": 50588
  },
  {
    "id": 128,
    "district_id": 2,
    "name_en": "Padaviya",
    "postcode": 50570
  },
  {
    "id": 129,
    "district_id": 2,
    "name_en": "Padikaramaduwa",
    "postcode": 50338
  },
  {
    "id": 130,
    "district_id": 2,
    "name_en": "Pahala Halmillewa",
    "postcode": 50206
  },
  {
    "id": 131,
    "district_id": 2,
    "name_en": "Pahala Maragahawe",
    "postcode": 50220
  },
  {
    "id": 132,
    "district_id": 2,
    "name_en": "Pahalagama",
    "postcode": 50244
  },
  {
    "id": 133,
    "district_id": 2,
    "name_en": "Palugaswewa",
    "postcode": 50144
  },
  {
    "id": 134,
    "district_id": 2,
    "name_en": "Pandukabayapura",
    "postcode": 50448
  },
  {
    "id": 135,
    "district_id": 2,
    "name_en": "Pandulagama",
    "postcode": 50029
  },
  {
    "id": 136,
    "district_id": 2,
    "name_en": "Parakumpura",
    "postcode": 50326
  },
  {
    "id": 137,
    "district_id": 2,
    "name_en": "Parangiyawadiya",
    "postcode": 50354
  },
  {
    "id": 138,
    "district_id": 2,
    "name_en": "Parasangahawewa",
    "postcode": 50055
  },
  {
    "id": 139,
    "district_id": 2,
    "name_en": "Pelatiyawa",
    "postcode": 51033
  },
  {
    "id": 140,
    "district_id": 2,
    "name_en": "Pemaduwa",
    "postcode": 50020
  },
  {
    "id": 141,
    "district_id": 2,
    "name_en": "Perimiyankulama",
    "postcode": 50004
  },
  {
    "id": 142,
    "district_id": 2,
    "name_en": "Pihimbiyagolewa",
    "postcode": 50512
  },
  {
    "id": 143,
    "district_id": 2,
    "name_en": "Pubbogama",
    "postcode": 50122
  },
  {
    "id": 144,
    "district_id": 2,
    "name_en": "Punewa",
    "postcode": 50506
  },
  {
    "id": 145,
    "district_id": 2,
    "name_en": "Rajanganaya",
    "postcode": 50246
  },
  {
    "id": 146,
    "district_id": 2,
    "name_en": "Rambewa",
    "postcode": 50450
  },
  {
    "id": 147,
    "district_id": 2,
    "name_en": "Rampathwila",
    "postcode": 50386
  },
  {
    "id": 148,
    "district_id": 2,
    "name_en": "Rathmalgahawewa",
    "postcode": 50514
  },
  {
    "id": 149,
    "district_id": 2,
    "name_en": "Saliyapura",
    "postcode": 50008
  },
  {
    "id": 150,
    "district_id": 2,
    "name_en": "Seeppukulama",
    "postcode": 50380
  },
  {
    "id": 151,
    "district_id": 2,
    "name_en": "Senapura",
    "postcode": 50284
  },
  {
    "id": 152,
    "district_id": 2,
    "name_en": "Sivalakulama",
    "postcode": 50068
  },
  {
    "id": 153,
    "district_id": 2,
    "name_en": "Siyambalewa",
    "postcode": 50184
  },
  {
    "id": 154,
    "district_id": 2,
    "name_en": "Sravasthipura",
    "postcode": 50042
  },
  {
    "id": 155,
    "district_id": 2,
    "name_en": "Talawa",
    "postcode": 50230
  },
  {
    "id": 156,
    "district_id": 2,
    "name_en": "Tambuttegama",
    "postcode": 50240
  },
  {
    "id": 157,
    "district_id": 2,
    "name_en": "Tammennawa",
    "postcode": 50104
  },
  {
    "id": 158,
    "district_id": 2,
    "name_en": "Tantirimale",
    "postcode": 50016
  },
  {
    "id": 159,
    "district_id": 2,
    "name_en": "Telhiriyawa",
    "postcode": 50242
  },
  {
    "id": 160,
    "district_id": 2,
    "name_en": "Tirappane",
    "postcode": 50072
  },
  {
    "id": 161,
    "district_id": 2,
    "name_en": "Tittagonewa",
    "postcode": 50558
  },
  {
    "id": 162,
    "district_id": 2,
    "name_en": "Udunuwara Colony",
    "postcode": 50207
  },
  {
    "id": 163,
    "district_id": 2,
    "name_en": "Upuldeniya",
    "postcode": 50382
  },
  {
    "id": 164,
    "district_id": 2,
    "name_en": "Uttimaduwa",
    "postcode": 50067
  },
  {
    "id": 165,
    "district_id": 2,
    "name_en": "Vellamanal",
    "postcode": 31053
  },
  {
    "id": 166,
    "district_id": 2,
    "name_en": "Viharapalugama",
    "postcode": 50012
  },
  {
    "id": 167,
    "district_id": 2,
    "name_en": "Wahalkada",
    "postcode": 50564
  },
  {
    "id": 168,
    "district_id": 2,
    "name_en": "Wahamalgollewa",
    "postcode": 50492
  },
  {
    "id": 169,
    "district_id": 2,
    "name_en": "Walagambahuwa",
    "postcode": 50086
  },
  {
    "id": 170,
    "district_id": 2,
    "name_en": "Walahaviddawewa",
    "postcode": 50516
  },
  {
    "id": 171,
    "district_id": 2,
    "name_en": "Welimuwapotana",
    "postcode": 50358
  },
  {
    "id": 172,
    "district_id": 2,
    "name_en": "Welioya Project",
    "postcode": 50586
  },
  {
    "id": 173,
    "district_id": 3,
    "name_en": "Akkarasiyaya",
    "postcode": 90166
  },
  {
    "id": 174,
    "district_id": 3,
    "name_en": "Aluketiyawa",
    "postcode": 90736
  },
  {
    "id": 175,
    "district_id": 3,
    "name_en": "Aluttaramma",
    "postcode": 90722
  },
  {
    "id": 176,
    "district_id": 3,
    "name_en": "Ambadandegama",
    "postcode": 90108
  },
  {
    "id": 177,
    "district_id": 3,
    "name_en": "Ambagasdowa",
    "postcode": 90300
  },
  {
    "id": 178,
    "district_id": 3,
    "name_en": "Arawa",
    "postcode": 90017
  },
  {
    "id": 179,
    "district_id": 3,
    "name_en": "Arawakumbura",
    "postcode": 90532
  },
  {
    "id": 180,
    "district_id": 3,
    "name_en": "Arawatta",
    "postcode": 90712
  },
  {
    "id": 181,
    "district_id": 3,
    "name_en": "Atakiriya",
    "postcode": 90542
  },
  {
    "id": 182,
    "district_id": 3,
    "name_en": "Badulla",
    "postcode": 90000
  },
  {
    "id": 183,
    "district_id": 3,
    "name_en": "Baduluoya",
    "postcode": 90019
  },
  {
    "id": 184,
    "district_id": 3,
    "name_en": "Ballaketuwa",
    "postcode": 90092
  },
  {
    "id": 185,
    "district_id": 3,
    "name_en": "Bambarapana",
    "postcode": 90322
  },
  {
    "id": 186,
    "district_id": 3,
    "name_en": "Bandarawela",
    "postcode": 90100
  },
  {
    "id": 187,
    "district_id": 3,
    "name_en": "Beramada",
    "postcode": 90066
  },
  {
    "id": 188,
    "district_id": 3,
    "name_en": "Bibilegama",
    "postcode": 90502
  },
  {
    "id": 189,
    "district_id": 3,
    "name_en": "Boragas",
    "postcode": 90362
  },
  {
    "id": 190,
    "district_id": 3,
    "name_en": "Boralanda",
    "postcode": 90170
  },
  {
    "id": 191,
    "district_id": 3,
    "name_en": "Bowela",
    "postcode": 90302
  },
  {
    "id": 192,
    "district_id": 3,
    "name_en": "Central Camp",
    "postcode": 32050
  },
  {
    "id": 193,
    "district_id": 3,
    "name_en": "Damanewela",
    "postcode": 32126
  },
  {
    "id": 194,
    "district_id": 3,
    "name_en": "Dambana",
    "postcode": 90714
  },
  {
    "id": 195,
    "district_id": 3,
    "name_en": "Dehiattakandiya",
    "postcode": 32150
  },
  {
    "id": 196,
    "district_id": 3,
    "name_en": "Demodara",
    "postcode": 90080
  },
  {
    "id": 197,
    "district_id": 3,
    "name_en": "Diganatenna",
    "postcode": 90132
  },
  {
    "id": 198,
    "district_id": 3,
    "name_en": "Dikkapitiya",
    "postcode": 90214
  },
  {
    "id": 199,
    "district_id": 3,
    "name_en": "Dimbulana",
    "postcode": 90324
  },
  {
    "id": 200,
    "district_id": 3,
    "name_en": "Divulapelessa",
    "postcode": 90726
  },
  {
    "id": 201,
    "district_id": 3,
    "name_en": "Diyatalawa",
    "postcode": 90150
  },
  {
    "id": 202,
    "district_id": 3,
    "name_en": "Dulgolla",
    "postcode": 90104
  },
  {
    "id": 203,
    "district_id": 3,
    "name_en": "Ekiriyankumbura",
    "postcode": 91502
  },
  {
    "id": 204,
    "district_id": 3,
    "name_en": "Ella",
    "postcode": 90090
  },
  {
    "id": 205,
    "district_id": 3,
    "name_en": "Ettampitiya",
    "postcode": 90140
  },
  {
    "id": 206,
    "district_id": 3,
    "name_en": "Galauda",
    "postcode": 90065
  },
  {
    "id": 207,
    "district_id": 3,
    "name_en": "Galporuyaya",
    "postcode": 90752
  },
  {
    "id": 208,
    "district_id": 3,
    "name_en": "Gawarawela",
    "postcode": 90082
  },
  {
    "id": 209,
    "district_id": 3,
    "name_en": "Girandurukotte",
    "postcode": 90750
  },
  {
    "id": 210,
    "district_id": 3,
    "name_en": "Godunna",
    "postcode": 90067
  },
  {
    "id": 211,
    "district_id": 3,
    "name_en": "Gurutalawa",
    "postcode": 90208
  },
  {
    "id": 212,
    "district_id": 3,
    "name_en": "Haldummulla",
    "postcode": 90180
  },
  {
    "id": 213,
    "district_id": 3,
    "name_en": "Hali Ela",
    "postcode": 90060
  },
  {
    "id": 214,
    "district_id": 3,
    "name_en": "Hangunnawa",
    "postcode": 90224
  },
  {
    "id": 215,
    "district_id": 3,
    "name_en": "Haputale",
    "postcode": 90160
  },
  {
    "id": 216,
    "district_id": 3,
    "name_en": "Hebarawa",
    "postcode": 90724
  },
  {
    "id": 217,
    "district_id": 3,
    "name_en": "Heeloya",
    "postcode": 90112
  },
  {
    "id": 218,
    "district_id": 3,
    "name_en": "Helahalpe",
    "postcode": 90122
  },
  {
    "id": 219,
    "district_id": 3,
    "name_en": "Helapupula",
    "postcode": 90094
  },
  {
    "id": 220,
    "district_id": 3,
    "name_en": "Hopton",
    "postcode": 90524
  },
  {
    "id": 221,
    "district_id": 3,
    "name_en": "Idalgashinna",
    "postcode": 96167
  },
  {
    "id": 222,
    "district_id": 3,
    "name_en": "Kahataruppa",
    "postcode": 90052
  },
  {
    "id": 223,
    "district_id": 3,
    "name_en": "Kalugahakandura",
    "postcode": 90546
  },
  {
    "id": 224,
    "district_id": 3,
    "name_en": "Kalupahana",
    "postcode": 90186
  },
  {
    "id": 225,
    "district_id": 3,
    "name_en": "Kebillawela",
    "postcode": 90102
  },
  {
    "id": 226,
    "district_id": 3,
    "name_en": "Kendagolla",
    "postcode": 90048
  },
  {
    "id": 227,
    "district_id": 3,
    "name_en": "Keselpotha",
    "postcode": 90738
  },
  {
    "id": 228,
    "district_id": 3,
    "name_en": "Ketawatta",
    "postcode": 90016
  },
  {
    "id": 229,
    "district_id": 3,
    "name_en": "Kiriwanagama",
    "postcode": 90184
  },
  {
    "id": 230,
    "district_id": 3,
    "name_en": "Koslanda",
    "postcode": 90190
  },
  {
    "id": 231,
    "district_id": 3,
    "name_en": "Kuruwitenna",
    "postcode": 90728
  },
  {
    "id": 232,
    "district_id": 3,
    "name_en": "Kuttiyagolla",
    "postcode": 90046
  },
  {
    "id": 233,
    "district_id": 3,
    "name_en": "Landewela",
    "postcode": 90068
  },
  {
    "id": 234,
    "district_id": 3,
    "name_en": "Liyangahawela",
    "postcode": 90106
  },
  {
    "id": 235,
    "district_id": 3,
    "name_en": "Lunugala",
    "postcode": 90530
  },
  {
    "id": 236,
    "district_id": 3,
    "name_en": "Lunuwatta",
    "postcode": 90310
  },
  {
    "id": 237,
    "district_id": 3,
    "name_en": "Madulsima",
    "postcode": 90535
  },
  {
    "id": 238,
    "district_id": 3,
    "name_en": "Mahiyanganaya",
    "postcode": 90700
  },
  {
    "id": 239,
    "district_id": 3,
    "name_en": "Makulella",
    "postcode": 90114
  },
  {
    "id": 240,
    "district_id": 3,
    "name_en": "Malgoda",
    "postcode": 90754
  },
  {
    "id": 241,
    "district_id": 3,
    "name_en": "Mapakadawewa",
    "postcode": 90730
  },
  {
    "id": 242,
    "district_id": 3,
    "name_en": "Maspanna",
    "postcode": 90328
  },
  {
    "id": 243,
    "district_id": 3,
    "name_en": "Maussagolla",
    "postcode": 90582
  },
  {
    "id": 244,
    "district_id": 3,
    "name_en": "Mawanagama",
    "postcode": 32158
  },
  {
    "id": 245,
    "district_id": 3,
    "name_en": "Medawela Udukinda",
    "postcode": 90218
  },
  {
    "id": 246,
    "district_id": 3,
    "name_en": "Meegahakiula",
    "postcode": 90015
  },
  {
    "id": 247,
    "district_id": 3,
    "name_en": "Metigahatenna",
    "postcode": 90540
  },
  {
    "id": 248,
    "district_id": 3,
    "name_en": "Mirahawatta",
    "postcode": 90134
  },
  {
    "id": 249,
    "district_id": 3,
    "name_en": "Miriyabedda",
    "postcode": 90504
  },
  {
    "id": 250,
    "district_id": 3,
    "name_en": "Nawamedagama",
    "postcode": 32120
  },
  {
    "id": 251,
    "district_id": 3,
    "name_en": "Nelumgama",
    "postcode": 90042
  },
  {
    "id": 252,
    "district_id": 3,
    "name_en": "Nikapotha",
    "postcode": 90165
  },
  {
    "id": 253,
    "district_id": 3,
    "name_en": "Nugatalawa",
    "postcode": 90216
  },
  {
    "id": 254,
    "district_id": 3,
    "name_en": "Ohiya",
    "postcode": 90168
  },
  {
    "id": 255,
    "district_id": 3,
    "name_en": "Pahalarathkinda",
    "postcode": 90756
  },
  {
    "id": 256,
    "district_id": 3,
    "name_en": "Pallekiruwa",
    "postcode": 90534
  },
  {
    "id": 257,
    "district_id": 3,
    "name_en": "Passara",
    "postcode": 90500
  },
  {
    "id": 258,
    "district_id": 3,
    "name_en": "Pattiyagedara",
    "postcode": 90138
  },
  {
    "id": 259,
    "district_id": 3,
    "name_en": "Pelagahatenna",
    "postcode": 90522
  },
  {
    "id": 260,
    "district_id": 3,
    "name_en": "Perawella",
    "postcode": 90222
  },
  {
    "id": 261,
    "district_id": 3,
    "name_en": "Pitamaruwa",
    "postcode": 90544
  },
  {
    "id": 262,
    "district_id": 3,
    "name_en": "Pitapola",
    "postcode": 90171
  },
  {
    "id": 263,
    "district_id": 3,
    "name_en": "Puhulpola",
    "postcode": 90212
  },
  {
    "id": 264,
    "district_id": 3,
    "name_en": "Rajagalatenna",
    "postcode": 32068
  },
  {
    "id": 265,
    "district_id": 3,
    "name_en": "Rathkarawwa",
    "postcode": 90164
  },
  {
    "id": 266,
    "district_id": 3,
    "name_en": "Ridimaliyadda",
    "postcode": 90704
  },
  {
    "id": 267,
    "district_id": 3,
    "name_en": "Silmiyapura",
    "postcode": 90364
  },
  {
    "id": 268,
    "district_id": 3,
    "name_en": "Sirimalgoda",
    "postcode": 90044
  },
  {
    "id": 269,
    "district_id": 3,
    "name_en": "Siripura",
    "postcode": 32155
  },
  {
    "id": 270,
    "district_id": 3,
    "name_en": "Sorabora Colony",
    "postcode": 90718
  },
  {
    "id": 271,
    "district_id": 3,
    "name_en": "Soragune",
    "postcode": 90183
  },
  {
    "id": 272,
    "district_id": 3,
    "name_en": "Soranathota",
    "postcode": 90008
  },
  {
    "id": 273,
    "district_id": 3,
    "name_en": "Taldena",
    "postcode": 90014
  },
  {
    "id": 274,
    "district_id": 3,
    "name_en": "Timbirigaspitiya",
    "postcode": 90012
  },
  {
    "id": 275,
    "district_id": 3,
    "name_en": "Uduhawara",
    "postcode": 90226
  },
  {
    "id": 276,
    "district_id": 3,
    "name_en": "Uraniya",
    "postcode": 90702
  },
  {
    "id": 277,
    "district_id": 3,
    "name_en": "Uva Karandagolla",
    "postcode": 90091
  },
  {
    "id": 278,
    "district_id": 3,
    "name_en": "Uva Mawelagama",
    "postcode": 90192
  },
  {
    "id": 279,
    "district_id": 3,
    "name_en": "Uva Tenna",
    "postcode": 90188
  },
  {
    "id": 280,
    "district_id": 3,
    "name_en": "Uva Tissapura",
    "postcode": 90734
  },
  {
    "id": 281,
    "district_id": 3,
    "name_en": "Welimada",
    "postcode": 90200
  },
  {
    "id": 282,
    "district_id": 3,
    "name_en": "Weranketagoda",
    "postcode": 32062
  },
  {
    "id": 283,
    "district_id": 3,
    "name_en": "Wewatta",
    "postcode": 90716
  },
  {
    "id": 284,
    "district_id": 3,
    "name_en": "Wineethagama",
    "postcode": 90034
  },
  {
    "id": 285,
    "district_id": 3,
    "name_en": "Yalagamuwa",
    "postcode": 90329
  },
  {
    "id": 286,
    "district_id": 3,
    "name_en": "Yalwela",
    "postcode": 90706
  },
  {
    "id": 287,
    "district_id": 4,
    "name_en": "Addalaichenai",
    "postcode": 32350
  },
  {
    "id": 288,
    "district_id": 4,
    "name_en": "Ampilanthurai",
    "postcode": 30162
  },
  {
    "id": 289,
    "district_id": 4,
    "name_en": "Araipattai",
    "postcode": 30150
  },
  {
    "id": 290,
    "district_id": 4,
    "name_en": "Ayithiyamalai",
    "postcode": 30362
  },
  {
    "id": 291,
    "district_id": 4,
    "name_en": "Bakiella",
    "postcode": 30206
  },
  {
    "id": 292,
    "district_id": 4,
    "name_en": "Batticaloa",
    "postcode": 30000
  },
  {
    "id": 293,
    "district_id": 4,
    "name_en": "Cheddipalayam",
    "postcode": 30194
  },
  {
    "id": 294,
    "district_id": 4,
    "name_en": "Chenkaladi",
    "postcode": 30350
  },
  {
    "id": 295,
    "district_id": 4,
    "name_en": "Eravur",
    "postcode": 30300
  },
  {
    "id": 296,
    "district_id": 4,
    "name_en": "Kaluwanchikudi",
    "postcode": 30200
  },
  {
    "id": 297,
    "district_id": 4,
    "name_en": "Kaluwankemy",
    "postcode": 30372
  },
  {
    "id": 298,
    "district_id": 4,
    "name_en": "Kannankudah",
    "postcode": 30016
  },
  {
    "id": 299,
    "district_id": 4,
    "name_en": "Karadiyanaru",
    "postcode": 30354
  },
  {
    "id": 300,
    "district_id": 4,
    "name_en": "Kathiraveli",
    "postcode": 30456
  },
  {
    "id": 301,
    "district_id": 4,
    "name_en": "Kattankudi",
    "postcode": 30100
  },
  {
    "id": 302,
    "district_id": 4,
    "name_en": "Kiran",
    "postcode": 30394
  },
  {
    "id": 303,
    "district_id": 4,
    "name_en": "Kirankulam",
    "postcode": 30159
  },
  {
    "id": 304,
    "district_id": 4,
    "name_en": "Koddaikallar",
    "postcode": 30249
  },
  {
    "id": 305,
    "district_id": 4,
    "name_en": "Kokkaddicholai",
    "postcode": 30160
  },
  {
    "id": 306,
    "district_id": 4,
    "name_en": "Kurukkalmadam",
    "postcode": 30192
  },
  {
    "id": 307,
    "district_id": 4,
    "name_en": "Mandur",
    "postcode": 30220
  },
  {
    "id": 308,
    "district_id": 4,
    "name_en": "Miravodai",
    "postcode": 30426
  },
  {
    "id": 309,
    "district_id": 4,
    "name_en": "Murakottanchanai",
    "postcode": 30392
  },
  {
    "id": 310,
    "district_id": 4,
    "name_en": "Navagirinagar",
    "postcode": 30238
  },
  {
    "id": 311,
    "district_id": 4,
    "name_en": "Navatkadu",
    "postcode": 30018
  },
  {
    "id": 312,
    "district_id": 4,
    "name_en": "Oddamavadi",
    "postcode": 30420
  },
  {
    "id": 313,
    "district_id": 4,
    "name_en": "Palamunai",
    "postcode": 32354
  },
  {
    "id": 314,
    "district_id": 4,
    "name_en": "Pankudavely",
    "postcode": 30352
  },
  {
    "id": 315,
    "district_id": 4,
    "name_en": "Periyaporativu",
    "postcode": 30230
  },
  {
    "id": 316,
    "district_id": 4,
    "name_en": "Periyapullumalai",
    "postcode": 30358
  },
  {
    "id": 317,
    "district_id": 4,
    "name_en": "Pillaiyaradi",
    "postcode": 30022
  },
  {
    "id": 318,
    "district_id": 4,
    "name_en": "Punanai",
    "postcode": 30428
  },
  {
    "id": 319,
    "district_id": 4,
    "name_en": "Thannamunai",
    "postcode": 30024
  },
  {
    "id": 320,
    "district_id": 4,
    "name_en": "Thettativu",
    "postcode": 30196
  },
  {
    "id": 321,
    "district_id": 4,
    "name_en": "Thikkodai",
    "postcode": 30236
  },
  {
    "id": 322,
    "district_id": 4,
    "name_en": "Thirupalugamam",
    "postcode": 30234
  },
  {
    "id": 323,
    "district_id": 4,
    "name_en": "Unnichchai",
    "postcode": 30364
  },
  {
    "id": 324,
    "district_id": 4,
    "name_en": "Vakaneri",
    "postcode": 30424
  },
  {
    "id": 325,
    "district_id": 4,
    "name_en": "Vakarai",
    "postcode": 30450
  },
  {
    "id": 326,
    "district_id": 4,
    "name_en": "Valaichenai",
    "postcode": 30400
  },
  {
    "id": 327,
    "district_id": 4,
    "name_en": "Vantharumoolai",
    "postcode": 30376
  },
  {
    "id": 328,
    "district_id": 4,
    "name_en": "Vellavely",
    "postcode": 30204
  },
  {
    "id": 329,
    "district_id": 5,
    "name_en": "Akarawita",
    "postcode": 10732
  },
  {
    "id": 330,
    "district_id": 5,
    "name_en": "Ambalangoda",
    "postcode": 80300
  },
  {
    "id": 331,
    "district_id": 5,
    "name_en": "Athurugiriya",
    "postcode": 10150
  },
  {
    "id": 332,
    "district_id": 5,
    "name_en": "Avissawella",
    "postcode": 10700
  },
  {
    "id": 333,
    "district_id": 5,
    "name_en": "Batawala",
    "postcode": 10513
  },
  {
    "id": 334,
    "district_id": 5,
    "name_en": "Battaramulla",
    "postcode": 10120
  },
  {
    "id": 335,
    "district_id": 5,
    "name_en": "Biyagama",
    "postcode": 11650
  },
  {
    "id": 336,
    "district_id": 5,
    "name_en": "Bope",
    "postcode": 10522
  },
  {
    "id": 337,
    "district_id": 5,
    "name_en": "Boralesgamuwa",
    "postcode": 10290
  },
  {
    "id": 338,
    "district_id": 5,
    "name_en": "Colombo 8",
    "postcode": 800
  },
  {
    "id": 339,
    "district_id": 5,
    "name_en": "Dedigamuwa",
    "postcode": 10656
  },
  {
    "id": 340,
    "district_id": 5,
    "name_en": "Dehiwala",
    "postcode": 10350
  },
  {
    "id": 341,
    "district_id": 5,
    "name_en": "Deltara",
    "postcode": 10302
  },
  {
    "id": 342,
    "district_id": 5,
    "name_en": "Habarakada",
    "postcode": 10204
  },
  {
    "id": 343,
    "district_id": 5,
    "name_en": "Hanwella",
    "postcode": 10650
  },
  {
    "id": 344,
    "district_id": 5,
    "name_en": "Hiripitya",
    "postcode": 10232
  },
  {
    "id": 345,
    "district_id": 5,
    "name_en": "Hokandara",
    "postcode": 10118
  },
  {
    "id": 346,
    "district_id": 5,
    "name_en": "Homagama",
    "postcode": 10200
  },
  {
    "id": 347,
    "district_id": 5,
    "name_en": "Horagala",
    "postcode": 10502
  },
  {
    "id": 348,
    "district_id": 5,
    "name_en": "Kaduwela",
    "postcode": 10640
  },
  {
    "id": 349,
    "district_id": 5,
    "name_en": "Kaluaggala",
    "postcode": 11224
  },
  {
    "id": 350,
    "district_id": 5,
    "name_en": "Kapugoda",
    "postcode": 10662
  },
  {
    "id": 351,
    "district_id": 5,
    "name_en": "Kehelwatta",
    "postcode": 12550
  },
  {
    "id": 352,
    "district_id": 5,
    "name_en": "Kiriwattuduwa",
    "postcode": 10208
  },
  {
    "id": 353,
    "district_id": 5,
    "name_en": "Kolonnawa",
    "postcode": 10600
  },
  {
    "id": 354,
    "district_id": 5,
    "name_en": "Kosgama",
    "postcode": 10730
  },
  {
    "id": 355,
    "district_id": 5,
    "name_en": "Madapatha",
    "postcode": 10306
  },
  {
    "id": 356,
    "district_id": 5,
    "name_en": "Maharagama",
    "postcode": 10280
  },
  {
    "id": 357,
    "district_id": 5,
    "name_en": "Malabe",
    "postcode": 10115
  },
  {
    "id": 358,
    "district_id": 5,
    "name_en": "Moratuwa",
    "postcode": 10400
  },
  {
    "id": 359,
    "district_id": 5,
    "name_en": "Mount Lavinia",
    "postcode": 10370
  },
  {
    "id": 360,
    "district_id": 5,
    "name_en": "Mullegama",
    "postcode": 10202
  },
  {
    "id": 361,
    "district_id": 5,
    "name_en": "Napawela",
    "postcode": 10704
  },
  {
    "id": 362,
    "district_id": 5,
    "name_en": "Nugegoda",
    "postcode": 10250
  },
  {
    "id": 363,
    "district_id": 5,
    "name_en": "Padukka",
    "postcode": 10500
  },
  {
    "id": 364,
    "district_id": 5,
    "name_en": "Pannipitiya",
    "postcode": 10230
  },
  {
    "id": 365,
    "district_id": 5,
    "name_en": "Piliyandala",
    "postcode": 10300
  },
  {
    "id": 366,
    "district_id": 5,
    "name_en": "Pitipana Homagama",
    "postcode": 10206
  },
  {
    "id": 367,
    "district_id": 5,
    "name_en": "Polgasowita",
    "postcode": 10320
  },
  {
    "id": 368,
    "district_id": 5,
    "name_en": "Pugoda",
    "postcode": 10660
  },
  {
    "id": 369,
    "district_id": 5,
    "name_en": "Ranala",
    "postcode": 10654
  },
  {
    "id": 370,
    "district_id": 5,
    "name_en": "Siddamulla",
    "postcode": 10304
  },
  {
    "id": 371,
    "district_id": 5,
    "name_en": "Siyambalagoda",
    "postcode": 81462
  },
  {
    "id": 372,
    "district_id": 5,
    "name_en": "Sri Jayawardenepura",
    "postcode": 10100
  },
  {
    "id": 373,
    "district_id": 5,
    "name_en": "Talawatugoda",
    "postcode": 10116
  },
  {
    "id": 374,
    "district_id": 5,
    "name_en": "Tummodara",
    "postcode": 10682
  },
  {
    "id": 375,
    "district_id": 5,
    "name_en": "Waga",
    "postcode": 10680
  },
  {
    "id": 376,
    "district_id": 5,
    "name_en": "Colombo 6",
    "postcode": 600
  },
  {
    "id": 377,
    "district_id": 6,
    "name_en": "Agaliya",
    "postcode": 80212
  },
  {
    "id": 378,
    "district_id": 6,
    "name_en": "Ahangama",
    "postcode": 80650
  },
  {
    "id": 379,
    "district_id": 6,
    "name_en": "Ahungalla",
    "postcode": 80562
  },
  {
    "id": 380,
    "district_id": 6,
    "name_en": "Akmeemana",
    "postcode": 80090
  },
  {
    "id": 381,
    "district_id": 6,
    "name_en": "Alawatugoda",
    "postcode": 20140
  },
  {
    "id": 382,
    "district_id": 6,
    "name_en": "Aluthwala",
    "postcode": 80332
  },
  {
    "id": 383,
    "district_id": 6,
    "name_en": "Ampegama",
    "postcode": 80204
  },
  {
    "id": 384,
    "district_id": 6,
    "name_en": "Amugoda",
    "postcode": 80422
  },
  {
    "id": 385,
    "district_id": 6,
    "name_en": "Anangoda",
    "postcode": 80044
  },
  {
    "id": 386,
    "district_id": 6,
    "name_en": "Angulugaha",
    "postcode": 80122
  },
  {
    "id": 387,
    "district_id": 6,
    "name_en": "Ankokkawala",
    "postcode": 80048
  },
  {
    "id": 388,
    "district_id": 6,
    "name_en": "Aselapura",
    "postcode": 51072
  },
  {
    "id": 389,
    "district_id": 6,
    "name_en": "Baddegama",
    "postcode": 80200
  },
  {
    "id": 390,
    "district_id": 6,
    "name_en": "Balapitiya",
    "postcode": 80550
  },
  {
    "id": 391,
    "district_id": 6,
    "name_en": "Banagala",
    "postcode": 80143
  },
  {
    "id": 392,
    "district_id": 6,
    "name_en": "Batapola",
    "postcode": 80320
  },
  {
    "id": 393,
    "district_id": 6,
    "name_en": "Bentota",
    "postcode": 80500
  },
  {
    "id": 394,
    "district_id": 6,
    "name_en": "Boossa",
    "postcode": 80270
  },
  {
    "id": 395,
    "district_id": 6,
    "name_en": "Dellawa",
    "postcode": 81477
  },
  {
    "id": 396,
    "district_id": 6,
    "name_en": "Dikkumbura",
    "postcode": 80654
  },
  {
    "id": 397,
    "district_id": 6,
    "name_en": "Dodanduwa",
    "postcode": 80250
  },
  {
    "id": 398,
    "district_id": 6,
    "name_en": "Ella Tanabaddegama",
    "postcode": 80402
  },
  {
    "id": 399,
    "district_id": 6,
    "name_en": "Elpitiya",
    "postcode": 80400
  },
  {
    "id": 400,
    "district_id": 6,
    "name_en": "Galle",
    "postcode": 80000
  },
  {
    "id": 401,
    "district_id": 6,
    "name_en": "Ginimellagaha",
    "postcode": 80220
  },
  {
    "id": 402,
    "district_id": 6,
    "name_en": "Gintota",
    "postcode": 80280
  },
  {
    "id": 403,
    "district_id": 6,
    "name_en": "Godahena",
    "postcode": 80302
  },
  {
    "id": 404,
    "district_id": 6,
    "name_en": "Gonamulla Junction",
    "postcode": 80054
  },
  {
    "id": 405,
    "district_id": 6,
    "name_en": "Gonapinuwala",
    "postcode": 80230
  },
  {
    "id": 406,
    "district_id": 6,
    "name_en": "Habaraduwa",
    "postcode": 80630
  },
  {
    "id": 407,
    "district_id": 6,
    "name_en": "Haburugala",
    "postcode": 80506
  },
  {
    "id": 408,
    "district_id": 6,
    "name_en": "Hikkaduwa",
    "postcode": 80240
  },
  {
    "id": 409,
    "district_id": 6,
    "name_en": "Hiniduma",
    "postcode": 80080
  },
  {
    "id": 410,
    "district_id": 6,
    "name_en": "Hiyare",
    "postcode": 80056
  },
  {
    "id": 411,
    "district_id": 6,
    "name_en": "Kahaduwa",
    "postcode": 80460
  },
  {
    "id": 412,
    "district_id": 6,
    "name_en": "Kahawa",
    "postcode": 80312
  },
  {
    "id": 413,
    "district_id": 6,
    "name_en": "Karagoda",
    "postcode": 80151
  },
  {
    "id": 414,
    "district_id": 6,
    "name_en": "Karandeniya",
    "postcode": 80360
  },
  {
    "id": 415,
    "district_id": 6,
    "name_en": "Kosgoda",
    "postcode": 80570
  },
  {
    "id": 416,
    "district_id": 6,
    "name_en": "Kottawagama",
    "postcode": 80062
  },
  {
    "id": 417,
    "district_id": 6,
    "name_en": "Kottegoda",
    "postcode": 81180
  },
  {
    "id": 418,
    "district_id": 6,
    "name_en": "Kuleegoda",
    "postcode": 80328
  },
  {
    "id": 419,
    "district_id": 6,
    "name_en": "Magedara",
    "postcode": 80152
  },
  {
    "id": 420,
    "district_id": 6,
    "name_en": "Mahawela Sinhapura",
    "postcode": 51076
  },
  {
    "id": 421,
    "district_id": 6,
    "name_en": "Mapalagama",
    "postcode": 80112
  },
  {
    "id": 422,
    "district_id": 6,
    "name_en": "Mapalagama Central",
    "postcode": 80116
  },
  {
    "id": 423,
    "district_id": 6,
    "name_en": "Mattaka",
    "postcode": 80424
  },
  {
    "id": 424,
    "district_id": 6,
    "name_en": "Meda-Keembiya",
    "postcode": 80092
  },
  {
    "id": 425,
    "district_id": 6,
    "name_en": "Meetiyagoda",
    "postcode": 80330
  },
  {
    "id": 426,
    "district_id": 6,
    "name_en": "Nagoda",
    "postcode": 80110
  },
  {
    "id": 427,
    "district_id": 6,
    "name_en": "Nakiyadeniya",
    "postcode": 80064
  },
  {
    "id": 428,
    "district_id": 6,
    "name_en": "Nawandagala",
    "postcode": 80416
  },
  {
    "id": 429,
    "district_id": 6,
    "name_en": "Neluwa",
    "postcode": 80082
  },
  {
    "id": 430,
    "district_id": 6,
    "name_en": "Nindana",
    "postcode": 80318
  },
  {
    "id": 431,
    "district_id": 6,
    "name_en": "Pahala Millawa",
    "postcode": 81472
  },
  {
    "id": 432,
    "district_id": 6,
    "name_en": "Panangala",
    "postcode": 80075
  },
  {
    "id": 433,
    "district_id": 6,
    "name_en": "Pannimulla Panagoda",
    "postcode": 80086
  },
  {
    "id": 434,
    "district_id": 6,
    "name_en": "Parana Thanayamgoda",
    "postcode": 80114
  },
  {
    "id": 435,
    "district_id": 6,
    "name_en": "Patana",
    "postcode": 22012
  },
  {
    "id": 436,
    "district_id": 6,
    "name_en": "Pitigala",
    "postcode": 80420
  },
  {
    "id": 437,
    "district_id": 6,
    "name_en": "Poddala",
    "postcode": 80170
  },
  {
    "id": 438,
    "district_id": 6,
    "name_en": "Polgampola",
    "postcode": 12136
  },
  {
    "id": 439,
    "district_id": 6,
    "name_en": "Porawagama",
    "postcode": 80408
  },
  {
    "id": 440,
    "district_id": 6,
    "name_en": "Rantotuwila",
    "postcode": 80354
  },
  {
    "id": 441,
    "district_id": 6,
    "name_en": "Talagampola",
    "postcode": 80058
  },
  {
    "id": 442,
    "district_id": 6,
    "name_en": "Talgaspe",
    "postcode": 80406
  },
  {
    "id": 443,
    "district_id": 6,
    "name_en": "Talpe",
    "postcode": 80615
  },
  {
    "id": 444,
    "district_id": 6,
    "name_en": "Tawalama",
    "postcode": 80148
  },
  {
    "id": 445,
    "district_id": 6,
    "name_en": "Tiranagama",
    "postcode": 80244
  },
  {
    "id": 446,
    "district_id": 6,
    "name_en": "Udalamatta",
    "postcode": 80108
  },
  {
    "id": 447,
    "district_id": 6,
    "name_en": "Udugama",
    "postcode": 80070
  },
  {
    "id": 448,
    "district_id": 6,
    "name_en": "Uluvitike",
    "postcode": 80168
  },
  {
    "id": 449,
    "district_id": 6,
    "name_en": "Unawatuna",
    "postcode": 80600
  },
  {
    "id": 450,
    "district_id": 6,
    "name_en": "Unawitiya",
    "postcode": 80214
  },
  {
    "id": 451,
    "district_id": 6,
    "name_en": "Uragaha",
    "postcode": 80352
  },
  {
    "id": 452,
    "district_id": 6,
    "name_en": "Uragasmanhandiya",
    "postcode": 80350
  },
  {
    "id": 453,
    "district_id": 6,
    "name_en": "Wakwella",
    "postcode": 80042
  },
  {
    "id": 454,
    "district_id": 6,
    "name_en": "Walahanduwa",
    "postcode": 80046
  },
  {
    "id": 455,
    "district_id": 6,
    "name_en": "Wanchawela",
    "postcode": 80120
  },
  {
    "id": 456,
    "district_id": 6,
    "name_en": "Wanduramba",
    "postcode": 80100
  },
  {
    "id": 457,
    "district_id": 6,
    "name_en": "Warukandeniya",
    "postcode": 80084
  },
  {
    "id": 458,
    "district_id": 6,
    "name_en": "Watugedara",
    "postcode": 80340
  },
  {
    "id": 459,
    "district_id": 6,
    "name_en": "Weihena",
    "postcode": 80216
  },
  {
    "id": 460,
    "district_id": 6,
    "name_en": "Welikanda",
    "postcode": 51070
  },
  {
    "id": 461,
    "district_id": 6,
    "name_en": "Wilanagama",
    "postcode": 20142
  },
  {
    "id": 462,
    "district_id": 6,
    "name_en": "Yakkalamulla",
    "postcode": 80150
  },
  {
    "id": 463,
    "district_id": 6,
    "name_en": "Yatalamatta",
    "postcode": 80107
  },
  {
    "id": 464,
    "district_id": 7,
    "name_en": "Akaragama",
    "postcode": 11536
  },
  {
    "id": 465,
    "district_id": 7,
    "name_en": "Ambagaspitiya",
    "postcode": 11052
  },
  {
    "id": 466,
    "district_id": 7,
    "name_en": "Ambepussa",
    "postcode": 11212
  },
  {
    "id": 467,
    "district_id": 7,
    "name_en": "Andiambalama",
    "postcode": 11558
  },
  {
    "id": 468,
    "district_id": 7,
    "name_en": "Attanagalla",
    "postcode": 11120
  },
  {
    "id": 469,
    "district_id": 7,
    "name_en": "Badalgama",
    "postcode": 11538
  },
  {
    "id": 470,
    "district_id": 7,
    "name_en": "Banduragoda",
    "postcode": 11244
  },
  {
    "id": 471,
    "district_id": 7,
    "name_en": "Batuwatta",
    "postcode": 11011
  },
  {
    "id": 472,
    "district_id": 7,
    "name_en": "Bemmulla",
    "postcode": 11040
  },
  {
    "id": 473,
    "district_id": 7,
    "name_en": "Biyagama IPZ",
    "postcode": 11672
  },
  {
    "id": 474,
    "district_id": 7,
    "name_en": "Bokalagama",
    "postcode": 11216
  },
  {
    "id": 475,
    "district_id": 7,
    "name_en": "Bollete (WP)",
    "postcode": 11024
  },
  {
    "id": 476,
    "district_id": 7,
    "name_en": "Bopagama",
    "postcode": 11134
  },
  {
    "id": 477,
    "district_id": 7,
    "name_en": "Buthpitiya",
    "postcode": 11720
  },
  {
    "id": 478,
    "district_id": 7,
    "name_en": "Dagonna",
    "postcode": 11524
  },
  {
    "id": 479,
    "district_id": 7,
    "name_en": "Danowita",
    "postcode": 11896
  },
  {
    "id": 480,
    "district_id": 7,
    "name_en": "Debahera",
    "postcode": 11889
  },
  {
    "id": 481,
    "district_id": 7,
    "name_en": "Dekatana",
    "postcode": 11690
  },
  {
    "id": 482,
    "district_id": 7,
    "name_en": "Delgoda",
    "postcode": 11700
  },
  {
    "id": 483,
    "district_id": 7,
    "name_en": "Delwagura",
    "postcode": 11228
  },
  {
    "id": 484,
    "district_id": 7,
    "name_en": "Demalagama",
    "postcode": 11692
  },
  {
    "id": 485,
    "district_id": 7,
    "name_en": "Demanhandiya",
    "postcode": 11270
  },
  {
    "id": 486,
    "district_id": 7,
    "name_en": "Dewalapola",
    "postcode": 11102
  },
  {
    "id": 487,
    "district_id": 7,
    "name_en": "Divulapitiya",
    "postcode": 11250
  },
  {
    "id": 488,
    "district_id": 7,
    "name_en": "Divuldeniya",
    "postcode": 11208
  },
  {
    "id": 489,
    "district_id": 7,
    "name_en": "Dompe",
    "postcode": 11680
  },
  {
    "id": 490,
    "district_id": 7,
    "name_en": "Dunagaha",
    "postcode": 11264
  },
  {
    "id": 491,
    "district_id": 7,
    "name_en": "Ekala",
    "postcode": 11380
  },
  {
    "id": 492,
    "district_id": 7,
    "name_en": "Ellakkala",
    "postcode": 11116
  },
  {
    "id": 493,
    "district_id": 7,
    "name_en": "Essella",
    "postcode": 11108
  },
  {
    "id": 494,
    "district_id": 7,
    "name_en": "Galedanda",
    "postcode": 90206
  },
  {
    "id": 495,
    "district_id": 7,
    "name_en": "Gampaha",
    "postcode": 11000
  },
  {
    "id": 496,
    "district_id": 7,
    "name_en": "Ganemulla",
    "postcode": 11020
  },
  {
    "id": 497,
    "district_id": 7,
    "name_en": "Giriulla",
    "postcode": 60140
  },
  {
    "id": 498,
    "district_id": 7,
    "name_en": "Gonawala",
    "postcode": 11630
  },
  {
    "id": 499,
    "district_id": 7,
    "name_en": "Halpe",
    "postcode": 70145
  },
  {
    "id": 500,
    "district_id": 7,
    "name_en": "Hapugastenna",
    "postcode": 70164
  },
  {
    "id": 501,
    "district_id": 7,
    "name_en": "Heiyanthuduwa",
    "postcode": 11618
  },
  {
    "id": 502,
    "district_id": 7,
    "name_en": "Hinatiyana Madawala",
    "postcode": 11568
  },
  {
    "id": 503,
    "district_id": 7,
    "name_en": "Hiswella",
    "postcode": 11734
  },
  {
    "id": 504,
    "district_id": 7,
    "name_en": "Horampella",
    "postcode": 11564
  },
  {
    "id": 505,
    "district_id": 7,
    "name_en": "Hunumulla",
    "postcode": 11262
  },
  {
    "id": 506,
    "district_id": 7,
    "name_en": "Hunupola",
    "postcode": 60582
  },
  {
    "id": 507,
    "district_id": 7,
    "name_en": "Ihala Madampella",
    "postcode": 11265
  },
  {
    "id": 508,
    "district_id": 7,
    "name_en": "Imbulgoda",
    "postcode": 11856
  },
  {
    "id": 509,
    "district_id": 7,
    "name_en": "Ja-Ela",
    "postcode": 11350
  },
  {
    "id": 510,
    "district_id": 7,
    "name_en": "Kadawatha",
    "postcode": 11850
  },
  {
    "id": 511,
    "district_id": 7,
    "name_en": "Kahatowita",
    "postcode": 11144
  },
  {
    "id": 512,
    "district_id": 7,
    "name_en": "Kalagedihena",
    "postcode": 11875
  },
  {
    "id": 513,
    "district_id": 7,
    "name_en": "Kaleliya",
    "postcode": 11160
  },
  {
    "id": 514,
    "district_id": 7,
    "name_en": "Kandana",
    "postcode": 11320
  },
  {
    "id": 515,
    "district_id": 7,
    "name_en": "Katana",
    "postcode": 11534
  },
  {
    "id": 516,
    "district_id": 7,
    "name_en": "Katudeniya",
    "postcode": 21016
  },
  {
    "id": 517,
    "district_id": 7,
    "name_en": "Katunayake",
    "postcode": 11450
  },
  {
    "id": 518,
    "district_id": 7,
    "name_en": "Katunayake Air Force Camp",
    "postcode": 11440
  },
  {
    "id": 519,
    "district_id": 7,
    "name_en": "Katunayake(FTZ)",
    "postcode": 11420
  },
  {
    "id": 520,
    "district_id": 7,
    "name_en": "Katuwellegama",
    "postcode": 11526
  },
  {
    "id": 521,
    "district_id": 7,
    "name_en": "Kelaniya",
    "postcode": 11600
  },
  {
    "id": 522,
    "district_id": 7,
    "name_en": "Kimbulapitiya",
    "postcode": 11522
  },
  {
    "id": 523,
    "district_id": 7,
    "name_en": "Kirindiwela",
    "postcode": 11730
  },
  {
    "id": 524,
    "district_id": 7,
    "name_en": "Kitalawalana",
    "postcode": 11206
  },
  {
    "id": 525,
    "district_id": 7,
    "name_en": "Kochchikade",
    "postcode": 11540
  },
  {
    "id": 526,
    "district_id": 7,
    "name_en": "Kotadeniyawa",
    "postcode": 11232
  },
  {
    "id": 527,
    "district_id": 7,
    "name_en": "Kotugoda",
    "postcode": 11390
  },
  {
    "id": 528,
    "district_id": 7,
    "name_en": "Kumbaloluwa",
    "postcode": 11105
  },
  {
    "id": 529,
    "district_id": 7,
    "name_en": "Loluwagoda",
    "postcode": 11204
  },
  {
    "id": 530,
    "district_id": 7,
    "name_en": "Mabodale",
    "postcode": 11114
  },
  {
    "id": 531,
    "district_id": 7,
    "name_en": "Madelgamuwa",
    "postcode": 11033
  },
  {
    "id": 532,
    "district_id": 7,
    "name_en": "Makewita",
    "postcode": 11358
  },
  {
    "id": 533,
    "district_id": 7,
    "name_en": "Makola",
    "postcode": 11640
  },
  {
    "id": 534,
    "district_id": 7,
    "name_en": "Malwana",
    "postcode": 11670
  },
  {
    "id": 535,
    "district_id": 7,
    "name_en": "Mandawala",
    "postcode": 11061
  },
  {
    "id": 536,
    "district_id": 7,
    "name_en": "Marandagahamula",
    "postcode": 11260
  },
  {
    "id": 537,
    "district_id": 7,
    "name_en": "Mellawagedara",
    "postcode": 11234
  },
  {
    "id": 538,
    "district_id": 7,
    "name_en": "Minuwangoda",
    "postcode": 11550
  },
  {
    "id": 539,
    "district_id": 7,
    "name_en": "Mirigama",
    "postcode": 11200
  },
  {
    "id": 540,
    "district_id": 7,
    "name_en": "Miriswatta",
    "postcode": 80508
  },
  {
    "id": 541,
    "district_id": 7,
    "name_en": "Mithirigala",
    "postcode": 11742
  },
  {
    "id": 542,
    "district_id": 7,
    "name_en": "Muddaragama",
    "postcode": 11112
  },
  {
    "id": 543,
    "district_id": 7,
    "name_en": "Mudungoda",
    "postcode": 11056
  },
  {
    "id": 544,
    "district_id": 7,
    "name_en": "Mulleriyawa New Town",
    "postcode": 10620
  },
  {
    "id": 545,
    "district_id": 7,
    "name_en": "Naranwala",
    "postcode": 11063
  },
  {
    "id": 546,
    "district_id": 7,
    "name_en": "Nawana",
    "postcode": 11222
  },
  {
    "id": 547,
    "district_id": 7,
    "name_en": "Nedungamuwa",
    "postcode": 11066
  },
  {
    "id": 548,
    "district_id": 7,
    "name_en": "Negombo",
    "postcode": 11500
  },
  {
    "id": 549,
    "district_id": 7,
    "name_en": "Nikadalupotha",
    "postcode": 60580
  },
  {
    "id": 550,
    "district_id": 7,
    "name_en": "Nikahetikanda",
    "postcode": 11128
  },
  {
    "id": 551,
    "district_id": 7,
    "name_en": "Nittambuwa",
    "postcode": 11880
  },
  {
    "id": 552,
    "district_id": 7,
    "name_en": "Niwandama",
    "postcode": 11354
  },
  {
    "id": 553,
    "district_id": 7,
    "name_en": "Opatha",
    "postcode": 80142
  },
  {
    "id": 554,
    "district_id": 7,
    "name_en": "Pamunugama",
    "postcode": 11370
  },
  {
    "id": 555,
    "district_id": 7,
    "name_en": "Pamunuwatta",
    "postcode": 11214
  },
  {
    "id": 556,
    "district_id": 7,
    "name_en": "Panawala",
    "postcode": 70612
  },
  {
    "id": 557,
    "district_id": 7,
    "name_en": "Pasyala",
    "postcode": 11890
  },
  {
    "id": 558,
    "district_id": 7,
    "name_en": "Peliyagoda",
    "postcode": 11830
  },
  {
    "id": 559,
    "district_id": 7,
    "name_en": "Pepiliyawala",
    "postcode": 11741
  },
  {
    "id": 560,
    "district_id": 7,
    "name_en": "Pethiyagoda",
    "postcode": 11043
  },
  {
    "id": 561,
    "district_id": 7,
    "name_en": "Polpithimukulana",
    "postcode": 11324
  },
  {
    "id": 562,
    "district_id": 7,
    "name_en": "Puwakpitiya",
    "postcode": 10712
  },
  {
    "id": 563,
    "district_id": 7,
    "name_en": "Radawadunna",
    "postcode": 11892
  },
  {
    "id": 564,
    "district_id": 7,
    "name_en": "Radawana",
    "postcode": 11725
  },
  {
    "id": 565,
    "district_id": 7,
    "name_en": "Raddolugama",
    "postcode": 11400
  },
  {
    "id": 566,
    "district_id": 7,
    "name_en": "Ragama",
    "postcode": 11010
  },
  {
    "id": 567,
    "district_id": 7,
    "name_en": "Ruggahawila",
    "postcode": 11142
  },
  {
    "id": 568,
    "district_id": 7,
    "name_en": "Seeduwa",
    "postcode": 11410
  },
  {
    "id": 569,
    "district_id": 7,
    "name_en": "Siyambalape",
    "postcode": 11607
  },
  {
    "id": 570,
    "district_id": 7,
    "name_en": "Talahena",
    "postcode": 11504
  },
  {
    "id": 571,
    "district_id": 7,
    "name_en": "Thambagalla",
    "postcode": 60584
  },
  {
    "id": 572,
    "district_id": 7,
    "name_en": "Thimbirigaskatuwa",
    "postcode": 11532
  },
  {
    "id": 573,
    "district_id": 7,
    "name_en": "Tittapattara",
    "postcode": 10664
  },
  {
    "id": 574,
    "district_id": 7,
    "name_en": "Udathuthiripitiya",
    "postcode": 11054
  },
  {
    "id": 575,
    "district_id": 7,
    "name_en": "Udugampola",
    "postcode": 11030
  },
  {
    "id": 576,
    "district_id": 7,
    "name_en": "Uggalboda",
    "postcode": 11034
  },
  {
    "id": 577,
    "district_id": 7,
    "name_en": "Urapola",
    "postcode": 11126
  },
  {
    "id": 578,
    "district_id": 7,
    "name_en": "Uswetakeiyawa",
    "postcode": 11328
  },
  {
    "id": 579,
    "district_id": 7,
    "name_en": "Veyangoda",
    "postcode": 11100
  },
  {
    "id": 580,
    "district_id": 7,
    "name_en": "Walgammulla",
    "postcode": 11146
  },
  {
    "id": 581,
    "district_id": 7,
    "name_en": "Walpita",
    "postcode": 11226
  },
  {
    "id": 582,
    "district_id": 7,
    "name_en": "Walpola (WP)",
    "postcode": 11012
  },
  {
    "id": 583,
    "district_id": 7,
    "name_en": "Wathurugama",
    "postcode": 11724
  },
  {
    "id": 584,
    "district_id": 7,
    "name_en": "Watinapaha",
    "postcode": 11104
  },
  {
    "id": 585,
    "district_id": 7,
    "name_en": "Wattala",
    "postcode": 11104
  },
  {
    "id": 586,
    "district_id": 7,
    "name_en": "Weboda",
    "postcode": 11858
  },
  {
    "id": 587,
    "district_id": 7,
    "name_en": "Wegowwa",
    "postcode": 11562
  },
  {
    "id": 588,
    "district_id": 7,
    "name_en": "Weweldeniya",
    "postcode": 11894
  },
  {
    "id": 589,
    "district_id": 7,
    "name_en": "Yakkala",
    "postcode": 11870
  },
  {
    "id": 590,
    "district_id": 7,
    "name_en": "Yatiyana",
    "postcode": 11566
  },
  {
    "id": 591,
    "district_id": 8,
    "name_en": "Ambalantota",
    "postcode": 82100
  },
  {
    "id": 592,
    "district_id": 8,
    "name_en": "Angunakolapelessa",
    "postcode": 82220
  },
  {
    "id": 593,
    "district_id": 8,
    "name_en": "Angunakolawewa",
    "postcode": 91302
  },
  {
    "id": 594,
    "district_id": 8,
    "name_en": "Bandagiriya Colony",
    "postcode": 82005
  },
  {
    "id": 595,
    "district_id": 8,
    "name_en": "Barawakumbuka",
    "postcode": 82110
  },
  {
    "id": 596,
    "district_id": 8,
    "name_en": "Beliatta",
    "postcode": 82400
  },
  {
    "id": 597,
    "district_id": 8,
    "name_en": "Beragama",
    "postcode": 82102
  },
  {
    "id": 598,
    "district_id": 8,
    "name_en": "Beralihela",
    "postcode": 82618
  },
  {
    "id": 599,
    "district_id": 8,
    "name_en": "Bundala",
    "postcode": 82002
  },
  {
    "id": 600,
    "district_id": 8,
    "name_en": "Ellagala",
    "postcode": 82619
  },
  {
    "id": 601,
    "district_id": 8,
    "name_en": "Gangulandeniya",
    "postcode": 82586
  },
  {
    "id": 602,
    "district_id": 8,
    "name_en": "Getamanna",
    "postcode": 82420
  },
  {
    "id": 603,
    "district_id": 8,
    "name_en": "Goda Koggalla",
    "postcode": 82401
  },
  {
    "id": 604,
    "district_id": 8,
    "name_en": "Gonagamuwa Uduwila",
    "postcode": 82602
  },
  {
    "id": 605,
    "district_id": 8,
    "name_en": "Gonnoruwa",
    "postcode": 82006
  },
  {
    "id": 606,
    "district_id": 8,
    "name_en": "Hakuruwela",
    "postcode": 82248
  },
  {
    "id": 607,
    "district_id": 8,
    "name_en": "Hambantota",
    "postcode": 82000
  },
  {
    "id": 608,
    "district_id": 8,
    "name_en": "Handugala",
    "postcode": 81326
  },
  {
    "id": 609,
    "district_id": 8,
    "name_en": "Hungama",
    "postcode": 82120
  },
  {
    "id": 610,
    "district_id": 8,
    "name_en": "Ihala Beligalla",
    "postcode": 82412
  },
  {
    "id": 611,
    "district_id": 8,
    "name_en": "Iththa Demaliya",
    "postcode": 82462
  },
  {
    "id": 612,
    "district_id": 8,
    "name_en": "Julampitiya",
    "postcode": 82252
  },
  {
    "id": 613,
    "district_id": 8,
    "name_en": "Kahandamodara",
    "postcode": 82126
  },
  {
    "id": 614,
    "district_id": 8,
    "name_en": "Kariyamaditta",
    "postcode": 82274
  },
  {
    "id": 615,
    "district_id": 8,
    "name_en": "Katuwana",
    "postcode": 82500
  },
  {
    "id": 616,
    "district_id": 8,
    "name_en": "Kawantissapura",
    "postcode": 82622
  },
  {
    "id": 617,
    "district_id": 8,
    "name_en": "Kirama",
    "postcode": 82550
  },
  {
    "id": 618,
    "district_id": 8,
    "name_en": "Kirinda",
    "postcode": 82614
  },
  {
    "id": 619,
    "district_id": 8,
    "name_en": "Lunama",
    "postcode": 82108
  },
  {
    "id": 620,
    "district_id": 8,
    "name_en": "Lunugamwehera",
    "postcode": 82634
  },
  {
    "id": 621,
    "district_id": 8,
    "name_en": "Magama",
    "postcode": 82608
  },
  {
    "id": 622,
    "district_id": 8,
    "name_en": "Mahagalwewa",
    "postcode": 82016
  },
  {
    "id": 623,
    "district_id": 8,
    "name_en": "Mamadala",
    "postcode": 82109
  },
  {
    "id": 624,
    "district_id": 8,
    "name_en": "Medamulana",
    "postcode": 82254
  },
  {
    "id": 625,
    "district_id": 8,
    "name_en": "Middeniya",
    "postcode": 82270
  },
  {
    "id": 626,
    "district_id": 8,
    "name_en": "Meegahajandura",
    "postcode": 82014
  },
  {
    "id": 627,
    "district_id": 8,
    "name_en": "Modarawana",
    "postcode": 82416
  },
  {
    "id": 628,
    "district_id": 8,
    "name_en": "Mulkirigala",
    "postcode": 82242
  },
  {
    "id": 629,
    "district_id": 8,
    "name_en": "Nakulugamuwa",
    "postcode": 82300
  },
  {
    "id": 630,
    "district_id": 8,
    "name_en": "Netolpitiya",
    "postcode": 82135
  },
  {
    "id": 631,
    "district_id": 8,
    "name_en": "Nihiluwa",
    "postcode": 82414
  },
  {
    "id": 632,
    "district_id": 8,
    "name_en": "Padawkema",
    "postcode": 82636
  },
  {
    "id": 633,
    "district_id": 8,
    "name_en": "Pahala Andarawewa",
    "postcode": 82008
  },
  {
    "id": 634,
    "district_id": 8,
    "name_en": "Rammalawarapitiya",
    "postcode": 82554
  },
  {
    "id": 635,
    "district_id": 8,
    "name_en": "Ranakeliya",
    "postcode": 82612
  },
  {
    "id": 636,
    "district_id": 8,
    "name_en": "Ranmuduwewa",
    "postcode": 82018
  },
  {
    "id": 637,
    "district_id": 8,
    "name_en": "Ranna",
    "postcode": 82125
  },
  {
    "id": 638,
    "district_id": 8,
    "name_en": "Ratmalwala",
    "postcode": 82276
  },
  {
    "id": 639,
    "district_id": 8,
    "name_en": "Ruhunu Ridiyagama",
    "postcode": 82106
  },
  {
    "id": 640,
    "district_id": 8,
    "name_en": "Sooriyawewa Town",
    "postcode": 82010
  },
  {
    "id": 641,
    "district_id": 8,
    "name_en": "Tangalla",
    "postcode": 82200
  },
  {
    "id": 642,
    "district_id": 8,
    "name_en": "Tissamaharama",
    "postcode": 82600
  },
  {
    "id": 643,
    "district_id": 8,
    "name_en": "Uda Gomadiya",
    "postcode": 82504
  },
  {
    "id": 644,
    "district_id": 8,
    "name_en": "Udamattala",
    "postcode": 82638
  },
  {
    "id": 645,
    "district_id": 8,
    "name_en": "Uswewa",
    "postcode": 82278
  },
  {
    "id": 646,
    "district_id": 8,
    "name_en": "Vitharandeniya",
    "postcode": 82232
  },
  {
    "id": 647,
    "district_id": 8,
    "name_en": "Walasmulla",
    "postcode": 82450
  },
  {
    "id": 648,
    "district_id": 8,
    "name_en": "Weeraketiya",
    "postcode": 82240
  },
  {
    "id": 649,
    "district_id": 8,
    "name_en": "Weerawila",
    "postcode": 82632
  },
  {
    "id": 650,
    "district_id": 8,
    "name_en": "Weerawila NewTown",
    "postcode": 82615
  },
  {
    "id": 651,
    "district_id": 8,
    "name_en": "Wekandawela",
    "postcode": 82246
  },
  {
    "id": 652,
    "district_id": 8,
    "name_en": "Weligatta",
    "postcode": 82004
  },
  {
    "id": 653,
    "district_id": 8,
    "name_en": "Yatigala",
    "postcode": 82418
  },
  {
    "id": 654,
    "district_id": 9,
    "name_en": "Jaffna",
    "postcode": 40000
  },
  {
    "id": 655,
    "district_id": 10,
    "name_en": "Agalawatta",
    "postcode": 12200
  },
  {
    "id": 656,
    "district_id": 10,
    "name_en": "Alubomulla",
    "postcode": 12524
  },
  {
    "id": 657,
    "district_id": 10,
    "name_en": "Anguruwatota",
    "postcode": 12320
  },
  {
    "id": 658,
    "district_id": 10,
    "name_en": "Atale",
    "postcode": 71363
  },
  {
    "id": 659,
    "district_id": 10,
    "name_en": "Baduraliya",
    "postcode": 12230
  },
  {
    "id": 660,
    "district_id": 10,
    "name_en": "Bandaragama",
    "postcode": 12530
  },
  {
    "id": 661,
    "district_id": 10,
    "name_en": "Batugampola",
    "postcode": 10526
  },
  {
    "id": 662,
    "district_id": 10,
    "name_en": "Bellana",
    "postcode": 12224
  },
  {
    "id": 663,
    "district_id": 10,
    "name_en": "Beruwala",
    "postcode": 12070
  },
  {
    "id": 664,
    "district_id": 10,
    "name_en": "Bolossagama",
    "postcode": 12008
  },
  {
    "id": 665,
    "district_id": 10,
    "name_en": "Bombuwala",
    "postcode": 12024
  },
  {
    "id": 666,
    "district_id": 10,
    "name_en": "Boralugoda",
    "postcode": 12142
  },
  {
    "id": 667,
    "district_id": 10,
    "name_en": "Bulathsinhala",
    "postcode": 12300
  },
  {
    "id": 668,
    "district_id": 10,
    "name_en": "Danawala Thiniyawala",
    "postcode": 12148
  },
  {
    "id": 669,
    "district_id": 10,
    "name_en": "Delmella",
    "postcode": 12304
  },
  {
    "id": 670,
    "district_id": 10,
    "name_en": "Dharga Town",
    "postcode": 12090
  },
  {
    "id": 671,
    "district_id": 10,
    "name_en": "Diwalakada",
    "postcode": 12308
  },
  {
    "id": 672,
    "district_id": 10,
    "name_en": "Dodangoda",
    "postcode": 12020
  },
  {
    "id": 673,
    "district_id": 10,
    "name_en": "Dombagoda",
    "postcode": 12416
  },
  {
    "id": 674,
    "district_id": 10,
    "name_en": "Ethkandura",
    "postcode": 80458
  },
  {
    "id": 675,
    "district_id": 10,
    "name_en": "Galpatha",
    "postcode": 12005
  },
  {
    "id": 676,
    "district_id": 10,
    "name_en": "Gamagoda",
    "postcode": 12016
  },
  {
    "id": 677,
    "district_id": 10,
    "name_en": "Gonagalpura",
    "postcode": 80502
  },
  {
    "id": 678,
    "district_id": 10,
    "name_en": "Gonapola Junction",
    "postcode": 12410
  },
  {
    "id": 679,
    "district_id": 10,
    "name_en": "Govinna",
    "postcode": 12310
  },
  {
    "id": 680,
    "district_id": 10,
    "name_en": "Gurulubadda",
    "postcode": 12236
  },
  {
    "id": 681,
    "district_id": 10,
    "name_en": "Halkandawila",
    "postcode": 12055
  },
  {
    "id": 682,
    "district_id": 10,
    "name_en": "Haltota",
    "postcode": 12538
  },
  {
    "id": 683,
    "district_id": 10,
    "name_en": "Halvitigala Colony",
    "postcode": 80146
  },
  {
    "id": 684,
    "district_id": 10,
    "name_en": "Halwala",
    "postcode": 12118
  },
  {
    "id": 685,
    "district_id": 10,
    "name_en": "Halwatura",
    "postcode": 12306
  },
  {
    "id": 686,
    "district_id": 10,
    "name_en": "Handapangoda",
    "postcode": 10524
  },
  {
    "id": 687,
    "district_id": 10,
    "name_en": "Hedigalla Colony",
    "postcode": 12234
  },
  {
    "id": 688,
    "district_id": 10,
    "name_en": "Henegama",
    "postcode": 11715
  },
  {
    "id": 689,
    "district_id": 10,
    "name_en": "Hettimulla",
    "postcode": 71210
  },
  {
    "id": 690,
    "district_id": 10,
    "name_en": "Horana",
    "postcode": 12400
  },
  {
    "id": 691,
    "district_id": 10,
    "name_en": "Ittapana",
    "postcode": 12116
  },
  {
    "id": 692,
    "district_id": 10,
    "name_en": "Kahawala",
    "postcode": 10508
  },
  {
    "id": 693,
    "district_id": 10,
    "name_en": "Kalawila Kiranthidiya",
    "postcode": 12078
  },
  {
    "id": 694,
    "district_id": 10,
    "name_en": "Kalutara",
    "postcode": 12000
  },
  {
    "id": 695,
    "district_id": 10,
    "name_en": "Kananwila",
    "postcode": 12418
  },
  {
    "id": 696,
    "district_id": 10,
    "name_en": "Kandanagama",
    "postcode": 12428
  },
  {
    "id": 697,
    "district_id": 10,
    "name_en": "Kelinkanda",
    "postcode": 12218
  },
  {
    "id": 698,
    "district_id": 10,
    "name_en": "Kitulgoda",
    "postcode": 12222
  },
  {
    "id": 699,
    "district_id": 10,
    "name_en": "Koholana",
    "postcode": 12007
  },
  {
    "id": 700,
    "district_id": 10,
    "name_en": "Kuda Uduwa",
    "postcode": 12426
  },
  {
    "id": 701,
    "district_id": 10,
    "name_en": "Labbala",
    "postcode": 60162
  },
  {
    "id": 702,
    "district_id": 10,
    "name_en": "Ihalahewessa",
    "postcode": 80432
  },
  {
    "id": 703,
    "district_id": 10,
    "name_en": "Induruwa",
    "postcode": 80510
  },
  {
    "id": 704,
    "district_id": 10,
    "name_en": "Ingiriya",
    "postcode": 12440
  },
  {
    "id": 705,
    "district_id": 10,
    "name_en": "Maggona",
    "postcode": 12060
  },
  {
    "id": 706,
    "district_id": 10,
    "name_en": "Mahagama",
    "postcode": 12210
  },
  {
    "id": 707,
    "district_id": 10,
    "name_en": "Mahakalupahana",
    "postcode": 12126
  },
  {
    "id": 708,
    "district_id": 10,
    "name_en": "Maharangalla",
    "postcode": 71211
  },
  {
    "id": 709,
    "district_id": 10,
    "name_en": "Malgalla Talangalla",
    "postcode": 80144
  },
  {
    "id": 710,
    "district_id": 10,
    "name_en": "Matugama",
    "postcode": 12100
  },
  {
    "id": 711,
    "district_id": 10,
    "name_en": "Meegahatenna",
    "postcode": 12130
  },
  {
    "id": 712,
    "district_id": 10,
    "name_en": "Meegama",
    "postcode": 12094
  },
  {
    "id": 713,
    "district_id": 10,
    "name_en": "Meegoda",
    "postcode": 10504
  },
  {
    "id": 714,
    "district_id": 10,
    "name_en": "Millaniya",
    "postcode": 12412
  },
  {
    "id": 715,
    "district_id": 10,
    "name_en": "Millewa",
    "postcode": 12422
  },
  {
    "id": 716,
    "district_id": 10,
    "name_en": "Miwanapalana",
    "postcode": 12424
  },
  {
    "id": 717,
    "district_id": 10,
    "name_en": "Molkawa",
    "postcode": 12216
  },
  {
    "id": 718,
    "district_id": 10,
    "name_en": "Morapitiya",
    "postcode": 12232
  },
  {
    "id": 719,
    "district_id": 10,
    "name_en": "Morontuduwa",
    "postcode": 12564
  },
  {
    "id": 720,
    "district_id": 10,
    "name_en": "Nawattuduwa",
    "postcode": 12106
  },
  {
    "id": 721,
    "district_id": 10,
    "name_en": "Neboda",
    "postcode": 12030
  },
  {
    "id": 722,
    "district_id": 10,
    "name_en": "Padagoda",
    "postcode": 12074
  },
  {
    "id": 723,
    "district_id": 10,
    "name_en": "Pahalahewessa",
    "postcode": 12144
  },
  {
    "id": 724,
    "district_id": 10,
    "name_en": "Paiyagala",
    "postcode": 12050
  },
  {
    "id": 725,
    "district_id": 10,
    "name_en": "Panadura",
    "postcode": 12500
  },
  {
    "id": 726,
    "district_id": 10,
    "name_en": "Pannala",
    "postcode": 60160
  },
  {
    "id": 727,
    "district_id": 10,
    "name_en": "Paragastota",
    "postcode": 12414
  },
  {
    "id": 728,
    "district_id": 10,
    "name_en": "Paragoda",
    "postcode": 12302
  },
  {
    "id": 729,
    "district_id": 10,
    "name_en": "Paraigama",
    "postcode": 12122
  },
  {
    "id": 730,
    "district_id": 10,
    "name_en": "Pelanda",
    "postcode": 12214
  },
  {
    "id": 731,
    "district_id": 10,
    "name_en": "Pelawatta",
    "postcode": 12138
  },
  {
    "id": 732,
    "district_id": 10,
    "name_en": "Pimbura",
    "postcode": 70472
  },
  {
    "id": 733,
    "district_id": 10,
    "name_en": "Pitagaldeniya",
    "postcode": 71360
  },
  {
    "id": 734,
    "district_id": 10,
    "name_en": "Pokunuwita",
    "postcode": 12404
  },
  {
    "id": 735,
    "district_id": 10,
    "name_en": "Poruwedanda",
    "postcode": 12432
  },
  {
    "id": 736,
    "district_id": 10,
    "name_en": "Ratmale",
    "postcode": 81030
  },
  {
    "id": 737,
    "district_id": 10,
    "name_en": "Remunagoda",
    "postcode": 12009
  },
  {
    "id": 738,
    "district_id": 10,
    "name_en": "Talgaswela",
    "postcode": 80470
  },
  {
    "id": 739,
    "district_id": 10,
    "name_en": "Tebuwana",
    "postcode": 12025
  },
  {
    "id": 740,
    "district_id": 10,
    "name_en": "Uduwara",
    "postcode": 12322
  },
  {
    "id": 741,
    "district_id": 10,
    "name_en": "Utumgama",
    "postcode": 12127
  },
  {
    "id": 742,
    "district_id": 10,
    "name_en": "Veyangalla",
    "postcode": 12204
  },
  {
    "id": 743,
    "district_id": 10,
    "name_en": "Wadduwa",
    "postcode": 12560
  },
  {
    "id": 744,
    "district_id": 10,
    "name_en": "Walagedara",
    "postcode": 12112
  },
  {
    "id": 745,
    "district_id": 10,
    "name_en": "Walallawita",
    "postcode": 12134
  },
  {
    "id": 746,
    "district_id": 10,
    "name_en": "Waskaduwa",
    "postcode": 12580
  },
  {
    "id": 747,
    "district_id": 10,
    "name_en": "Welipenna",
    "postcode": 12108
  },
  {
    "id": 748,
    "district_id": 10,
    "name_en": "Weliveriya",
    "postcode": 11710
  },
  {
    "id": 749,
    "district_id": 10,
    "name_en": "Welmilla Junction",
    "postcode": 12534
  },
  {
    "id": 750,
    "district_id": 10,
    "name_en": "Weragala",
    "postcode": 71622
  },
  {
    "id": 751,
    "district_id": 10,
    "name_en": "Yagirala",
    "postcode": 12124
  },
  {
    "id": 752,
    "district_id": 10,
    "name_en": "Yatadolawatta",
    "postcode": 12104
  },
  {
    "id": 753,
    "district_id": 10,
    "name_en": "Yatawara Junction",
    "postcode": 12006
  },
  {
    "id": 754,
    "district_id": 11,
    "name_en": "Aludeniya",
    "postcode": 20062
  },
  {
    "id": 755,
    "district_id": 11,
    "name_en": "Ambagahapelessa",
    "postcode": 20986
  },
  {
    "id": 756,
    "district_id": 11,
    "name_en": "Ambagamuwa Udabulathgama",
    "postcode": 20678
  },
  {
    "id": 757,
    "district_id": 11,
    "name_en": "Ambatenna",
    "postcode": 20136
  },
  {
    "id": 758,
    "district_id": 11,
    "name_en": "Ampitiya",
    "postcode": 20160
  },
  {
    "id": 759,
    "district_id": 11,
    "name_en": "Ankumbura",
    "postcode": 20150
  },
  {
    "id": 760,
    "district_id": 11,
    "name_en": "Atabage",
    "postcode": 20574
  },
  {
    "id": 761,
    "district_id": 11,
    "name_en": "Balana",
    "postcode": 20308
  },
  {
    "id": 762,
    "district_id": 11,
    "name_en": "Bambaragahaela",
    "postcode": 20644
  },
  {
    "id": 763,
    "district_id": 11,
    "name_en": "Batagolladeniya",
    "postcode": 20154
  },
  {
    "id": 764,
    "district_id": 11,
    "name_en": "Batugoda",
    "postcode": 20132
  },
  {
    "id": 765,
    "district_id": 11,
    "name_en": "Batumulla",
    "postcode": 20966
  },
  {
    "id": 766,
    "district_id": 11,
    "name_en": "Bawlana",
    "postcode": 20218
  },
  {
    "id": 767,
    "district_id": 11,
    "name_en": "Bopana",
    "postcode": 20932
  },
  {
    "id": 768,
    "district_id": 11,
    "name_en": "Danture",
    "postcode": 20465
  },
  {
    "id": 769,
    "district_id": 11,
    "name_en": "Dedunupitiya",
    "postcode": 20068
  },
  {
    "id": 770,
    "district_id": 11,
    "name_en": "Dekinda",
    "postcode": 20658
  },
  {
    "id": 771,
    "district_id": 11,
    "name_en": "Deltota",
    "postcode": 20430
  },
  {
    "id": 772,
    "district_id": 11,
    "name_en": "Divulankadawala",
    "postcode": 51428
  },
  {
    "id": 773,
    "district_id": 11,
    "name_en": "Dolapihilla",
    "postcode": 20126
  },
  {
    "id": 774,
    "district_id": 11,
    "name_en": "Dolosbage",
    "postcode": 20510
  },
  {
    "id": 775,
    "district_id": 11,
    "name_en": "Dunuwila",
    "postcode": 20824
  },
  {
    "id": 776,
    "district_id": 11,
    "name_en": "Etulgama",
    "postcode": 20202
  },
  {
    "id": 777,
    "district_id": 11,
    "name_en": "Galaboda",
    "postcode": 20664
  },
  {
    "id": 778,
    "district_id": 11,
    "name_en": "Galagedara",
    "postcode": 20100
  },
  {
    "id": 779,
    "district_id": 11,
    "name_en": "Galaha",
    "postcode": 20420
  },
  {
    "id": 780,
    "district_id": 11,
    "name_en": "Galhinna",
    "postcode": 20152
  },
  {
    "id": 781,
    "district_id": 11,
    "name_en": "Gampola",
    "postcode": 20500
  },
  {
    "id": 782,
    "district_id": 11,
    "name_en": "Gelioya",
    "postcode": 20620
  },
  {
    "id": 783,
    "district_id": 11,
    "name_en": "Godamunna",
    "postcode": 20214
  },
  {
    "id": 784,
    "district_id": 11,
    "name_en": "Gomagoda",
    "postcode": 20184
  },
  {
    "id": 785,
    "district_id": 11,
    "name_en": "Gonagantenna",
    "postcode": 20712
  },
  {
    "id": 786,
    "district_id": 11,
    "name_en": "Gonawalapatana",
    "postcode": 20656
  },
  {
    "id": 787,
    "district_id": 11,
    "name_en": "Gunnepana",
    "postcode": 20270
  },
  {
    "id": 788,
    "district_id": 11,
    "name_en": "Gurudeniya",
    "postcode": 20189
  },
  {
    "id": 789,
    "district_id": 11,
    "name_en": "Hakmana",
    "postcode": 81300
  },
  {
    "id": 790,
    "district_id": 11,
    "name_en": "Handaganawa",
    "postcode": 20984
  },
  {
    "id": 791,
    "district_id": 11,
    "name_en": "Handawalapitiya",
    "postcode": 20438
  },
  {
    "id": 792,
    "district_id": 11,
    "name_en": "Handessa",
    "postcode": 20480
  },
  {
    "id": 793,
    "district_id": 11,
    "name_en": "Hanguranketha",
    "postcode": 20710
  },
  {
    "id": 794,
    "district_id": 11,
    "name_en": "Harangalagama",
    "postcode": 20669
  },
  {
    "id": 795,
    "district_id": 11,
    "name_en": "Hataraliyadda",
    "postcode": 20060
  },
  {
    "id": 796,
    "district_id": 11,
    "name_en": "Hindagala",
    "postcode": 20414
  },
  {
    "id": 797,
    "district_id": 11,
    "name_en": "Hondiyadeniya",
    "postcode": 20524
  },
  {
    "id": 798,
    "district_id": 11,
    "name_en": "Hunnasgiriya",
    "postcode": 20948
  },
  {
    "id": 799,
    "district_id": 11,
    "name_en": "Inguruwatta",
    "postcode": 60064
  },
  {
    "id": 800,
    "district_id": 11,
    "name_en": "Jambugahapitiya",
    "postcode": 20822
  },
  {
    "id": 801,
    "district_id": 11,
    "name_en": "Kadugannawa",
    "postcode": 20300
  },
  {
    "id": 802,
    "district_id": 11,
    "name_en": "Kahataliyadda",
    "postcode": 20924
  },
  {
    "id": 803,
    "district_id": 11,
    "name_en": "Kalugala",
    "postcode": 20926
  },
  {
    "id": 804,
    "district_id": 11,
    "name_en": "Kandy",
    "postcode": 20000
  },
  {
    "id": 805,
    "district_id": 11,
    "name_en": "Kapuliyadde",
    "postcode": 20206
  },
  {
    "id": 806,
    "district_id": 11,
    "name_en": "Katugastota",
    "postcode": 20800
  },
  {
    "id": 807,
    "district_id": 11,
    "name_en": "Katukitula",
    "postcode": 20588
  },
  {
    "id": 808,
    "district_id": 11,
    "name_en": "Kelanigama",
    "postcode": 20688
  },
  {
    "id": 809,
    "district_id": 11,
    "name_en": "Kengalla",
    "postcode": 20186
  },
  {
    "id": 810,
    "district_id": 11,
    "name_en": "Ketaboola",
    "postcode": 20660
  },
  {
    "id": 811,
    "district_id": 11,
    "name_en": "Ketakumbura",
    "postcode": 20306
  },
  {
    "id": 812,
    "district_id": 11,
    "name_en": "Kobonila",
    "postcode": 20928
  },
  {
    "id": 813,
    "district_id": 11,
    "name_en": "Kolabissa",
    "postcode": 20212
  },
  {
    "id": 814,
    "district_id": 11,
    "name_en": "Kolongoda",
    "postcode": 20971
  },
  {
    "id": 815,
    "district_id": 11,
    "name_en": "Kulugammana",
    "postcode": 20048
  },
  {
    "id": 816,
    "district_id": 11,
    "name_en": "Kumbukkandura",
    "postcode": 20902
  },
  {
    "id": 817,
    "district_id": 11,
    "name_en": "Kumburegama",
    "postcode": 20086
  },
  {
    "id": 818,
    "district_id": 11,
    "name_en": "Kundasale",
    "postcode": 20168
  },
  {
    "id": 819,
    "district_id": 11,
    "name_en": "Leemagahakotuwa",
    "postcode": 20482
  },
  {
    "id": 820,
    "district_id": 11,
    "name_en": "Ihala Kobbekaduwa",
    "postcode": 20042
  },
  {
    "id": 821,
    "district_id": 11,
    "name_en": "Lunugama",
    "postcode": 11062
  },
  {
    "id": 822,
    "district_id": 11,
    "name_en": "Lunuketiya Maditta",
    "postcode": 20172
  },
  {
    "id": 823,
    "district_id": 11,
    "name_en": "Madawala Bazaar",
    "postcode": 20260
  },
  {
    "id": 824,
    "district_id": 11,
    "name_en": "Madawalalanda",
    "postcode": 32016
  },
  {
    "id": 825,
    "district_id": 11,
    "name_en": "Madugalla",
    "postcode": 20938
  },
  {
    "id": 826,
    "district_id": 11,
    "name_en": "Madulkele",
    "postcode": 20840
  },
  {
    "id": 827,
    "district_id": 11,
    "name_en": "Mahadoraliyadda",
    "postcode": 20945
  },
  {
    "id": 828,
    "district_id": 11,
    "name_en": "Mahamedagama",
    "postcode": 20216
  },
  {
    "id": 829,
    "district_id": 11,
    "name_en": "Mahanagapura",
    "postcode": 32018
  },
  {
    "id": 830,
    "district_id": 11,
    "name_en": "Mailapitiya",
    "postcode": 20702
  },
  {
    "id": 831,
    "district_id": 11,
    "name_en": "Makkanigama",
    "postcode": 20828
  },
  {
    "id": 832,
    "district_id": 11,
    "name_en": "Makuldeniya",
    "postcode": 20921
  },
  {
    "id": 833,
    "district_id": 11,
    "name_en": "Mangalagama",
    "postcode": 32069
  },
  {
    "id": 834,
    "district_id": 11,
    "name_en": "Mapakanda",
    "postcode": 20662
  },
  {
    "id": 835,
    "district_id": 11,
    "name_en": "Marassana",
    "postcode": 20210
  },
  {
    "id": 836,
    "district_id": 11,
    "name_en": "Marymount Colony",
    "postcode": 20714
  },
  {
    "id": 837,
    "district_id": 11,
    "name_en": "Mawatura",
    "postcode": 20564
  },
  {
    "id": 838,
    "district_id": 11,
    "name_en": "Medamahanuwara",
    "postcode": 20940
  },
  {
    "id": 839,
    "district_id": 11,
    "name_en": "Medawala Harispattuwa",
    "postcode": 20120
  },
  {
    "id": 840,
    "district_id": 11,
    "name_en": "Meetalawa",
    "postcode": 20512
  },
  {
    "id": 841,
    "district_id": 11,
    "name_en": "Megoda Kalugamuwa",
    "postcode": 20409
  },
  {
    "id": 842,
    "district_id": 11,
    "name_en": "Menikdiwela",
    "postcode": 20470
  },
  {
    "id": 843,
    "district_id": 11,
    "name_en": "Menikhinna",
    "postcode": 20170
  },
  {
    "id": 844,
    "district_id": 11,
    "name_en": "Mimure",
    "postcode": 20923
  },
  {
    "id": 845,
    "district_id": 11,
    "name_en": "Minigamuwa",
    "postcode": 20109
  },
  {
    "id": 846,
    "district_id": 11,
    "name_en": "Minipe",
    "postcode": 20983
  },
  {
    "id": 847,
    "district_id": 11,
    "name_en": "Moragahapallama",
    "postcode": 32012
  },
  {
    "id": 848,
    "district_id": 11,
    "name_en": "Murutalawa",
    "postcode": 20232
  },
  {
    "id": 849,
    "district_id": 11,
    "name_en": "Muruthagahamulla",
    "postcode": 20526
  },
  {
    "id": 850,
    "district_id": 11,
    "name_en": "Nanuoya",
    "postcode": 22150
  },
  {
    "id": 851,
    "district_id": 11,
    "name_en": "Naranpanawa",
    "postcode": 20176
  },
  {
    "id": 852,
    "district_id": 11,
    "name_en": "Narawelpita",
    "postcode": 81302
  },
  {
    "id": 853,
    "district_id": 11,
    "name_en": "Nawalapitiya",
    "postcode": 20650
  },
  {
    "id": 854,
    "district_id": 11,
    "name_en": "Nawathispane",
    "postcode": 20670
  },
  {
    "id": 855,
    "district_id": 11,
    "name_en": "Nillambe",
    "postcode": 20418
  },
  {
    "id": 856,
    "district_id": 11,
    "name_en": "Nugaliyadda",
    "postcode": 20204
  },
  {
    "id": 857,
    "district_id": 11,
    "name_en": "Ovilikanda",
    "postcode": 21020
  },
  {
    "id": 858,
    "district_id": 11,
    "name_en": "Pallekotuwa",
    "postcode": 20084
  },
  {
    "id": 859,
    "district_id": 11,
    "name_en": "Panwilatenna",
    "postcode": 20544
  },
  {
    "id": 860,
    "district_id": 11,
    "name_en": "Paradeka",
    "postcode": 20578
  },
  {
    "id": 861,
    "district_id": 11,
    "name_en": "Pasbage",
    "postcode": 20654
  },
  {
    "id": 862,
    "district_id": 11,
    "name_en": "Pattitalawa",
    "postcode": 20511
  },
  {
    "id": 863,
    "district_id": 11,
    "name_en": "Peradeniya",
    "postcode": 20400
  },
  {
    "id": 864,
    "district_id": 11,
    "name_en": "Pilimatalawa",
    "postcode": 20450
  },
  {
    "id": 865,
    "district_id": 11,
    "name_en": "Poholiyadda",
    "postcode": 20106
  },
  {
    "id": 866,
    "district_id": 11,
    "name_en": "Pubbiliya",
    "postcode": 21502
  },
  {
    "id": 867,
    "district_id": 11,
    "name_en": "Pupuressa",
    "postcode": 20546
  },
  {
    "id": 868,
    "district_id": 11,
    "name_en": "Pussellawa",
    "postcode": 20580
  },
  {
    "id": 869,
    "district_id": 11,
    "name_en": "Putuhapuwa",
    "postcode": 20906
  },
  {
    "id": 870,
    "district_id": 11,
    "name_en": "Rajawella",
    "postcode": 20180
  },
  {
    "id": 871,
    "district_id": 11,
    "name_en": "Rambukpitiya",
    "postcode": 20676
  },
  {
    "id": 872,
    "district_id": 11,
    "name_en": "Rambukwella",
    "postcode": 20128
  },
  {
    "id": 873,
    "district_id": 11,
    "name_en": "Rangala",
    "postcode": 20922
  },
  {
    "id": 874,
    "district_id": 11,
    "name_en": "Rantembe",
    "postcode": 20990
  },
  {
    "id": 875,
    "district_id": 11,
    "name_en": "Sangarajapura",
    "postcode": 20044
  },
  {
    "id": 876,
    "district_id": 11,
    "name_en": "Senarathwela",
    "postcode": 20904
  },
  {
    "id": 877,
    "district_id": 11,
    "name_en": "Talatuoya",
    "postcode": 20200
  },
  {
    "id": 878,
    "district_id": 11,
    "name_en": "Teldeniya",
    "postcode": 20900
  },
  {
    "id": 879,
    "district_id": 11,
    "name_en": "Tennekumbura",
    "postcode": 20166
  },
  {
    "id": 880,
    "district_id": 11,
    "name_en": "Uda Peradeniya",
    "postcode": 20404
  },
  {
    "id": 881,
    "district_id": 11,
    "name_en": "Udahentenna",
    "postcode": 20506
  },
  {
    "id": 882,
    "district_id": 11,
    "name_en": "Udatalawinna",
    "postcode": 20802
  },
  {
    "id": 883,
    "district_id": 11,
    "name_en": "Udispattuwa",
    "postcode": 20916
  },
  {
    "id": 884,
    "district_id": 11,
    "name_en": "Ududumbara",
    "postcode": 20950
  },
  {
    "id": 885,
    "district_id": 11,
    "name_en": "Uduwahinna",
    "postcode": 20934
  },
  {
    "id": 886,
    "district_id": 11,
    "name_en": "Uduwela",
    "postcode": 20164
  },
  {
    "id": 887,
    "district_id": 11,
    "name_en": "Ulapane",
    "postcode": 20562
  },
  {
    "id": 888,
    "district_id": 11,
    "name_en": "Unuwinna",
    "postcode": 20708
  },
  {
    "id": 889,
    "district_id": 11,
    "name_en": "Velamboda",
    "postcode": 20640
  },
  {
    "id": 890,
    "district_id": 11,
    "name_en": "Watagoda",
    "postcode": 22110
  },
  {
    "id": 891,
    "district_id": 11,
    "name_en": "Watagoda Harispattuwa",
    "postcode": 20134
  },
  {
    "id": 892,
    "district_id": 11,
    "name_en": "Wattappola",
    "postcode": 20454
  },
  {
    "id": 893,
    "district_id": 11,
    "name_en": "Weligampola",
    "postcode": 20666
  },
  {
    "id": 894,
    "district_id": 11,
    "name_en": "Wendaruwa",
    "postcode": 20914
  },
  {
    "id": 895,
    "district_id": 11,
    "name_en": "Weragantota",
    "postcode": 20982
  },
  {
    "id": 896,
    "district_id": 11,
    "name_en": "Werapitya",
    "postcode": 20908
  },
  {
    "id": 897,
    "district_id": 11,
    "name_en": "Werellagama",
    "postcode": 20080
  },
  {
    "id": 898,
    "district_id": 11,
    "name_en": "Wettawa",
    "postcode": 20108
  },
  {
    "id": 899,
    "district_id": 11,
    "name_en": "Yahalatenna",
    "postcode": 20234
  },
  {
    "id": 900,
    "district_id": 11,
    "name_en": "Yatihalagala",
    "postcode": 20034
  },
  {
    "id": 901,
    "district_id": 12,
    "name_en": "Alawala",
    "postcode": 11122
  },
  {
    "id": 902,
    "district_id": 12,
    "name_en": "Alawatura",
    "postcode": 71204
  },
  {
    "id": 903,
    "district_id": 12,
    "name_en": "Alawwa",
    "postcode": 60280
  },
  {
    "id": 904,
    "district_id": 12,
    "name_en": "Algama",
    "postcode": 71607
  },
  {
    "id": 905,
    "district_id": 12,
    "name_en": "Alutnuwara",
    "postcode": 71508
  },
  {
    "id": 906,
    "district_id": 12,
    "name_en": "Ambalakanda",
    "postcode": 71546
  },
  {
    "id": 907,
    "district_id": 12,
    "name_en": "Ambulugala",
    "postcode": 71503
  },
  {
    "id": 908,
    "district_id": 12,
    "name_en": "Amitirigala",
    "postcode": 71320
  },
  {
    "id": 909,
    "district_id": 12,
    "name_en": "Ampagala",
    "postcode": 71232
  },
  {
    "id": 910,
    "district_id": 12,
    "name_en": "Anhandiya",
    "postcode": 60074
  },
  {
    "id": 911,
    "district_id": 12,
    "name_en": "Anhettigama",
    "postcode": 71403
  },
  {
    "id": 912,
    "district_id": 12,
    "name_en": "Aranayaka",
    "postcode": 71540
  },
  {
    "id": 913,
    "district_id": 12,
    "name_en": "Aruggammana",
    "postcode": 71041
  },
  {
    "id": 914,
    "district_id": 12,
    "name_en": "Batuwita",
    "postcode": 71321
  },
  {
    "id": 915,
    "district_id": 12,
    "name_en": "Beligala(Sab)",
    "postcode": 71044
  },
  {
    "id": 916,
    "district_id": 12,
    "name_en": "Belihuloya",
    "postcode": 70140
  },
  {
    "id": 917,
    "district_id": 12,
    "name_en": "Berannawa",
    "postcode": 71706
  },
  {
    "id": 918,
    "district_id": 12,
    "name_en": "Bopitiya",
    "postcode": 60155
  },
  {
    "id": 919,
    "district_id": 12,
    "name_en": "Bopitiya (SAB)",
    "postcode": 71612
  },
  {
    "id": 920,
    "district_id": 12,
    "name_en": "Boralankada",
    "postcode": 71418
  },
  {
    "id": 921,
    "district_id": 12,
    "name_en": "Bossella",
    "postcode": 71208
  },
  {
    "id": 922,
    "district_id": 12,
    "name_en": "Bulathkohupitiya",
    "postcode": 71230
  },
  {
    "id": 923,
    "district_id": 12,
    "name_en": "Damunupola",
    "postcode": 71034
  },
  {
    "id": 924,
    "district_id": 12,
    "name_en": "Debathgama",
    "postcode": 71037
  },
  {
    "id": 925,
    "district_id": 12,
    "name_en": "Dedugala",
    "postcode": 71237
  },
  {
    "id": 926,
    "district_id": 12,
    "name_en": "Deewala Pallegama",
    "postcode": 71022
  },
  {
    "id": 927,
    "district_id": 12,
    "name_en": "Dehiowita",
    "postcode": 71400
  },
  {
    "id": 928,
    "district_id": 12,
    "name_en": "Deldeniya",
    "postcode": 71009
  },
  {
    "id": 929,
    "district_id": 12,
    "name_en": "Deloluwa",
    "postcode": 71401
  },
  {
    "id": 930,
    "district_id": 12,
    "name_en": "Deraniyagala",
    "postcode": 71430
  },
  {
    "id": 931,
    "district_id": 12,
    "name_en": "Dewalegama",
    "postcode": 71050
  },
  {
    "id": 932,
    "district_id": 12,
    "name_en": "Dewanagala",
    "postcode": 71527
  },
  {
    "id": 933,
    "district_id": 12,
    "name_en": "Dombemada",
    "postcode": 71115
  },
  {
    "id": 934,
    "district_id": 12,
    "name_en": "Dorawaka",
    "postcode": 71601
  },
  {
    "id": 935,
    "district_id": 12,
    "name_en": "Dunumala",
    "postcode": 71605
  },
  {
    "id": 936,
    "district_id": 12,
    "name_en": "Galapitamada",
    "postcode": 71603
  },
  {
    "id": 937,
    "district_id": 12,
    "name_en": "Galatara",
    "postcode": 71505
  },
  {
    "id": 938,
    "district_id": 12,
    "name_en": "Galigamuwa Town",
    "postcode": 71350
  },
  {
    "id": 939,
    "district_id": 12,
    "name_en": "Gallella",
    "postcode": 70062
  },
  {
    "id": 940,
    "district_id": 12,
    "name_en": "Galpatha(Sab)",
    "postcode": 71312
  },
  {
    "id": 941,
    "district_id": 12,
    "name_en": "Gantuna",
    "postcode": 71222
  },
  {
    "id": 942,
    "district_id": 12,
    "name_en": "Getahetta",
    "postcode": 70620
  },
  {
    "id": 943,
    "district_id": 12,
    "name_en": "Godagampola",
    "postcode": 70556
  },
  {
    "id": 944,
    "district_id": 12,
    "name_en": "Gonagala",
    "postcode": 71318
  },
  {
    "id": 945,
    "district_id": 12,
    "name_en": "Hakahinna",
    "postcode": 71352
  },
  {
    "id": 946,
    "district_id": 12,
    "name_en": "Hakbellawaka",
    "postcode": 71715
  },
  {
    "id": 947,
    "district_id": 12,
    "name_en": "Halloluwa",
    "postcode": 20032
  },
  {
    "id": 948,
    "district_id": 12,
    "name_en": "Hedunuwewa",
    "postcode": 22024
  },
  {
    "id": 949,
    "district_id": 12,
    "name_en": "Hemmatagama",
    "postcode": 71530
  },
  {
    "id": 950,
    "district_id": 12,
    "name_en": "Hewadiwela",
    "postcode": 71108
  },
  {
    "id": 951,
    "district_id": 12,
    "name_en": "Hingula",
    "postcode": 71520
  },
  {
    "id": 952,
    "district_id": 12,
    "name_en": "Hinguralakanda",
    "postcode": 71417
  },
  {
    "id": 953,
    "district_id": 12,
    "name_en": "Hingurana",
    "postcode": 32010
  },
  {
    "id": 954,
    "district_id": 12,
    "name_en": "Hiriwadunna",
    "postcode": 71014
  },
  {
    "id": 955,
    "district_id": 12,
    "name_en": "Ihala Walpola",
    "postcode": 80134
  },
  {
    "id": 956,
    "district_id": 12,
    "name_en": "Ihalagama",
    "postcode": 70144
  },
  {
    "id": 957,
    "district_id": 12,
    "name_en": "Imbulana",
    "postcode": 71313
  },
  {
    "id": 958,
    "district_id": 12,
    "name_en": "Imbulgasdeniya",
    "postcode": 71055
  },
  {
    "id": 959,
    "district_id": 12,
    "name_en": "Kabagamuwa",
    "postcode": 71202
  },
  {
    "id": 960,
    "district_id": 12,
    "name_en": "Kahapathwala",
    "postcode": 60062
  },
  {
    "id": 961,
    "district_id": 12,
    "name_en": "Kandaketya",
    "postcode": 90020
  },
  {
    "id": 962,
    "district_id": 12,
    "name_en": "Kannattota",
    "postcode": 71372
  },
  {
    "id": 963,
    "district_id": 12,
    "name_en": "Karagahinna",
    "postcode": 21014
  },
  {
    "id": 964,
    "district_id": 12,
    "name_en": "Kegalle",
    "postcode": 71000
  },
  {
    "id": 965,
    "district_id": 12,
    "name_en": "Kehelpannala",
    "postcode": 71533
  },
  {
    "id": 966,
    "district_id": 12,
    "name_en": "Ketawala Leula",
    "postcode": 20198
  },
  {
    "id": 967,
    "district_id": 12,
    "name_en": "Kitulgala",
    "postcode": 71720
  },
  {
    "id": 968,
    "district_id": 12,
    "name_en": "Kondeniya",
    "postcode": 71501
  },
  {
    "id": 969,
    "district_id": 12,
    "name_en": "Kotiyakumbura",
    "postcode": 71370
  },
  {
    "id": 970,
    "district_id": 12,
    "name_en": "Lewangama",
    "postcode": 71315
  },
  {
    "id": 971,
    "district_id": 12,
    "name_en": "Mahabage",
    "postcode": 71722
  },
  {
    "id": 972,
    "district_id": 12,
    "name_en": "Makehelwala",
    "postcode": 71507
  },
  {
    "id": 973,
    "district_id": 12,
    "name_en": "Malalpola",
    "postcode": 71704
  },
  {
    "id": 974,
    "district_id": 12,
    "name_en": "Maldeniya",
    "postcode": 22021
  },
  {
    "id": 975,
    "district_id": 12,
    "name_en": "Maliboda",
    "postcode": 71411
  },
  {
    "id": 976,
    "district_id": 12,
    "name_en": "Maliyadda",
    "postcode": 90022
  },
  {
    "id": 977,
    "district_id": 12,
    "name_en": "Malmaduwa",
    "postcode": 71325
  },
  {
    "id": 978,
    "district_id": 12,
    "name_en": "Marapana",
    "postcode": 70041
  },
  {
    "id": 979,
    "district_id": 12,
    "name_en": "Mawanella",
    "postcode": 71500
  },
  {
    "id": 980,
    "district_id": 12,
    "name_en": "Meetanwala",
    "postcode": 60066
  },
  {
    "id": 981,
    "district_id": 12,
    "name_en": "Migastenna Sabara",
    "postcode": 71716
  },
  {
    "id": 982,
    "district_id": 12,
    "name_en": "Miyanawita",
    "postcode": 71432
  },
  {
    "id": 983,
    "district_id": 12,
    "name_en": "Molagoda",
    "postcode": 71016
  },
  {
    "id": 984,
    "district_id": 12,
    "name_en": "Morontota",
    "postcode": 71220
  },
  {
    "id": 985,
    "district_id": 12,
    "name_en": "Narangala",
    "postcode": 90064
  },
  {
    "id": 986,
    "district_id": 12,
    "name_en": "Narangoda",
    "postcode": 60152
  },
  {
    "id": 987,
    "district_id": 12,
    "name_en": "Nattarampotha",
    "postcode": 20194
  },
  {
    "id": 988,
    "district_id": 12,
    "name_en": "Nelundeniya",
    "postcode": 71060
  },
  {
    "id": 989,
    "district_id": 12,
    "name_en": "Niyadurupola",
    "postcode": 71602
  },
  {
    "id": 990,
    "district_id": 12,
    "name_en": "Noori",
    "postcode": 71407
  },
  {
    "id": 991,
    "district_id": 12,
    "name_en": "Pannila",
    "postcode": 12114
  },
  {
    "id": 992,
    "district_id": 12,
    "name_en": "Pattampitiya",
    "postcode": 71130
  },
  {
    "id": 993,
    "district_id": 12,
    "name_en": "Pilawala",
    "postcode": 20196
  },
  {
    "id": 994,
    "district_id": 12,
    "name_en": "Pothukoladeniya",
    "postcode": 71039
  },
  {
    "id": 995,
    "district_id": 12,
    "name_en": "Puswelitenna",
    "postcode": 60072
  },
  {
    "id": 996,
    "district_id": 12,
    "name_en": "Rambukkana",
    "postcode": 71100
  },
  {
    "id": 997,
    "district_id": 12,
    "name_en": "Rilpola",
    "postcode": 90026
  },
  {
    "id": 998,
    "district_id": 12,
    "name_en": "Rukmale",
    "postcode": 11129
  },
  {
    "id": 999,
    "district_id": 12,
    "name_en": "Ruwanwella",
    "postcode": 71300
  },
  {
    "id": 1000,
    "district_id": 12,
    "name_en": "Samanalawewa",
    "postcode": 70142
  },
  {
    "id": 1001,
    "district_id": 12,
    "name_en": "Seaforth Colony",
    "postcode": 71708
  },
  {
    "id": 1002,
    "district_id": 5,
    "name_en": "Colombo 2",
    "postcode": 200
  },
  {
    "id": 1003,
    "district_id": 12,
    "name_en": "Spring Valley",
    "postcode": 90028
  },
  {
    "id": 1004,
    "district_id": 12,
    "name_en": "Talgaspitiya",
    "postcode": 71541
  },
  {
    "id": 1005,
    "district_id": 12,
    "name_en": "Teligama",
    "postcode": 71724
  },
  {
    "id": 1006,
    "district_id": 12,
    "name_en": "Tholangamuwa",
    "postcode": 71619
  },
  {
    "id": 1007,
    "district_id": 12,
    "name_en": "Thotawella",
    "postcode": 71106
  },
  {
    "id": 1008,
    "district_id": 12,
    "name_en": "Udaha Hawupe",
    "postcode": 70154
  },
  {
    "id": 1009,
    "district_id": 12,
    "name_en": "Udapotha",
    "postcode": 71236
  },
  {
    "id": 1010,
    "district_id": 12,
    "name_en": "Uduwa",
    "postcode": 20052
  },
  {
    "id": 1011,
    "district_id": 12,
    "name_en": "Undugoda",
    "postcode": 71200
  },
  {
    "id": 1012,
    "district_id": 12,
    "name_en": "Ussapitiya",
    "postcode": 71510
  },
  {
    "id": 1013,
    "district_id": 12,
    "name_en": "Wahakula",
    "postcode": 71303
  },
  {
    "id": 1014,
    "district_id": 12,
    "name_en": "Waharaka",
    "postcode": 71304
  },
  {
    "id": 1015,
    "district_id": 12,
    "name_en": "Wanaluwewa",
    "postcode": 11068
  },
  {
    "id": 1016,
    "district_id": 12,
    "name_en": "Warakapola",
    "postcode": 71600
  },
  {
    "id": 1017,
    "district_id": 12,
    "name_en": "Watura",
    "postcode": 71035
  },
  {
    "id": 1018,
    "district_id": 12,
    "name_en": "Weeoya",
    "postcode": 71702
  },
  {
    "id": 1019,
    "district_id": 12,
    "name_en": "Wegalla",
    "postcode": 71234
  },
  {
    "id": 1020,
    "district_id": 12,
    "name_en": "Weligalla",
    "postcode": 20610
  },
  {
    "id": 1021,
    "district_id": 12,
    "name_en": "Welihelatenna",
    "postcode": 71712
  },
  {
    "id": 1022,
    "district_id": 12,
    "name_en": "Wewelwatta",
    "postcode": 70066
  },
  {
    "id": 1023,
    "district_id": 12,
    "name_en": "Yatagama",
    "postcode": 71116
  },
  {
    "id": 1024,
    "district_id": 12,
    "name_en": "Yatapana",
    "postcode": 71326
  },
  {
    "id": 1025,
    "district_id": 12,
    "name_en": "Yatiyantota",
    "postcode": 71700
  },
  {
    "id": 1026,
    "district_id": 12,
    "name_en": "Yattogoda",
    "postcode": 71029
  },
  {
    "id": 1027,
    "district_id": 13,
    "name_en": "Kandavalai",
    "postcode": ""
  },
  {
    "id": 1028,
    "district_id": 13,
    "name_en": "Karachchi",
    "postcode": ""
  },
  {
    "id": 1029,
    "district_id": 13,
    "name_en": "Kilinochchi",
    "postcode": ""
  },
  {
    "id": 1030,
    "district_id": 13,
    "name_en": "Pachchilaipalli",
    "postcode": ""
  },
  {
    "id": 1031,
    "district_id": 13,
    "name_en": "Poonakary",
    "postcode": ""
  },
  {
    "id": 1032,
    "district_id": 11,
    "name_en": "Akurana",
    "postcode": 20850
  },
  {
    "id": 1033,
    "district_id": 14,
    "name_en": "Alahengama",
    "postcode": 60416
  },
  {
    "id": 1034,
    "district_id": 14,
    "name_en": "Alahitiyawa",
    "postcode": 60182
  },
  {
    "id": 1035,
    "district_id": 14,
    "name_en": "Ambakote",
    "postcode": 60036
  },
  {
    "id": 1036,
    "district_id": 14,
    "name_en": "Ambanpola",
    "postcode": 60650
  },
  {
    "id": 1037,
    "district_id": 14,
    "name_en": "Andiyagala",
    "postcode": 50112
  },
  {
    "id": 1038,
    "district_id": 14,
    "name_en": "Anukkane",
    "postcode": 60214
  },
  {
    "id": 1039,
    "district_id": 14,
    "name_en": "Aragoda",
    "postcode": 60308
  },
  {
    "id": 1040,
    "district_id": 14,
    "name_en": "Ataragalla",
    "postcode": 60706
  },
  {
    "id": 1041,
    "district_id": 14,
    "name_en": "Awulegama",
    "postcode": 60462
  },
  {
    "id": 1042,
    "district_id": 14,
    "name_en": "Balalla",
    "postcode": 60604
  },
  {
    "id": 1043,
    "district_id": 14,
    "name_en": "Bamunukotuwa",
    "postcode": 60347
  },
  {
    "id": 1044,
    "district_id": 14,
    "name_en": "Bandara Koswatta",
    "postcode": 60424
  },
  {
    "id": 1045,
    "district_id": 14,
    "name_en": "Bingiriya",
    "postcode": 60450
  },
  {
    "id": 1046,
    "district_id": 14,
    "name_en": "Bogamulla",
    "postcode": 60107
  },
  {
    "id": 1047,
    "district_id": 14,
    "name_en": "Boraluwewa",
    "postcode": 60437
  },
  {
    "id": 1048,
    "district_id": 14,
    "name_en": "Boyagane",
    "postcode": 60027
  },
  {
    "id": 1049,
    "district_id": 14,
    "name_en": "Bujjomuwa",
    "postcode": 60291
  },
  {
    "id": 1050,
    "district_id": 14,
    "name_en": "Buluwala",
    "postcode": 60076
  },
  {
    "id": 1051,
    "district_id": 14,
    "name_en": "Dadayamtalawa",
    "postcode": 32046
  },
  {
    "id": 1052,
    "district_id": 14,
    "name_en": "Dambadeniya",
    "postcode": 60130
  },
  {
    "id": 1053,
    "district_id": 14,
    "name_en": "Daraluwa",
    "postcode": 60174
  },
  {
    "id": 1054,
    "district_id": 14,
    "name_en": "Deegalla",
    "postcode": 60228
  },
  {
    "id": 1055,
    "district_id": 14,
    "name_en": "Demataluwa",
    "postcode": 60024
  },
  {
    "id": 1056,
    "district_id": 14,
    "name_en": "Demuwatha",
    "postcode": 70332
  },
  {
    "id": 1057,
    "district_id": 14,
    "name_en": "Diddeniya",
    "postcode": 60544
  },
  {
    "id": 1058,
    "district_id": 14,
    "name_en": "Digannewa",
    "postcode": 60485
  },
  {
    "id": 1059,
    "district_id": 14,
    "name_en": "Divullegoda",
    "postcode": 60472
  },
  {
    "id": 1060,
    "district_id": 14,
    "name_en": "Diyasenpura",
    "postcode": 51504
  },
  {
    "id": 1061,
    "district_id": 14,
    "name_en": "Dodangaslanda",
    "postcode": 60530
  },
  {
    "id": 1062,
    "district_id": 14,
    "name_en": "Doluwa",
    "postcode": 20532
  },
  {
    "id": 1063,
    "district_id": 14,
    "name_en": "Doragamuwa",
    "postcode": 20816
  },
  {
    "id": 1064,
    "district_id": 14,
    "name_en": "Doratiyawa",
    "postcode": 60013
  },
  {
    "id": 1065,
    "district_id": 14,
    "name_en": "Dunumadalawa",
    "postcode": 50214
  },
  {
    "id": 1066,
    "district_id": 14,
    "name_en": "Dunuwilapitiya",
    "postcode": 21538
  },
  {
    "id": 1067,
    "district_id": 14,
    "name_en": "Ehetuwewa",
    "postcode": 60716
  },
  {
    "id": 1068,
    "district_id": 14,
    "name_en": "Elibichchiya",
    "postcode": 60156
  },
  {
    "id": 1069,
    "district_id": 14,
    "name_en": "Embogama",
    "postcode": 60718
  },
  {
    "id": 1070,
    "district_id": 14,
    "name_en": "Etungahakotuwa",
    "postcode": 60266
  },
  {
    "id": 1071,
    "district_id": 14,
    "name_en": "Galadivulwewa",
    "postcode": 50210
  },
  {
    "id": 1072,
    "district_id": 14,
    "name_en": "Galgamuwa",
    "postcode": 60700
  },
  {
    "id": 1073,
    "district_id": 14,
    "name_en": "Gallellagama",
    "postcode": 20095
  },
  {
    "id": 1074,
    "district_id": 14,
    "name_en": "Gallewa",
    "postcode": 60712
  },
  {
    "id": 1075,
    "district_id": 14,
    "name_en": "Ganegoda",
    "postcode": 80440
  },
  {
    "id": 1076,
    "district_id": 14,
    "name_en": "Girathalana",
    "postcode": 60752
  },
  {
    "id": 1077,
    "district_id": 14,
    "name_en": "Gokaralla",
    "postcode": 60522
  },
  {
    "id": 1078,
    "district_id": 14,
    "name_en": "Gonawila",
    "postcode": 60170
  },
  {
    "id": 1079,
    "district_id": 14,
    "name_en": "Halmillawewa",
    "postcode": 60441
  },
  {
    "id": 1080,
    "district_id": 14,
    "name_en": "Handungamuwa",
    "postcode": 21536
  },
  {
    "id": 1081,
    "district_id": 14,
    "name_en": "Harankahawa",
    "postcode": 20092
  },
  {
    "id": 1082,
    "district_id": 14,
    "name_en": "Helamada",
    "postcode": 71046
  },
  {
    "id": 1083,
    "district_id": 14,
    "name_en": "Hengamuwa",
    "postcode": 60414
  },
  {
    "id": 1084,
    "district_id": 14,
    "name_en": "Hettipola",
    "postcode": 60430
  },
  {
    "id": 1085,
    "district_id": 14,
    "name_en": "Hewainna",
    "postcode": 10714
  },
  {
    "id": 1086,
    "district_id": 14,
    "name_en": "Hilogama",
    "postcode": 60486
  },
  {
    "id": 1087,
    "district_id": 14,
    "name_en": "Hindagolla",
    "postcode": 60034
  },
  {
    "id": 1088,
    "district_id": 14,
    "name_en": "Hiriyala Lenawa",
    "postcode": 60546
  },
  {
    "id": 1089,
    "district_id": 14,
    "name_en": "Hiruwalpola",
    "postcode": 60458
  },
  {
    "id": 1090,
    "district_id": 14,
    "name_en": "Horambawa",
    "postcode": 60181
  },
  {
    "id": 1091,
    "district_id": 14,
    "name_en": "Hulogedara",
    "postcode": 60474
  },
  {
    "id": 1092,
    "district_id": 14,
    "name_en": "Hulugalla",
    "postcode": 60477
  },
  {
    "id": 1093,
    "district_id": 14,
    "name_en": "Ihala Gomugomuwa",
    "postcode": 60211
  },
  {
    "id": 1094,
    "district_id": 14,
    "name_en": "Ihala Katugampala",
    "postcode": 60135
  },
  {
    "id": 1095,
    "district_id": 14,
    "name_en": "Indulgodakanda",
    "postcode": 60016
  },
  {
    "id": 1096,
    "district_id": 14,
    "name_en": "Ithanawatta",
    "postcode": 60025
  },
  {
    "id": 1097,
    "district_id": 14,
    "name_en": "Kadigawa",
    "postcode": 60492
  },
  {
    "id": 1098,
    "district_id": 14,
    "name_en": "Kalankuttiya",
    "postcode": 50174
  },
  {
    "id": 1099,
    "district_id": 14,
    "name_en": "Kalatuwawa",
    "postcode": 10718
  },
  {
    "id": 1100,
    "district_id": 14,
    "name_en": "Kalugamuwa",
    "postcode": 60096
  },
  {
    "id": 1101,
    "district_id": 14,
    "name_en": "Kanadeniyawala",
    "postcode": 60054
  },
  {
    "id": 1102,
    "district_id": 14,
    "name_en": "Kanattewewa",
    "postcode": 60422
  },
  {
    "id": 1103,
    "district_id": 14,
    "name_en": "Kandegedara",
    "postcode": 90070
  },
  {
    "id": 1104,
    "district_id": 14,
    "name_en": "Karagahagedara",
    "postcode": 60106
  },
  {
    "id": 1105,
    "district_id": 14,
    "name_en": "Karambe",
    "postcode": 60602
  },
  {
    "id": 1106,
    "district_id": 14,
    "name_en": "Katiyawa",
    "postcode": 50261
  },
  {
    "id": 1107,
    "district_id": 14,
    "name_en": "Katupota",
    "postcode": 60350
  },
  {
    "id": 1108,
    "district_id": 14,
    "name_en": "Kawudulla",
    "postcode": 51414
  },
  {
    "id": 1109,
    "district_id": 14,
    "name_en": "Kawuduluwewa Stagell",
    "postcode": 51514
  },
  {
    "id": 1110,
    "district_id": 14,
    "name_en": "Kekunagolla",
    "postcode": 60183
  },
  {
    "id": 1111,
    "district_id": 14,
    "name_en": "Keppitiwalana",
    "postcode": 60288
  },
  {
    "id": 1112,
    "district_id": 14,
    "name_en": "Kimbulwanaoya",
    "postcode": 60548
  },
  {
    "id": 1113,
    "district_id": 14,
    "name_en": "Kirimetiyawa",
    "postcode": 60184
  },
  {
    "id": 1114,
    "district_id": 14,
    "name_en": "Kirindawa",
    "postcode": 60212
  },
  {
    "id": 1115,
    "district_id": 14,
    "name_en": "Kirindigalla",
    "postcode": 60502
  },
  {
    "id": 1116,
    "district_id": 14,
    "name_en": "Kithalawa",
    "postcode": 60188
  },
  {
    "id": 1117,
    "district_id": 14,
    "name_en": "Kitulwala",
    "postcode": 11242
  },
  {
    "id": 1118,
    "district_id": 14,
    "name_en": "Kobeigane",
    "postcode": 60410
  },
  {
    "id": 1119,
    "district_id": 14,
    "name_en": "Kohilagedara",
    "postcode": 60028
  },
  {
    "id": 1120,
    "district_id": 14,
    "name_en": "Konwewa",
    "postcode": 60630
  },
  {
    "id": 1121,
    "district_id": 14,
    "name_en": "Kosdeniya",
    "postcode": 60356
  },
  {
    "id": 1122,
    "district_id": 14,
    "name_en": "Kosgolla",
    "postcode": 60029
  },
  {
    "id": 1123,
    "district_id": 14,
    "name_en": "Kotagala",
    "postcode": 22080
  },
  {
    "id": 1124,
    "district_id": 5,
    "name_en": "Colombo 13",
    "postcode": 1300
  },
  {
    "id": 1125,
    "district_id": 14,
    "name_en": "Kotawehera",
    "postcode": 60483
  },
  {
    "id": 1126,
    "district_id": 14,
    "name_en": "Kudagalgamuwa",
    "postcode": 60003
  },
  {
    "id": 1127,
    "district_id": 14,
    "name_en": "Kudakatnoruwa",
    "postcode": 60754
  },
  {
    "id": 1128,
    "district_id": 14,
    "name_en": "Kuliyapitiya",
    "postcode": 60200
  },
  {
    "id": 1129,
    "district_id": 14,
    "name_en": "Kumaragama",
    "postcode": 51412
  },
  {
    "id": 1130,
    "district_id": 14,
    "name_en": "Kumbukgeta",
    "postcode": 60508
  },
  {
    "id": 1131,
    "district_id": 14,
    "name_en": "Kumbukwewa",
    "postcode": 60506
  },
  {
    "id": 1132,
    "district_id": 14,
    "name_en": "Kuratihena",
    "postcode": 60438
  },
  {
    "id": 1133,
    "district_id": 14,
    "name_en": "Kurunegala",
    "postcode": 60000
  },
  {
    "id": 1134,
    "district_id": 14,
    "name_en": "Ibbagamuwa",
    "postcode": 60500
  },
  {
    "id": 1135,
    "district_id": 14,
    "name_en": "Ihala Kadigamuwa",
    "postcode": 60238
  },
  {
    "id": 1136,
    "district_id": 14,
    "name_en": "Lihiriyagama",
    "postcode": 61138
  },
  {
    "id": 1137,
    "district_id": 14,
    "name_en": "Illagolla",
    "postcode": 20724
  },
  {
    "id": 1138,
    "district_id": 14,
    "name_en": "Ilukhena",
    "postcode": 60232
  },
  {
    "id": 1139,
    "district_id": 14,
    "name_en": "Lonahettiya",
    "postcode": 60108
  },
  {
    "id": 1140,
    "district_id": 14,
    "name_en": "Madahapola",
    "postcode": 60552
  },
  {
    "id": 1141,
    "district_id": 14,
    "name_en": "Madakumburumulla",
    "postcode": 60209
  },
  {
    "id": 1142,
    "district_id": 14,
    "name_en": "Madalagama",
    "postcode": 70158
  },
  {
    "id": 1143,
    "district_id": 14,
    "name_en": "Madawala Ulpotha",
    "postcode": 21074
  },
  {
    "id": 1144,
    "district_id": 14,
    "name_en": "Maduragoda",
    "postcode": 60532
  },
  {
    "id": 1145,
    "district_id": 14,
    "name_en": "Maeliya",
    "postcode": 60512
  },
  {
    "id": 1146,
    "district_id": 14,
    "name_en": "Magulagama",
    "postcode": 60221
  },
  {
    "id": 1147,
    "district_id": 14,
    "name_en": "Maha Ambagaswewa",
    "postcode": 51518
  },
  {
    "id": 1148,
    "district_id": 14,
    "name_en": "Mahagalkadawala",
    "postcode": 60731
  },
  {
    "id": 1149,
    "district_id": 14,
    "name_en": "Mahagirilla",
    "postcode": 60479
  },
  {
    "id": 1150,
    "district_id": 14,
    "name_en": "Mahamukalanyaya",
    "postcode": 60516
  },
  {
    "id": 1151,
    "district_id": 14,
    "name_en": "Mahananneriya",
    "postcode": 60724
  },
  {
    "id": 1152,
    "district_id": 14,
    "name_en": "Mahapallegama",
    "postcode": 71063
  },
  {
    "id": 1153,
    "district_id": 14,
    "name_en": "Maharachchimulla",
    "postcode": 60286
  },
  {
    "id": 1154,
    "district_id": 14,
    "name_en": "Mahatalakolawewa",
    "postcode": 51506
  },
  {
    "id": 1155,
    "district_id": 14,
    "name_en": "Mahawewa",
    "postcode": 61220
  },
  {
    "id": 1156,
    "district_id": 14,
    "name_en": "Maho",
    "postcode": 60600
  },
  {
    "id": 1157,
    "district_id": 14,
    "name_en": "Makulewa",
    "postcode": 60714
  },
  {
    "id": 1158,
    "district_id": 14,
    "name_en": "Makulpotha",
    "postcode": 60514
  },
  {
    "id": 1159,
    "district_id": 14,
    "name_en": "Makulwewa",
    "postcode": 60578
  },
  {
    "id": 1160,
    "district_id": 14,
    "name_en": "Malagane",
    "postcode": 60404
  },
  {
    "id": 1161,
    "district_id": 14,
    "name_en": "Mandapola",
    "postcode": 60434
  },
  {
    "id": 1162,
    "district_id": 14,
    "name_en": "Maspotha",
    "postcode": 60344
  },
  {
    "id": 1163,
    "district_id": 14,
    "name_en": "Mawathagama",
    "postcode": 60060
  },
  {
    "id": 1164,
    "district_id": 14,
    "name_en": "Medirigiriya",
    "postcode": 51500
  },
  {
    "id": 1165,
    "district_id": 14,
    "name_en": "Medivawa",
    "postcode": 60612
  },
  {
    "id": 1166,
    "district_id": 14,
    "name_en": "Meegalawa",
    "postcode": 60750
  },
  {
    "id": 1167,
    "district_id": 14,
    "name_en": "Meegaswewa",
    "postcode": 51508
  },
  {
    "id": 1168,
    "district_id": 14,
    "name_en": "Meewellawa",
    "postcode": 60484
  },
  {
    "id": 1169,
    "district_id": 14,
    "name_en": "Melsiripura",
    "postcode": 60540
  },
  {
    "id": 1170,
    "district_id": 14,
    "name_en": "Metikumbura",
    "postcode": 60304
  },
  {
    "id": 1171,
    "district_id": 14,
    "name_en": "Metiyagane",
    "postcode": 60121
  },
  {
    "id": 1172,
    "district_id": 14,
    "name_en": "Minhettiya",
    "postcode": 60004
  },
  {
    "id": 1173,
    "district_id": 14,
    "name_en": "Minuwangete",
    "postcode": 60406
  },
  {
    "id": 1174,
    "district_id": 14,
    "name_en": "Mirihanagama",
    "postcode": 60408
  },
  {
    "id": 1175,
    "district_id": 14,
    "name_en": "Monnekulama",
    "postcode": 60495
  },
  {
    "id": 1176,
    "district_id": 14,
    "name_en": "Moragane",
    "postcode": 60354
  },
  {
    "id": 1177,
    "district_id": 14,
    "name_en": "Moragollagama",
    "postcode": 60640
  },
  {
    "id": 1178,
    "district_id": 14,
    "name_en": "Morathiha",
    "postcode": 60038
  },
  {
    "id": 1179,
    "district_id": 14,
    "name_en": "Munamaldeniya",
    "postcode": 60218
  },
  {
    "id": 1180,
    "district_id": 14,
    "name_en": "Muruthenge",
    "postcode": 60122
  },
  {
    "id": 1181,
    "district_id": 14,
    "name_en": "Mutugala",
    "postcode": 51064
  },
  {
    "id": 1182,
    "district_id": 14,
    "name_en": "Nabadewa",
    "postcode": 60482
  },
  {
    "id": 1183,
    "district_id": 14,
    "name_en": "Nagollagama",
    "postcode": 60590
  },
  {
    "id": 1184,
    "district_id": 14,
    "name_en": "Nagollagoda",
    "postcode": 60226
  },
  {
    "id": 1185,
    "district_id": 14,
    "name_en": "Nakkawatta",
    "postcode": 60186
  },
  {
    "id": 1186,
    "district_id": 14,
    "name_en": "Narammala",
    "postcode": 60100
  },
  {
    "id": 1187,
    "district_id": 14,
    "name_en": "Nawasenapura",
    "postcode": 51066
  },
  {
    "id": 1188,
    "district_id": 14,
    "name_en": "Nawatalwatta",
    "postcode": 60292
  },
  {
    "id": 1189,
    "district_id": 14,
    "name_en": "Nelliya",
    "postcode": 60549
  },
  {
    "id": 1190,
    "district_id": 14,
    "name_en": "Nikaweratiya",
    "postcode": 60470
  },
  {
    "id": 1191,
    "district_id": 14,
    "name_en": "Nugagolla",
    "postcode": 21534
  },
  {
    "id": 1192,
    "district_id": 14,
    "name_en": "Nugawela",
    "postcode": 20072
  },
  {
    "id": 1193,
    "district_id": 14,
    "name_en": "Padeniya",
    "postcode": 60461
  },
  {
    "id": 1194,
    "district_id": 14,
    "name_en": "Padiwela",
    "postcode": 60236
  },
  {
    "id": 1195,
    "district_id": 14,
    "name_en": "Pahalagiribawa",
    "postcode": 60735
  },
  {
    "id": 1196,
    "district_id": 14,
    "name_en": "Pahamune",
    "postcode": 60112
  },
  {
    "id": 1197,
    "district_id": 14,
    "name_en": "Palagala",
    "postcode": 50111
  },
  {
    "id": 1198,
    "district_id": 14,
    "name_en": "Palapathwela",
    "postcode": 21070
  },
  {
    "id": 1199,
    "district_id": 14,
    "name_en": "Palaviya",
    "postcode": 61280
  },
  {
    "id": 1200,
    "district_id": 14,
    "name_en": "Pallewela",
    "postcode": 11150
  },
  {
    "id": 1201,
    "district_id": 14,
    "name_en": "Palukadawala",
    "postcode": 60704
  },
  {
    "id": 1202,
    "district_id": 14,
    "name_en": "Panadaragama",
    "postcode": 60348
  },
  {
    "id": 1203,
    "district_id": 14,
    "name_en": "Panagamuwa",
    "postcode": 60052
  },
  {
    "id": 1204,
    "district_id": 14,
    "name_en": "Panaliya",
    "postcode": 60312
  },
  {
    "id": 1205,
    "district_id": 14,
    "name_en": "Panapitiya",
    "postcode": 70152
  },
  {
    "id": 1206,
    "district_id": 14,
    "name_en": "Panliyadda",
    "postcode": 60558
  },
  {
    "id": 1207,
    "district_id": 14,
    "name_en": "Pansiyagama",
    "postcode": 60554
  },
  {
    "id": 1208,
    "district_id": 14,
    "name_en": "Parape",
    "postcode": 71105
  },
  {
    "id": 1209,
    "district_id": 14,
    "name_en": "Pathanewatta",
    "postcode": 90071
  },
  {
    "id": 1210,
    "district_id": 14,
    "name_en": "Pattiya Watta",
    "postcode": 20118
  },
  {
    "id": 1211,
    "district_id": 14,
    "name_en": "Perakanatta",
    "postcode": 21532
  },
  {
    "id": 1212,
    "district_id": 14,
    "name_en": "Periyakadneluwa",
    "postcode": 60518
  },
  {
    "id": 1213,
    "district_id": 14,
    "name_en": "Pihimbiya Ratmale",
    "postcode": 60439
  },
  {
    "id": 1214,
    "district_id": 14,
    "name_en": "Pihimbuwa",
    "postcode": 60053
  },
  {
    "id": 1215,
    "district_id": 14,
    "name_en": "Pilessa",
    "postcode": 60058
  },
  {
    "id": 1216,
    "district_id": 14,
    "name_en": "Polgahawela",
    "postcode": 60300
  },
  {
    "id": 1217,
    "district_id": 14,
    "name_en": "Polgolla",
    "postcode": 20250
  },
  {
    "id": 1218,
    "district_id": 14,
    "name_en": "Polpithigama",
    "postcode": 60620
  },
  {
    "id": 1219,
    "district_id": 14,
    "name_en": "Pothuhera",
    "postcode": 60330
  },
  {
    "id": 1220,
    "district_id": 14,
    "name_en": "Pothupitiya",
    "postcode": 70338
  },
  {
    "id": 1221,
    "district_id": 14,
    "name_en": "Pujapitiya",
    "postcode": 20112
  },
  {
    "id": 1222,
    "district_id": 14,
    "name_en": "Rakwana",
    "postcode": 70300
  },
  {
    "id": 1223,
    "district_id": 14,
    "name_en": "Ranorawa",
    "postcode": 50212
  },
  {
    "id": 1224,
    "district_id": 14,
    "name_en": "Rathukohodigala",
    "postcode": 20818
  },
  {
    "id": 1225,
    "district_id": 14,
    "name_en": "Ridibendiella",
    "postcode": 60606
  },
  {
    "id": 1226,
    "district_id": 14,
    "name_en": "Ridigama",
    "postcode": 60040
  },
  {
    "id": 1227,
    "district_id": 14,
    "name_en": "Saliya Asokapura",
    "postcode": 60736
  },
  {
    "id": 1228,
    "district_id": 14,
    "name_en": "Sandalankawa",
    "postcode": 60176
  },
  {
    "id": 1229,
    "district_id": 14,
    "name_en": "Sevanapitiya",
    "postcode": 51062
  },
  {
    "id": 1230,
    "district_id": 14,
    "name_en": "Sirambiadiya",
    "postcode": 61312
  },
  {
    "id": 1231,
    "district_id": 14,
    "name_en": "Sirisetagama",
    "postcode": 60478
  },
  {
    "id": 1232,
    "district_id": 14,
    "name_en": "Siyambalangamuwa",
    "postcode": 60646
  },
  {
    "id": 1233,
    "district_id": 14,
    "name_en": "Siyambalawewa",
    "postcode": 32048
  },
  {
    "id": 1234,
    "district_id": 14,
    "name_en": "Solepura",
    "postcode": 60737
  },
  {
    "id": 1235,
    "district_id": 14,
    "name_en": "Solewewa",
    "postcode": 60738
  },
  {
    "id": 1236,
    "district_id": 14,
    "name_en": "Sunandapura",
    "postcode": 60436
  },
  {
    "id": 1237,
    "district_id": 14,
    "name_en": "Talawattegedara",
    "postcode": 60306
  },
  {
    "id": 1238,
    "district_id": 14,
    "name_en": "Tambutta",
    "postcode": 60734
  },
  {
    "id": 1239,
    "district_id": 14,
    "name_en": "Tennepanguwa",
    "postcode": 90072
  },
  {
    "id": 1240,
    "district_id": 14,
    "name_en": "Thalahitimulla",
    "postcode": 60208
  },
  {
    "id": 1241,
    "district_id": 14,
    "name_en": "Thalakolawewa",
    "postcode": 60624
  },
  {
    "id": 1242,
    "district_id": 14,
    "name_en": "Thalwita",
    "postcode": 60572
  },
  {
    "id": 1243,
    "district_id": 14,
    "name_en": "Tharana Udawela",
    "postcode": 60227
  },
  {
    "id": 1244,
    "district_id": 14,
    "name_en": "Thimbiriyawa",
    "postcode": 60476
  },
  {
    "id": 1245,
    "district_id": 14,
    "name_en": "Tisogama",
    "postcode": 60453
  },
  {
    "id": 1246,
    "district_id": 14,
    "name_en": "Thorayaya",
    "postcode": 60499
  },
  {
    "id": 1247,
    "district_id": 14,
    "name_en": "Tulhiriya",
    "postcode": 71610
  },
  {
    "id": 1248,
    "district_id": 14,
    "name_en": "Tuntota",
    "postcode": 71062
  },
  {
    "id": 1249,
    "district_id": 14,
    "name_en": "Tuttiripitigama",
    "postcode": 60426
  },
  {
    "id": 1250,
    "district_id": 14,
    "name_en": "Udagaldeniya",
    "postcode": 71113
  },
  {
    "id": 1251,
    "district_id": 14,
    "name_en": "Udahingulwala",
    "postcode": 20094
  },
  {
    "id": 1252,
    "district_id": 14,
    "name_en": "Udawatta",
    "postcode": 20722
  },
  {
    "id": 1253,
    "district_id": 14,
    "name_en": "Udubaddawa",
    "postcode": 60250
  },
  {
    "id": 1254,
    "district_id": 14,
    "name_en": "Udumulla",
    "postcode": 71521
  },
  {
    "id": 1255,
    "district_id": 14,
    "name_en": "Uhumiya",
    "postcode": 60094
  },
  {
    "id": 1256,
    "district_id": 14,
    "name_en": "Ulpotha Pallekele",
    "postcode": 60622
  },
  {
    "id": 1257,
    "district_id": 14,
    "name_en": "Ulpothagama",
    "postcode": 20965
  },
  {
    "id": 1258,
    "district_id": 14,
    "name_en": "Usgala Siyabmalangamuwa",
    "postcode": 60732
  },
  {
    "id": 1259,
    "district_id": 14,
    "name_en": "Vijithapura",
    "postcode": 50110
  },
  {
    "id": 1260,
    "district_id": 14,
    "name_en": "Wadakada",
    "postcode": 60318
  },
  {
    "id": 1261,
    "district_id": 14,
    "name_en": "Wadumunnegedara",
    "postcode": 60204
  },
  {
    "id": 1262,
    "district_id": 14,
    "name_en": "Walakumburumulla",
    "postcode": 60198
  },
  {
    "id": 1263,
    "district_id": 14,
    "name_en": "Wannigama",
    "postcode": 60465
  },
  {
    "id": 1264,
    "district_id": 14,
    "name_en": "Wannikudawewa",
    "postcode": 60721
  },
  {
    "id": 1265,
    "district_id": 14,
    "name_en": "Wannilhalagama",
    "postcode": 60722
  },
  {
    "id": 1266,
    "district_id": 14,
    "name_en": "Wannirasnayakapura",
    "postcode": 60490
  },
  {
    "id": 1267,
    "district_id": 14,
    "name_en": "Warawewa",
    "postcode": 60739
  },
  {
    "id": 1268,
    "district_id": 14,
    "name_en": "Wariyapola",
    "postcode": 60400
  },
  {
    "id": 1269,
    "district_id": 14,
    "name_en": "Watareka",
    "postcode": 10511
  },
  {
    "id": 1270,
    "district_id": 14,
    "name_en": "Wattegama",
    "postcode": 20810
  },
  {
    "id": 1271,
    "district_id": 14,
    "name_en": "Watuwatta",
    "postcode": 60262
  },
  {
    "id": 1272,
    "district_id": 14,
    "name_en": "Weerapokuna",
    "postcode": 60454
  },
  {
    "id": 1273,
    "district_id": 14,
    "name_en": "Welawa Juncton",
    "postcode": 60464
  },
  {
    "id": 1274,
    "district_id": 14,
    "name_en": "Welipennagahamulla",
    "postcode": 60240
  },
  {
    "id": 1275,
    "district_id": 14,
    "name_en": "Wellagala",
    "postcode": 60402
  },
  {
    "id": 1276,
    "district_id": 14,
    "name_en": "Wellarawa",
    "postcode": 60456
  },
  {
    "id": 1277,
    "district_id": 14,
    "name_en": "Wellawa",
    "postcode": 60570
  },
  {
    "id": 1278,
    "district_id": 14,
    "name_en": "Welpalla",
    "postcode": 60206
  },
  {
    "id": 1279,
    "district_id": 14,
    "name_en": "Wennoruwa",
    "postcode": 60284
  },
  {
    "id": 1280,
    "district_id": 14,
    "name_en": "Weuda",
    "postcode": 60080
  },
  {
    "id": 1281,
    "district_id": 14,
    "name_en": "Wewagama",
    "postcode": 60195
  },
  {
    "id": 1282,
    "district_id": 14,
    "name_en": "Wilgamuwa",
    "postcode": 21530
  },
  {
    "id": 1283,
    "district_id": 14,
    "name_en": "Yakwila",
    "postcode": 60202
  },
  {
    "id": 1284,
    "district_id": 14,
    "name_en": "Yatigaloluwa",
    "postcode": 60314
  },
  {
    "id": 1285,
    "district_id": 15,
    "name_en": "Mannar",
    "postcode": 41000
  },
  {
    "id": 1286,
    "district_id": 15,
    "name_en": "Puthukudiyiruppu",
    "postcode": 30158
  },
  {
    "id": 1287,
    "district_id": 16,
    "name_en": "Akuramboda",
    "postcode": 21142
  },
  {
    "id": 1288,
    "district_id": 16,
    "name_en": "Alawatuwala",
    "postcode": 60047
  },
  {
    "id": 1289,
    "district_id": 16,
    "name_en": "Alwatta",
    "postcode": 21004
  },
  {
    "id": 1290,
    "district_id": 16,
    "name_en": "Ambana",
    "postcode": 21504
  },
  {
    "id": 1291,
    "district_id": 16,
    "name_en": "Aralaganwila",
    "postcode": 51100
  },
  {
    "id": 1292,
    "district_id": 16,
    "name_en": "Ataragallewa",
    "postcode": 21512
  },
  {
    "id": 1293,
    "district_id": 16,
    "name_en": "Bambaragaswewa",
    "postcode": 21212
  },
  {
    "id": 1294,
    "district_id": 16,
    "name_en": "Barawardhana Oya",
    "postcode": 20967
  },
  {
    "id": 1295,
    "district_id": 16,
    "name_en": "Beligamuwa",
    "postcode": 21214
  },
  {
    "id": 1296,
    "district_id": 16,
    "name_en": "Damana",
    "postcode": 32014
  },
  {
    "id": 1297,
    "district_id": 16,
    "name_en": "Dambulla",
    "postcode": 21100
  },
  {
    "id": 1298,
    "district_id": 16,
    "name_en": "Damminna",
    "postcode": 51106
  },
  {
    "id": 1299,
    "district_id": 16,
    "name_en": "Dankanda",
    "postcode": 21032
  },
  {
    "id": 1300,
    "district_id": 16,
    "name_en": "Delwite",
    "postcode": 60044
  },
  {
    "id": 1301,
    "district_id": 16,
    "name_en": "Devagiriya",
    "postcode": 21552
  },
  {
    "id": 1302,
    "district_id": 16,
    "name_en": "Dewahuwa",
    "postcode": 21206
  },
  {
    "id": 1303,
    "district_id": 16,
    "name_en": "Divuldamana",
    "postcode": 51104
  },
  {
    "id": 1304,
    "district_id": 16,
    "name_en": "Dullewa",
    "postcode": 21054
  },
  {
    "id": 1305,
    "district_id": 16,
    "name_en": "Dunkolawatta",
    "postcode": 21046
  },
  {
    "id": 1306,
    "district_id": 16,
    "name_en": "Elkaduwa",
    "postcode": 21012
  },
  {
    "id": 1307,
    "district_id": 16,
    "name_en": "Erawula Junction",
    "postcode": 21108
  },
  {
    "id": 1308,
    "district_id": 16,
    "name_en": "Etanawala",
    "postcode": 21402
  },
  {
    "id": 1309,
    "district_id": 16,
    "name_en": "Galewela",
    "postcode": 21200
  },
  {
    "id": 1310,
    "district_id": 16,
    "name_en": "Galoya Junction",
    "postcode": 51375
  },
  {
    "id": 1311,
    "district_id": 16,
    "name_en": "Gammaduwa",
    "postcode": 21068
  },
  {
    "id": 1312,
    "district_id": 16,
    "name_en": "Gangala Puwakpitiya",
    "postcode": 21404
  },
  {
    "id": 1313,
    "district_id": 16,
    "name_en": "Hasalaka",
    "postcode": 20960
  },
  {
    "id": 1314,
    "district_id": 16,
    "name_en": "Hattota Amuna",
    "postcode": 21514
  },
  {
    "id": 1315,
    "district_id": 16,
    "name_en": "Imbulgolla",
    "postcode": 21064
  },
  {
    "id": 1316,
    "district_id": 16,
    "name_en": "Inamaluwa",
    "postcode": 21124
  },
  {
    "id": 1317,
    "district_id": 16,
    "name_en": "Iriyagolla",
    "postcode": 60045
  },
  {
    "id": 1318,
    "district_id": 16,
    "name_en": "Kaikawala",
    "postcode": 21066
  },
  {
    "id": 1319,
    "district_id": 16,
    "name_en": "Kalundawa",
    "postcode": 21112
  },
  {
    "id": 1320,
    "district_id": 16,
    "name_en": "Kandalama",
    "postcode": 21106
  },
  {
    "id": 1321,
    "district_id": 16,
    "name_en": "Kavudupelella",
    "postcode": 21072
  },
  {
    "id": 1322,
    "district_id": 16,
    "name_en": "Kibissa",
    "postcode": 21122
  },
  {
    "id": 1323,
    "district_id": 16,
    "name_en": "Kiwula",
    "postcode": 21042
  },
  {
    "id": 1324,
    "district_id": 16,
    "name_en": "Kongahawela",
    "postcode": 21500
  },
  {
    "id": 1325,
    "district_id": 16,
    "name_en": "Laggala Pallegama",
    "postcode": 21520
  },
  {
    "id": 1326,
    "district_id": 16,
    "name_en": "Leliambe",
    "postcode": 21008
  },
  {
    "id": 1327,
    "district_id": 16,
    "name_en": "Lenadora",
    "postcode": 21094
  },
  {
    "id": 1328,
    "district_id": 16,
    "name_en": "Ihala Halmillewa",
    "postcode": 50262
  },
  {
    "id": 1329,
    "district_id": 16,
    "name_en": "Illukkumbura",
    "postcode": 21406
  },
  {
    "id": 1330,
    "district_id": 16,
    "name_en": "Madipola",
    "postcode": 51108
  },
  {
    "id": 1332,
    "district_id": 16,
    "name_en": "Mahawela",
    "postcode": 21140
  },
  {
    "id": 1333,
    "district_id": 16,
    "name_en": "Mananwatta",
    "postcode": 21144
  },
  {
    "id": 1334,
    "district_id": 16,
    "name_en": "Maraka",
    "postcode": 21554
  },
  {
    "id": 1335,
    "district_id": 16,
    "name_en": "Matale",
    "postcode": 21000
  },
  {
    "id": 1336,
    "district_id": 16,
    "name_en": "Melipitiya",
    "postcode": 21055
  },
  {
    "id": 1337,
    "district_id": 16,
    "name_en": "Metihakka",
    "postcode": 21062
  },
  {
    "id": 1338,
    "district_id": 16,
    "name_en": "Millawana",
    "postcode": 21154
  },
  {
    "id": 1339,
    "district_id": 16,
    "name_en": "Muwandeniya",
    "postcode": 21044
  },
  {
    "id": 1340,
    "district_id": 16,
    "name_en": "Nalanda",
    "postcode": 21082
  },
  {
    "id": 1341,
    "district_id": 16,
    "name_en": "Naula",
    "postcode": 21090
  },
  {
    "id": 1342,
    "district_id": 16,
    "name_en": "Opalgala",
    "postcode": 21076
  },
  {
    "id": 1343,
    "district_id": 16,
    "name_en": "Pallepola",
    "postcode": 21152
  },
  {
    "id": 1344,
    "district_id": 16,
    "name_en": "Pimburattewa",
    "postcode": 51102
  },
  {
    "id": 1345,
    "district_id": 16,
    "name_en": "Pulastigama",
    "postcode": 51050
  },
  {
    "id": 1346,
    "district_id": 16,
    "name_en": "Ranamuregama",
    "postcode": 21524
  },
  {
    "id": 1347,
    "district_id": 16,
    "name_en": "Rattota",
    "postcode": 21400
  },
  {
    "id": 1348,
    "district_id": 16,
    "name_en": "Selagama",
    "postcode": 21058
  },
  {
    "id": 1349,
    "district_id": 16,
    "name_en": "Sigiriya",
    "postcode": 21120
  },
  {
    "id": 1350,
    "district_id": 16,
    "name_en": "Sinhagama",
    "postcode": 51378
  },
  {
    "id": 1351,
    "district_id": 16,
    "name_en": "Sungavila",
    "postcode": 51052
  },
  {
    "id": 1352,
    "district_id": 16,
    "name_en": "Talagoda Junction",
    "postcode": 21506
  },
  {
    "id": 1353,
    "district_id": 16,
    "name_en": "Talakiriyagama",
    "postcode": 21116
  },
  {
    "id": 1354,
    "district_id": 16,
    "name_en": "Tamankaduwa",
    "postcode": 51089
  },
  {
    "id": 1355,
    "district_id": 16,
    "name_en": "Udasgiriya",
    "postcode": 21051
  },
  {
    "id": 1356,
    "district_id": 16,
    "name_en": "Udatenna",
    "postcode": 21006
  },
  {
    "id": 1357,
    "district_id": 16,
    "name_en": "Ukuwela",
    "postcode": 21300
  },
  {
    "id": 1358,
    "district_id": 16,
    "name_en": "Wahacotte",
    "postcode": 21160
  },
  {
    "id": 1359,
    "district_id": 16,
    "name_en": "Walawela",
    "postcode": 21048
  },
  {
    "id": 1360,
    "district_id": 16,
    "name_en": "Wehigala",
    "postcode": 21009
  },
  {
    "id": 1361,
    "district_id": 16,
    "name_en": "Welangahawatte",
    "postcode": 21408
  },
  {
    "id": 1362,
    "district_id": 16,
    "name_en": "Wewalawewa",
    "postcode": 21114
  },
  {
    "id": 1363,
    "district_id": 16,
    "name_en": "Yatawatta",
    "postcode": 21056
  },
  {
    "id": 1364,
    "district_id": 17,
    "name_en": "Akuressa",
    "postcode": 81400
  },
  {
    "id": 1365,
    "district_id": 17,
    "name_en": "Alapaladeniya",
    "postcode": 81475
  },
  {
    "id": 1366,
    "district_id": 17,
    "name_en": "Aparekka",
    "postcode": 81032
  },
  {
    "id": 1367,
    "district_id": 17,
    "name_en": "Athuraliya",
    "postcode": 81402
  },
  {
    "id": 1368,
    "district_id": 17,
    "name_en": "Bengamuwa",
    "postcode": 81614
  },
  {
    "id": 1369,
    "district_id": 17,
    "name_en": "Bopagoda",
    "postcode": 81412
  },
  {
    "id": 1370,
    "district_id": 17,
    "name_en": "Dampahala",
    "postcode": 81612
  },
  {
    "id": 1371,
    "district_id": 17,
    "name_en": "Deegala Lenama",
    "postcode": 81452
  },
  {
    "id": 1372,
    "district_id": 17,
    "name_en": "Deiyandara",
    "postcode": 81320
  },
  {
    "id": 1373,
    "district_id": 17,
    "name_en": "Denagama",
    "postcode": 81314
  },
  {
    "id": 1374,
    "district_id": 17,
    "name_en": "Denipitiya",
    "postcode": 81730
  },
  {
    "id": 1375,
    "district_id": 17,
    "name_en": "Deniyaya",
    "postcode": 81500
  },
  {
    "id": 1376,
    "district_id": 17,
    "name_en": "Derangala",
    "postcode": 81454
  },
  {
    "id": 1377,
    "district_id": 17,
    "name_en": "Devinuwara (Dondra)",
    "postcode": 81160
  },
  {
    "id": 1378,
    "district_id": 17,
    "name_en": "Dikwella",
    "postcode": 81200
  },
  {
    "id": 1379,
    "district_id": 17,
    "name_en": "Diyagaha",
    "postcode": 81038
  },
  {
    "id": 1380,
    "district_id": 17,
    "name_en": "Diyalape",
    "postcode": 81422
  },
  {
    "id": 1381,
    "district_id": 17,
    "name_en": "Gandara",
    "postcode": 81170
  },
  {
    "id": 1382,
    "district_id": 17,
    "name_en": "Godapitiya",
    "postcode": 81408
  },
  {
    "id": 1383,
    "district_id": 17,
    "name_en": "Gomilamawarala",
    "postcode": 81072
  },
  {
    "id": 1384,
    "district_id": 17,
    "name_en": "Hawpe",
    "postcode": 80132
  },
  {
    "id": 1385,
    "district_id": 17,
    "name_en": "Horapawita",
    "postcode": 81108
  },
  {
    "id": 1386,
    "district_id": 17,
    "name_en": "Kalubowitiyana",
    "postcode": 81478
  },
  {
    "id": 1387,
    "district_id": 17,
    "name_en": "Kamburugamuwa",
    "postcode": 81750
  },
  {
    "id": 1388,
    "district_id": 17,
    "name_en": "Kamburupitiya",
    "postcode": 81100
  },
  {
    "id": 1389,
    "district_id": 17,
    "name_en": "Karagoda Uyangoda",
    "postcode": 81082
  },
  {
    "id": 1390,
    "district_id": 17,
    "name_en": "Karaputugala",
    "postcode": 81106
  },
  {
    "id": 1391,
    "district_id": 17,
    "name_en": "Karatota",
    "postcode": 81318
  },
  {
    "id": 1392,
    "district_id": 17,
    "name_en": "Kekanadura",
    "postcode": 81020
  },
  {
    "id": 1393,
    "district_id": 17,
    "name_en": "Kiriweldola",
    "postcode": 81514
  },
  {
    "id": 1394,
    "district_id": 17,
    "name_en": "Kiriwelkele",
    "postcode": 81456
  },
  {
    "id": 1395,
    "district_id": 17,
    "name_en": "Kolawenigama",
    "postcode": 81522
  },
  {
    "id": 1396,
    "district_id": 17,
    "name_en": "Kotapola",
    "postcode": 81480
  },
  {
    "id": 1397,
    "district_id": 17,
    "name_en": "Lankagama",
    "postcode": 81526
  },
  {
    "id": 1398,
    "district_id": 17,
    "name_en": "Makandura",
    "postcode": 81070
  },
  {
    "id": 1399,
    "district_id": 17,
    "name_en": "Maliduwa",
    "postcode": 81424
  },
  {
    "id": 1400,
    "district_id": 17,
    "name_en": "Maramba",
    "postcode": 81416
  },
  {
    "id": 1401,
    "district_id": 17,
    "name_en": "Matara",
    "postcode": 81000
  },
  {
    "id": 1402,
    "district_id": 17,
    "name_en": "Mediripitiya",
    "postcode": 81524
  },
  {
    "id": 1403,
    "district_id": 17,
    "name_en": "Miella",
    "postcode": 81312
  },
  {
    "id": 1404,
    "district_id": 17,
    "name_en": "Mirissa",
    "postcode": 81740
  },
  {
    "id": 1405,
    "district_id": 17,
    "name_en": "Morawaka",
    "postcode": 81470
  },
  {
    "id": 1406,
    "district_id": 17,
    "name_en": "Mulatiyana Junction",
    "postcode": 81071
  },
  {
    "id": 1407,
    "district_id": 17,
    "name_en": "Nadugala",
    "postcode": 81092
  },
  {
    "id": 1408,
    "district_id": 17,
    "name_en": "Naimana",
    "postcode": 81017
  },
  {
    "id": 1409,
    "district_id": 17,
    "name_en": "Palatuwa",
    "postcode": 81050
  },
  {
    "id": 1410,
    "district_id": 17,
    "name_en": "Parapamulla",
    "postcode": 81322
  },
  {
    "id": 1411,
    "district_id": 17,
    "name_en": "Pasgoda",
    "postcode": 81615
  },
  {
    "id": 1412,
    "district_id": 17,
    "name_en": "Penetiyana",
    "postcode": 81722
  },
  {
    "id": 1413,
    "district_id": 17,
    "name_en": "Pitabeddara",
    "postcode": 81450
  },
  {
    "id": 1414,
    "district_id": 17,
    "name_en": "Puhulwella",
    "postcode": 81290
  },
  {
    "id": 1415,
    "district_id": 17,
    "name_en": "Radawela",
    "postcode": 81316
  },
  {
    "id": 1416,
    "district_id": 17,
    "name_en": "Ransegoda",
    "postcode": 81064
  },
  {
    "id": 1417,
    "district_id": 17,
    "name_en": "Rotumba",
    "postcode": 81074
  },
  {
    "id": 1418,
    "district_id": 17,
    "name_en": "Sultanagoda",
    "postcode": 81051
  },
  {
    "id": 1419,
    "district_id": 17,
    "name_en": "Telijjawila",
    "postcode": 81060
  },
  {
    "id": 1420,
    "district_id": 17,
    "name_en": "Thihagoda",
    "postcode": 81280
  },
  {
    "id": 1421,
    "district_id": 17,
    "name_en": "Urubokka",
    "postcode": 81600
  },
  {
    "id": 1422,
    "district_id": 17,
    "name_en": "Urugamuwa",
    "postcode": 81230
  },
  {
    "id": 1423,
    "district_id": 17,
    "name_en": "Urumutta",
    "postcode": 81414
  },
  {
    "id": 1424,
    "district_id": 17,
    "name_en": "Viharahena",
    "postcode": 81508
  },
  {
    "id": 1425,
    "district_id": 17,
    "name_en": "Walakanda",
    "postcode": 81294
  },
  {
    "id": 1426,
    "district_id": 17,
    "name_en": "Walasgala",
    "postcode": 81220
  },
  {
    "id": 1427,
    "district_id": 17,
    "name_en": "Waralla",
    "postcode": 81479
  },
  {
    "id": 1428,
    "district_id": 17,
    "name_en": "Weligama",
    "postcode": 81700
  },
  {
    "id": 1429,
    "district_id": 17,
    "name_en": "Wilpita",
    "postcode": 81404
  },
  {
    "id": 1430,
    "district_id": 17,
    "name_en": "Yatiyana",
    "postcode": 81034
  },
  {
    "id": 1431,
    "district_id": 18,
    "name_en": "Ayiwela",
    "postcode": 91516
  },
  {
    "id": 1432,
    "district_id": 18,
    "name_en": "Badalkumbura",
    "postcode": 91070
  },
  {
    "id": 1433,
    "district_id": 18,
    "name_en": "Baduluwela",
    "postcode": 91058
  },
  {
    "id": 1434,
    "district_id": 18,
    "name_en": "Bakinigahawela",
    "postcode": 91554
  },
  {
    "id": 1435,
    "district_id": 18,
    "name_en": "Balaharuwa",
    "postcode": 91295
  },
  {
    "id": 1436,
    "district_id": 18,
    "name_en": "Bibile",
    "postcode": 91500
  },
  {
    "id": 1437,
    "district_id": 18,
    "name_en": "Buddama",
    "postcode": 91038
  },
  {
    "id": 1438,
    "district_id": 18,
    "name_en": "Buttala",
    "postcode": 91100
  },
  {
    "id": 1439,
    "district_id": 18,
    "name_en": "Dambagalla",
    "postcode": 91050
  },
  {
    "id": 1440,
    "district_id": 18,
    "name_en": "Diyakobala",
    "postcode": 91514
  },
  {
    "id": 1441,
    "district_id": 18,
    "name_en": "Dombagahawela",
    "postcode": 91010
  },
  {
    "id": 1442,
    "district_id": 18,
    "name_en": "Ethimalewewa",
    "postcode": 91020
  },
  {
    "id": 1443,
    "district_id": 18,
    "name_en": "Ettiliwewa",
    "postcode": 91250
  },
  {
    "id": 1444,
    "district_id": 18,
    "name_en": "Galabedda",
    "postcode": 91008
  },
  {
    "id": 1445,
    "district_id": 18,
    "name_en": "Gamewela",
    "postcode": 90512
  },
  {
    "id": 1446,
    "district_id": 18,
    "name_en": "Hambegamuwa",
    "postcode": 91308
  },
  {
    "id": 1447,
    "district_id": 18,
    "name_en": "Hingurukaduwa",
    "postcode": 90508
  },
  {
    "id": 1448,
    "district_id": 18,
    "name_en": "Hulandawa",
    "postcode": 91004
  },
  {
    "id": 1449,
    "district_id": 18,
    "name_en": "Inginiyagala",
    "postcode": 91040
  },
  {
    "id": 1450,
    "district_id": 18,
    "name_en": "Kandaudapanguwa",
    "postcode": 91032
  },
  {
    "id": 1451,
    "district_id": 18,
    "name_en": "Kandawinna",
    "postcode": 91552
  },
  {
    "id": 1452,
    "district_id": 18,
    "name_en": "Kataragama",
    "postcode": 91400
  },
  {
    "id": 1453,
    "district_id": 18,
    "name_en": "Kotagama",
    "postcode": 91512
  },
  {
    "id": 1454,
    "district_id": 18,
    "name_en": "Kotamuduna",
    "postcode": 90506
  },
  {
    "id": 1455,
    "district_id": 18,
    "name_en": "Kotawehera Mankada",
    "postcode": 91312
  },
  {
    "id": 1456,
    "district_id": 18,
    "name_en": "Kudawewa",
    "postcode": 61226
  },
  {
    "id": 1457,
    "district_id": 18,
    "name_en": "Kumbukkana",
    "postcode": 91098
  },
  {
    "id": 1458,
    "district_id": 18,
    "name_en": "Marawa",
    "postcode": 91006
  },
  {
    "id": 1459,
    "district_id": 18,
    "name_en": "Mariarawa",
    "postcode": 91052
  },
  {
    "id": 1460,
    "district_id": 18,
    "name_en": "Medagana",
    "postcode": 91550
  },
  {
    "id": 1461,
    "district_id": 18,
    "name_en": "Medawelagama",
    "postcode": 90518
  },
  {
    "id": 1462,
    "district_id": 18,
    "name_en": "Miyanakandura",
    "postcode": 90584
  },
  {
    "id": 1463,
    "district_id": 18,
    "name_en": "Monaragala",
    "postcode": 91000
  },
  {
    "id": 1464,
    "district_id": 18,
    "name_en": "Moretuwegama",
    "postcode": 91108
  },
  {
    "id": 1465,
    "district_id": 18,
    "name_en": "Nakkala",
    "postcode": 91003
  },
  {
    "id": 1466,
    "district_id": 18,
    "name_en": "Namunukula",
    "postcode": 90580
  },
  {
    "id": 1467,
    "district_id": 18,
    "name_en": "Nannapurawa",
    "postcode": 91519
  },
  {
    "id": 1468,
    "district_id": 18,
    "name_en": "Nelliyadda",
    "postcode": 91042
  },
  {
    "id": 1469,
    "district_id": 18,
    "name_en": "Nilgala",
    "postcode": 91508
  },
  {
    "id": 1470,
    "district_id": 18,
    "name_en": "Obbegoda",
    "postcode": 91007
  },
  {
    "id": 1471,
    "district_id": 18,
    "name_en": "Okkampitiya",
    "postcode": 91060
  },
  {
    "id": 1472,
    "district_id": 18,
    "name_en": "Pangura",
    "postcode": 91002
  },
  {
    "id": 1473,
    "district_id": 18,
    "name_en": "Pitakumbura",
    "postcode": 91505
  },
  {
    "id": 1474,
    "district_id": 18,
    "name_en": "Randeniya",
    "postcode": 91204
  },
  {
    "id": 1475,
    "district_id": 18,
    "name_en": "Ruwalwela",
    "postcode": 91056
  },
  {
    "id": 1476,
    "district_id": 18,
    "name_en": "Sella Kataragama",
    "postcode": 91405
  },
  {
    "id": 1477,
    "district_id": 18,
    "name_en": "Siyambalagune",
    "postcode": 91202
  },
  {
    "id": 1478,
    "district_id": 18,
    "name_en": "Siyambalanduwa",
    "postcode": 91030
  },
  {
    "id": 1479,
    "district_id": 18,
    "name_en": "Suriara",
    "postcode": 91306
  },
  {
    "id": 1480,
    "district_id": 18,
    "name_en": "Thanamalwila",
    "postcode": 91300
  },
  {
    "id": 1481,
    "district_id": 18,
    "name_en": "Uva Gangodagama",
    "postcode": 91054
  },
  {
    "id": 1482,
    "district_id": 18,
    "name_en": "Uva Kudaoya",
    "postcode": 91298
  },
  {
    "id": 1483,
    "district_id": 18,
    "name_en": "Uva Pelwatta",
    "postcode": 91112
  },
  {
    "id": 1484,
    "district_id": 18,
    "name_en": "Warunagama",
    "postcode": 91198
  },
  {
    "id": 1485,
    "district_id": 18,
    "name_en": "Wedikumbura",
    "postcode": 91005
  },
  {
    "id": 1486,
    "district_id": 18,
    "name_en": "Weherayaya Handapanagala",
    "postcode": 91206
  },
  {
    "id": 1487,
    "district_id": 18,
    "name_en": "Wellawaya",
    "postcode": 91200
  },
  {
    "id": 1488,
    "district_id": 18,
    "name_en": "Wilaoya",
    "postcode": 91022
  },
  {
    "id": 1489,
    "district_id": 18,
    "name_en": "Yudaganawa",
    "postcode": 51424
  },
  {
    "id": 1490,
    "district_id": 19,
    "name_en": "Mullativu",
    "postcode": 42000
  },
  {
    "id": 1491,
    "district_id": 20,
    "name_en": "Agarapathana",
    "postcode": 22094
  },
  {
    "id": 1492,
    "district_id": 20,
    "name_en": "Ambatalawa",
    "postcode": 20686
  },
  {
    "id": 1493,
    "district_id": 20,
    "name_en": "Ambewela",
    "postcode": 22216
  },
  {
    "id": 1494,
    "district_id": 20,
    "name_en": "Bogawantalawa",
    "postcode": 22060
  },
  {
    "id": 1495,
    "district_id": 20,
    "name_en": "Bopattalawa",
    "postcode": 22095
  },
  {
    "id": 1496,
    "district_id": 20,
    "name_en": "Dagampitiya",
    "postcode": 20684
  },
  {
    "id": 1497,
    "district_id": 20,
    "name_en": "Dayagama Bazaar",
    "postcode": 22096
  },
  {
    "id": 1498,
    "district_id": 20,
    "name_en": "Dikoya",
    "postcode": 22050
  },
  {
    "id": 1499,
    "district_id": 20,
    "name_en": "Doragala",
    "postcode": 20567
  },
  {
    "id": 1500,
    "district_id": 20,
    "name_en": "Dunukedeniya",
    "postcode": 22002
  },
  {
    "id": 1501,
    "district_id": 20,
    "name_en": "Egodawela",
    "postcode": 90013
  },
  {
    "id": 1502,
    "district_id": 20,
    "name_en": "Ekiriya",
    "postcode": 20732
  },
  {
    "id": 1503,
    "district_id": 20,
    "name_en": "Elamulla",
    "postcode": 20742
  },
  {
    "id": 1504,
    "district_id": 20,
    "name_en": "Ginigathena",
    "postcode": 20680
  },
  {
    "id": 1505,
    "district_id": 20,
    "name_en": "Gonakele",
    "postcode": 22226
  },
  {
    "id": 1506,
    "district_id": 20,
    "name_en": "Haggala",
    "postcode": 22208
  },
  {
    "id": 1507,
    "district_id": 20,
    "name_en": "Halgranoya",
    "postcode": 22240
  },
  {
    "id": 1508,
    "district_id": 20,
    "name_en": "Hangarapitiya",
    "postcode": 22044
  },
  {
    "id": 1509,
    "district_id": 20,
    "name_en": "Hapugasthalawa",
    "postcode": 20668
  },
  {
    "id": 1510,
    "district_id": 20,
    "name_en": "Harasbedda",
    "postcode": 22262
  },
  {
    "id": 1511,
    "district_id": 20,
    "name_en": "Hatton",
    "postcode": 22000
  },
  {
    "id": 1512,
    "district_id": 20,
    "name_en": "Hewaheta",
    "postcode": 20440
  },
  {
    "id": 1513,
    "district_id": 20,
    "name_en": "Hitigegama",
    "postcode": 22046
  },
  {
    "id": 1514,
    "district_id": 20,
    "name_en": "Jangulla",
    "postcode": 90063
  },
  {
    "id": 1515,
    "district_id": 20,
    "name_en": "Kalaganwatta",
    "postcode": 22282
  },
  {
    "id": 1516,
    "district_id": 20,
    "name_en": "Kandapola",
    "postcode": 22220
  },
  {
    "id": 1517,
    "district_id": 20,
    "name_en": "Karandagolla",
    "postcode": 20738
  },
  {
    "id": 1518,
    "district_id": 20,
    "name_en": "Keerthi Bandarapura",
    "postcode": 22274
  },
  {
    "id": 1519,
    "district_id": 20,
    "name_en": "Kiribathkumbura",
    "postcode": 20442
  },
  {
    "id": 1520,
    "district_id": 20,
    "name_en": "Kotiyagala",
    "postcode": 91024
  },
  {
    "id": 1521,
    "district_id": 20,
    "name_en": "Kotmale",
    "postcode": 20560
  },
  {
    "id": 1522,
    "district_id": 20,
    "name_en": "Kottellena",
    "postcode": 22040
  },
  {
    "id": 1523,
    "district_id": 20,
    "name_en": "Kumbalgamuwa",
    "postcode": 22272
  },
  {
    "id": 1524,
    "district_id": 20,
    "name_en": "Kumbukwela",
    "postcode": 22246
  },
  {
    "id": 1525,
    "district_id": 20,
    "name_en": "Kurupanawela",
    "postcode": 22252
  },
  {
    "id": 1526,
    "district_id": 20,
    "name_en": "Labukele",
    "postcode": 20592
  },
  {
    "id": 1527,
    "district_id": 20,
    "name_en": "Laxapana",
    "postcode": 22034
  },
  {
    "id": 1528,
    "district_id": 20,
    "name_en": "Lindula",
    "postcode": 22090
  },
  {
    "id": 1529,
    "district_id": 20,
    "name_en": "Madulla",
    "postcode": 22256
  },
  {
    "id": 1530,
    "district_id": 20,
    "name_en": "Mandaram Nuwara",
    "postcode": 20744
  },
  {
    "id": 1531,
    "district_id": 20,
    "name_en": "Maskeliya",
    "postcode": 22070
  },
  {
    "id": 1532,
    "district_id": 20,
    "name_en": "Maswela",
    "postcode": 20566
  },
  {
    "id": 1533,
    "district_id": 20,
    "name_en": "Maturata",
    "postcode": 20748
  },
  {
    "id": 1534,
    "district_id": 20,
    "name_en": "Mipanawa",
    "postcode": 22254
  },
  {
    "id": 1535,
    "district_id": 20,
    "name_en": "Mipilimana",
    "postcode": 22214
  },
  {
    "id": 1536,
    "district_id": 20,
    "name_en": "Morahenagama",
    "postcode": 22036
  },
  {
    "id": 1537,
    "district_id": 20,
    "name_en": "Munwatta",
    "postcode": 20752
  },
  {
    "id": 1538,
    "district_id": 20,
    "name_en": "Nayapana Janapadaya",
    "postcode": 20568
  },
  {
    "id": 1539,
    "district_id": 20,
    "name_en": "Nildandahinna",
    "postcode": 22280
  },
  {
    "id": 1540,
    "district_id": 20,
    "name_en": "Nissanka Uyana",
    "postcode": 22075
  },
  {
    "id": 1541,
    "district_id": 20,
    "name_en": "Norwood",
    "postcode": 22058
  },
  {
    "id": 1542,
    "district_id": 20,
    "name_en": "Nuwara Eliya",
    "postcode": 22200
  },
  {
    "id": 1543,
    "district_id": 20,
    "name_en": "Padiyapelella",
    "postcode": 20750
  },
  {
    "id": 1544,
    "district_id": 20,
    "name_en": "Pallebowala",
    "postcode": 20734
  },
  {
    "id": 1545,
    "district_id": 20,
    "name_en": "Panvila",
    "postcode": 20830
  },
  {
    "id": 1546,
    "district_id": 20,
    "name_en": "Pitawala",
    "postcode": 20682
  },
  {
    "id": 1547,
    "district_id": 20,
    "name_en": "Pundaluoya",
    "postcode": 22120
  },
  {
    "id": 1548,
    "district_id": 20,
    "name_en": "Ramboda",
    "postcode": 20590
  },
  {
    "id": 1549,
    "district_id": 20,
    "name_en": "Rikillagaskada",
    "postcode": 20730
  },
  {
    "id": 1550,
    "district_id": 20,
    "name_en": "Rozella",
    "postcode": 22008
  },
  {
    "id": 1551,
    "district_id": 20,
    "name_en": "Rupaha",
    "postcode": 22245
  },
  {
    "id": 1552,
    "district_id": 20,
    "name_en": "Ruwaneliya",
    "postcode": 22212
  },
  {
    "id": 1553,
    "district_id": 20,
    "name_en": "Santhipura",
    "postcode": 22202
  },
  {
    "id": 1554,
    "district_id": 20,
    "name_en": "Talawakele",
    "postcode": 22100
  },
  {
    "id": 1555,
    "district_id": 20,
    "name_en": "Tawalantenna",
    "postcode": 20838
  },
  {
    "id": 1556,
    "district_id": 20,
    "name_en": "Teripeha",
    "postcode": 22287
  },
  {
    "id": 1557,
    "district_id": 20,
    "name_en": "Udamadura",
    "postcode": 22285
  },
  {
    "id": 1558,
    "district_id": 20,
    "name_en": "Udapussallawa",
    "postcode": 22250
  },
  {
    "id": 1559,
    "district_id": 20,
    "name_en": "Uva Deegalla",
    "postcode": 90062
  },
  {
    "id": 1560,
    "district_id": 20,
    "name_en": "Uva Uduwara",
    "postcode": 90061
  },
  {
    "id": 1561,
    "district_id": 20,
    "name_en": "Uvaparanagama",
    "postcode": 90230
  },
  {
    "id": 1562,
    "district_id": 20,
    "name_en": "Walapane",
    "postcode": 22270
  },
  {
    "id": 1563,
    "district_id": 20,
    "name_en": "Watawala",
    "postcode": 22010
  },
  {
    "id": 1564,
    "district_id": 20,
    "name_en": "Widulipura",
    "postcode": 22032
  },
  {
    "id": 1565,
    "district_id": 20,
    "name_en": "Wijebahukanda",
    "postcode": 22018
  },
  {
    "id": 1566,
    "district_id": 21,
    "name_en": "Attanakadawala",
    "postcode": 51235
  },
  {
    "id": 1567,
    "district_id": 21,
    "name_en": "Bakamuna",
    "postcode": 51250
  },
  {
    "id": 1568,
    "district_id": 21,
    "name_en": "Diyabeduma",
    "postcode": 51225
  },
  {
    "id": 1569,
    "district_id": 21,
    "name_en": "Elahera",
    "postcode": 51258
  },
  {
    "id": 1570,
    "district_id": 21,
    "name_en": "Giritale",
    "postcode": 51026
  },
  {
    "id": 1571,
    "district_id": 21,
    "name_en": "Hingurakdamana",
    "postcode": 51408
  },
  {
    "id": 1572,
    "district_id": 21,
    "name_en": "Hingurakgoda",
    "postcode": 51400
  },
  {
    "id": 1573,
    "district_id": 21,
    "name_en": "Jayanthipura",
    "postcode": 51024
  },
  {
    "id": 1574,
    "district_id": 21,
    "name_en": "Kalingaela",
    "postcode": 51002
  },
  {
    "id": 1575,
    "district_id": 21,
    "name_en": "Lakshauyana",
    "postcode": 51006
  },
  {
    "id": 1576,
    "district_id": 21,
    "name_en": "Mankemi",
    "postcode": 30442
  },
  {
    "id": 1577,
    "district_id": 21,
    "name_en": "Minneriya",
    "postcode": 51410
  },
  {
    "id": 1578,
    "district_id": 21,
    "name_en": "Onegama",
    "postcode": 51004
  },
  {
    "id": 1579,
    "district_id": 21,
    "name_en": "Orubendi Siyambalawa",
    "postcode": 51256
  },
  {
    "id": 1580,
    "district_id": 21,
    "name_en": "Palugasdamana",
    "postcode": 51046
  },
  {
    "id": 1581,
    "district_id": 21,
    "name_en": "Panichankemi",
    "postcode": 30444
  },
  {
    "id": 1582,
    "district_id": 21,
    "name_en": "Polonnaruwa",
    "postcode": 51000
  },
  {
    "id": 1583,
    "district_id": 21,
    "name_en": "Talpotha",
    "postcode": 51044
  },
  {
    "id": 1584,
    "district_id": 21,
    "name_en": "Tambala",
    "postcode": 51049
  },
  {
    "id": 1585,
    "district_id": 21,
    "name_en": "Unagalavehera",
    "postcode": 51008
  },
  {
    "id": 1586,
    "district_id": 21,
    "name_en": "Wijayabapura",
    "postcode": 51042
  },
  {
    "id": 1587,
    "district_id": 22,
    "name_en": "Adippala",
    "postcode": 61012
  },
  {
    "id": 1588,
    "district_id": 22,
    "name_en": "Alutgama",
    "postcode": 12080
  },
  {
    "id": 1589,
    "district_id": 22,
    "name_en": "Alutwewa",
    "postcode": 51014
  },
  {
    "id": 1590,
    "district_id": 22,
    "name_en": "Ambakandawila",
    "postcode": 61024
  },
  {
    "id": 1591,
    "district_id": 22,
    "name_en": "Anamaduwa",
    "postcode": 61500
  },
  {
    "id": 1592,
    "district_id": 22,
    "name_en": "Andigama",
    "postcode": 61508
  },
  {
    "id": 1593,
    "district_id": 22,
    "name_en": "Angunawila",
    "postcode": 61264
  },
  {
    "id": 1594,
    "district_id": 22,
    "name_en": "Attawilluwa",
    "postcode": 61328
  },
  {
    "id": 1595,
    "district_id": 22,
    "name_en": "Bangadeniya",
    "postcode": 61238
  },
  {
    "id": 1596,
    "district_id": 22,
    "name_en": "Baranankattuwa",
    "postcode": 61262
  },
  {
    "id": 1597,
    "district_id": 22,
    "name_en": "Battuluoya",
    "postcode": 61246
  },
  {
    "id": 1598,
    "district_id": 22,
    "name_en": "Bujjampola",
    "postcode": 61136
  },
  {
    "id": 1599,
    "district_id": 22,
    "name_en": "Chilaw",
    "postcode": 61000
  },
  {
    "id": 1600,
    "district_id": 22,
    "name_en": "Dalukana",
    "postcode": 51092
  },
  {
    "id": 1601,
    "district_id": 22,
    "name_en": "Dankotuwa",
    "postcode": 61130
  },
  {
    "id": 1602,
    "district_id": 22,
    "name_en": "Dewagala",
    "postcode": 51094
  },
  {
    "id": 1603,
    "district_id": 22,
    "name_en": "Dummalasuriya",
    "postcode": 60260
  },
  {
    "id": 1604,
    "district_id": 22,
    "name_en": "Dunkannawa",
    "postcode": 61192
  },
  {
    "id": 1605,
    "district_id": 22,
    "name_en": "Eluwankulama",
    "postcode": 61308
  },
  {
    "id": 1606,
    "district_id": 22,
    "name_en": "Ettale",
    "postcode": 61343
  },
  {
    "id": 1607,
    "district_id": 22,
    "name_en": "Galamuna",
    "postcode": 51416
  },
  {
    "id": 1608,
    "district_id": 22,
    "name_en": "Galmuruwa",
    "postcode": 61233
  },
  {
    "id": 1609,
    "district_id": 22,
    "name_en": "Hansayapalama",
    "postcode": 51098
  },
  {
    "id": 1610,
    "district_id": 22,
    "name_en": "Ihala Kottaramulla",
    "postcode": 61154
  },
  {
    "id": 1611,
    "district_id": 22,
    "name_en": "Ilippadeniya",
    "postcode": 61018
  },
  {
    "id": 1612,
    "district_id": 22,
    "name_en": "Inginimitiya",
    "postcode": 61514
  },
  {
    "id": 1613,
    "district_id": 22,
    "name_en": "Ismailpuram",
    "postcode": 61302
  },
  {
    "id": 1614,
    "district_id": 22,
    "name_en": "Jayasiripura",
    "postcode": 51246
  },
  {
    "id": 1615,
    "district_id": 22,
    "name_en": "Kakkapalliya",
    "postcode": 61236
  },
  {
    "id": 1616,
    "district_id": 22,
    "name_en": "Kalkudah",
    "postcode": 30410
  },
  {
    "id": 1617,
    "district_id": 22,
    "name_en": "Kalladiya",
    "postcode": 61534
  },
  {
    "id": 1618,
    "district_id": 22,
    "name_en": "Kandakuliya",
    "postcode": 61358
  },
  {
    "id": 1619,
    "district_id": 22,
    "name_en": "Karathivu",
    "postcode": 61307
  },
  {
    "id": 1620,
    "district_id": 22,
    "name_en": "Karawitagara",
    "postcode": 61022
  },
  {
    "id": 1621,
    "district_id": 22,
    "name_en": "Karuwalagaswewa",
    "postcode": 61314
  },
  {
    "id": 1622,
    "district_id": 22,
    "name_en": "Katuneriya",
    "postcode": 61180
  },
  {
    "id": 1623,
    "district_id": 22,
    "name_en": "Koswatta",
    "postcode": 61158
  },
  {
    "id": 1624,
    "district_id": 22,
    "name_en": "Kottantivu",
    "postcode": 61252
  },
  {
    "id": 1625,
    "district_id": 22,
    "name_en": "Kottapitiya",
    "postcode": 51244
  },
  {
    "id": 1626,
    "district_id": 22,
    "name_en": "Kottukachchiya",
    "postcode": 61532
  },
  {
    "id": 1627,
    "district_id": 22,
    "name_en": "Kumarakattuwa",
    "postcode": 61032
  },
  {
    "id": 1628,
    "district_id": 22,
    "name_en": "Kurinjanpitiya",
    "postcode": 61356
  },
  {
    "id": 1629,
    "district_id": 22,
    "name_en": "Kuruketiyawa",
    "postcode": 61516
  },
  {
    "id": 1630,
    "district_id": 22,
    "name_en": "Lunuwila",
    "postcode": 61150
  },
  {
    "id": 1631,
    "district_id": 22,
    "name_en": "Madampe",
    "postcode": 61230
  },
  {
    "id": 1632,
    "district_id": 22,
    "name_en": "Madurankuliya",
    "postcode": 61270
  },
  {
    "id": 1633,
    "district_id": 22,
    "name_en": "Mahakumbukkadawala",
    "postcode": 61272
  },
  {
    "id": 1634,
    "district_id": 22,
    "name_en": "Mahauswewa",
    "postcode": 61512
  },
  {
    "id": 1635,
    "district_id": 22,
    "name_en": "Mampitiya",
    "postcode": 51090
  },
  {
    "id": 1636,
    "district_id": 22,
    "name_en": "Mampuri",
    "postcode": 61341
  },
  {
    "id": 1637,
    "district_id": 22,
    "name_en": "Mangalaeliya",
    "postcode": 61266
  },
  {
    "id": 1638,
    "district_id": 22,
    "name_en": "Marawila",
    "postcode": 61210
  },
  {
    "id": 1639,
    "district_id": 22,
    "name_en": "Mudalakkuliya",
    "postcode": 61506
  },
  {
    "id": 1640,
    "district_id": 22,
    "name_en": "Mugunuwatawana",
    "postcode": 61014
  },
  {
    "id": 1641,
    "district_id": 22,
    "name_en": "Mukkutoduwawa",
    "postcode": 61274
  },
  {
    "id": 1642,
    "district_id": 22,
    "name_en": "Mundel",
    "postcode": 61250
  },
  {
    "id": 1643,
    "district_id": 22,
    "name_en": "Muttibendiwila",
    "postcode": 61195
  },
  {
    "id": 1644,
    "district_id": 22,
    "name_en": "Nainamadama",
    "postcode": 61120
  },
  {
    "id": 1645,
    "district_id": 22,
    "name_en": "Nalladarankattuwa",
    "postcode": 61244
  },
  {
    "id": 1646,
    "district_id": 22,
    "name_en": "Nattandiya",
    "postcode": 61190
  },
  {
    "id": 1647,
    "district_id": 22,
    "name_en": "Nawagattegama",
    "postcode": 61520
  },
  {
    "id": 1648,
    "district_id": 22,
    "name_en": "Nelumwewa",
    "postcode": 51096
  },
  {
    "id": 1649,
    "district_id": 22,
    "name_en": "Norachcholai",
    "postcode": 61342
  },
  {
    "id": 1650,
    "district_id": 22,
    "name_en": "Pallama",
    "postcode": 61040
  },
  {
    "id": 1651,
    "district_id": 22,
    "name_en": "Palliwasalturai",
    "postcode": 61354
  },
  {
    "id": 1652,
    "district_id": 22,
    "name_en": "Panirendawa",
    "postcode": 61234
  },
  {
    "id": 1653,
    "district_id": 22,
    "name_en": "Parakramasamudraya",
    "postcode": 51016
  },
  {
    "id": 1654,
    "district_id": 22,
    "name_en": "Pothuwatawana",
    "postcode": 61162
  },
  {
    "id": 1655,
    "district_id": 22,
    "name_en": "Puttalam",
    "postcode": 61300
  },
  {
    "id": 1656,
    "district_id": 22,
    "name_en": "Puttalam Cement Factory",
    "postcode": 61326
  },
  {
    "id": 1657,
    "district_id": 22,
    "name_en": "Rajakadaluwa",
    "postcode": 61242
  },
  {
    "id": 1658,
    "district_id": 22,
    "name_en": "Saliyawewa Junction",
    "postcode": 61324
  },
  {
    "id": 1659,
    "district_id": 22,
    "name_en": "Serukele",
    "postcode": 61042
  },
  {
    "id": 1660,
    "district_id": 22,
    "name_en": "Siyambalagashene",
    "postcode": 61504
  },
  {
    "id": 1661,
    "district_id": 22,
    "name_en": "Tabbowa",
    "postcode": 61322
  },
  {
    "id": 1662,
    "district_id": 22,
    "name_en": "Talawila Church",
    "postcode": 61344
  },
  {
    "id": 1663,
    "district_id": 22,
    "name_en": "Toduwawa",
    "postcode": 61224
  },
  {
    "id": 1664,
    "district_id": 22,
    "name_en": "Udappuwa",
    "postcode": 61004
  },
  {
    "id": 1665,
    "district_id": 22,
    "name_en": "Uridyawa",
    "postcode": 61502
  },
  {
    "id": 1666,
    "district_id": 22,
    "name_en": "Vanathawilluwa",
    "postcode": 61306
  },
  {
    "id": 1667,
    "district_id": 22,
    "name_en": "Waikkal",
    "postcode": 61110
  },
  {
    "id": 1668,
    "district_id": 22,
    "name_en": "Watugahamulla",
    "postcode": 61198
  },
  {
    "id": 1669,
    "district_id": 22,
    "name_en": "Wennappuwa",
    "postcode": 61170
  },
  {
    "id": 1670,
    "district_id": 22,
    "name_en": "Wijeyakatupotha",
    "postcode": 61006
  },
  {
    "id": 1671,
    "district_id": 22,
    "name_en": "Wilpotha",
    "postcode": 61008
  },
  {
    "id": 1672,
    "district_id": 22,
    "name_en": "Yodaela",
    "postcode": 51422
  },
  {
    "id": 1673,
    "district_id": 22,
    "name_en": "Yogiyana",
    "postcode": 61144
  },
  {
    "id": 1674,
    "district_id": 23,
    "name_en": "Akarella",
    "postcode": 70082
  },
  {
    "id": 1675,
    "district_id": 23,
    "name_en": "Amunumulla",
    "postcode": 90204
  },
  {
    "id": 1676,
    "district_id": 23,
    "name_en": "Atakalanpanna",
    "postcode": 70294
  },
  {
    "id": 1677,
    "district_id": 23,
    "name_en": "Ayagama",
    "postcode": 70024
  },
  {
    "id": 1678,
    "district_id": 23,
    "name_en": "Balangoda",
    "postcode": 70100
  },
  {
    "id": 1679,
    "district_id": 23,
    "name_en": "Batatota",
    "postcode": 70504
  },
  {
    "id": 1680,
    "district_id": 23,
    "name_en": "Beralapanathara",
    "postcode": 81541
  },
  {
    "id": 1681,
    "district_id": 23,
    "name_en": "Bogahakumbura",
    "postcode": 90354
  },
  {
    "id": 1682,
    "district_id": 23,
    "name_en": "Bolthumbe",
    "postcode": 70131
  },
  {
    "id": 1683,
    "district_id": 23,
    "name_en": "Bomluwageaina",
    "postcode": 70344
  },
  {
    "id": 1684,
    "district_id": 23,
    "name_en": "Bowalagama",
    "postcode": 82458
  },
  {
    "id": 1685,
    "district_id": 23,
    "name_en": "Bulutota",
    "postcode": 70346
  },
  {
    "id": 1686,
    "district_id": 23,
    "name_en": "Dambuluwana",
    "postcode": 70019
  },
  {
    "id": 1687,
    "district_id": 23,
    "name_en": "Daugala",
    "postcode": 70455
  },
  {
    "id": 1688,
    "district_id": 23,
    "name_en": "Dela",
    "postcode": 70042
  },
  {
    "id": 1689,
    "district_id": 23,
    "name_en": "Delwala",
    "postcode": 70046
  },
  {
    "id": 1690,
    "district_id": 23,
    "name_en": "Dodampe",
    "postcode": 70017
  },
  {
    "id": 1691,
    "district_id": 23,
    "name_en": "Doloswalakanda",
    "postcode": 70404
  },
  {
    "id": 1692,
    "district_id": 23,
    "name_en": "Dumbara Manana",
    "postcode": 70495
  },
  {
    "id": 1693,
    "district_id": 23,
    "name_en": "Eheliyagoda",
    "postcode": 70600
  },
  {
    "id": 1694,
    "district_id": 23,
    "name_en": "Ekamutugama",
    "postcode": 70254
  },
  {
    "id": 1695,
    "district_id": 23,
    "name_en": "Elapatha",
    "postcode": 70032
  },
  {
    "id": 1696,
    "district_id": 23,
    "name_en": "Ellagawa",
    "postcode": 70492
  },
  {
    "id": 1697,
    "district_id": 23,
    "name_en": "Ellaulla",
    "postcode": 70552
  },
  {
    "id": 1698,
    "district_id": 23,
    "name_en": "Ellawala",
    "postcode": 70606
  },
  {
    "id": 1699,
    "district_id": 23,
    "name_en": "Embilipitiya",
    "postcode": 70200
  },
  {
    "id": 1700,
    "district_id": 23,
    "name_en": "Eratna",
    "postcode": 70506
  },
  {
    "id": 1701,
    "district_id": 23,
    "name_en": "Erepola",
    "postcode": 70602
  },
  {
    "id": 1702,
    "district_id": 23,
    "name_en": "Gabbela",
    "postcode": 70156
  },
  {
    "id": 1703,
    "district_id": 23,
    "name_en": "Gangeyaya",
    "postcode": 70195
  },
  {
    "id": 1704,
    "district_id": 23,
    "name_en": "Gawaragiriya",
    "postcode": 70026
  },
  {
    "id": 1705,
    "district_id": 23,
    "name_en": "Gillimale",
    "postcode": 70002
  },
  {
    "id": 1706,
    "district_id": 23,
    "name_en": "Godakawela",
    "postcode": 70160
  },
  {
    "id": 1707,
    "district_id": 23,
    "name_en": "Gurubewilagama",
    "postcode": 70136
  },
  {
    "id": 1708,
    "district_id": 23,
    "name_en": "Halwinna",
    "postcode": 70171
  },
  {
    "id": 1709,
    "district_id": 23,
    "name_en": "Handagiriya",
    "postcode": 70106
  },
  {
    "id": 1710,
    "district_id": 23,
    "name_en": "Hatangala",
    "postcode": 70105
  },
  {
    "id": 1711,
    "district_id": 23,
    "name_en": "Hatarabage",
    "postcode": 70108
  },
  {
    "id": 1712,
    "district_id": 23,
    "name_en": "Hewanakumbura",
    "postcode": 90358
  },
  {
    "id": 1713,
    "district_id": 23,
    "name_en": "Hidellana",
    "postcode": 70012
  },
  {
    "id": 1714,
    "district_id": 23,
    "name_en": "Hiramadagama",
    "postcode": 70296
  },
  {
    "id": 1715,
    "district_id": 23,
    "name_en": "Horewelagoda",
    "postcode": 82456
  },
  {
    "id": 1716,
    "district_id": 23,
    "name_en": "Ittakanda",
    "postcode": 70342
  },
  {
    "id": 1717,
    "district_id": 23,
    "name_en": "Kahangama",
    "postcode": 70016
  },
  {
    "id": 1718,
    "district_id": 23,
    "name_en": "Kahawatta",
    "postcode": 70150
  },
  {
    "id": 1719,
    "district_id": 23,
    "name_en": "Kalawana",
    "postcode": 70450
  },
  {
    "id": 1720,
    "district_id": 23,
    "name_en": "Kaltota",
    "postcode": 70122
  },
  {
    "id": 1721,
    "district_id": 23,
    "name_en": "Kalubululanda",
    "postcode": 90352
  },
  {
    "id": 1722,
    "district_id": 23,
    "name_en": "Kananke Bazaar",
    "postcode": 80136
  },
  {
    "id": 1723,
    "district_id": 23,
    "name_en": "Kandepuhulpola",
    "postcode": 90356
  },
  {
    "id": 1724,
    "district_id": 23,
    "name_en": "Karandana",
    "postcode": 70488
  },
  {
    "id": 1725,
    "district_id": 23,
    "name_en": "Karangoda",
    "postcode": 70018
  },
  {
    "id": 1726,
    "district_id": 23,
    "name_en": "Kella Junction",
    "postcode": 70352
  },
  {
    "id": 1727,
    "district_id": 23,
    "name_en": "Keppetipola",
    "postcode": 90350
  },
  {
    "id": 1728,
    "district_id": 23,
    "name_en": "Kiriella",
    "postcode": 70480
  },
  {
    "id": 1729,
    "district_id": 23,
    "name_en": "Kiriibbanwewa",
    "postcode": 70252
  },
  {
    "id": 1730,
    "district_id": 23,
    "name_en": "Kolambage Ara",
    "postcode": 70180
  },
  {
    "id": 1731,
    "district_id": 23,
    "name_en": "Kolombugama",
    "postcode": 70403
  },
  {
    "id": 1732,
    "district_id": 23,
    "name_en": "Kolonna",
    "postcode": 70350
  },
  {
    "id": 1733,
    "district_id": 23,
    "name_en": "Kudawa",
    "postcode": 70005
  },
  {
    "id": 1734,
    "district_id": 23,
    "name_en": "Kuruwita",
    "postcode": 70500
  },
  {
    "id": 1735,
    "district_id": 23,
    "name_en": "Lellopitiya",
    "postcode": 70056
  },
  {
    "id": 1736,
    "district_id": 23,
    "name_en": "Imaduwa",
    "postcode": 80130
  },
  {
    "id": 1737,
    "district_id": 23,
    "name_en": "Imbulpe",
    "postcode": 70134
  },
  {
    "id": 1738,
    "district_id": 23,
    "name_en": "Mahagama Colony",
    "postcode": 70256
  },
  {
    "id": 1739,
    "district_id": 23,
    "name_en": "Mahawalatenna",
    "postcode": 70112
  },
  {
    "id": 1740,
    "district_id": 23,
    "name_en": "Makandura",
    "postcode": 70298
  },
  {
    "id": 1741,
    "district_id": 23,
    "name_en": "Malwala Junction",
    "postcode": 70001
  },
  {
    "id": 1742,
    "district_id": 23,
    "name_en": "Malwatta",
    "postcode": 32198
  },
  {
    "id": 1743,
    "district_id": 23,
    "name_en": "Matuwagalagama",
    "postcode": 70482
  },
  {
    "id": 1744,
    "district_id": 23,
    "name_en": "Medagalature",
    "postcode": 70021
  },
  {
    "id": 1745,
    "district_id": 23,
    "name_en": "Meddekanda",
    "postcode": 70127
  },
  {
    "id": 1746,
    "district_id": 23,
    "name_en": "Minipura Dumbara",
    "postcode": 70494
  },
  {
    "id": 1747,
    "district_id": 23,
    "name_en": "Mitipola",
    "postcode": 70604
  },
  {
    "id": 1748,
    "district_id": 23,
    "name_en": "Moragala Kirillapone",
    "postcode": 81532
  },
  {
    "id": 1749,
    "district_id": 23,
    "name_en": "Morahela",
    "postcode": 70129
  },
  {
    "id": 1750,
    "district_id": 23,
    "name_en": "Mulendiyawala",
    "postcode": 70212
  },
  {
    "id": 1751,
    "district_id": 23,
    "name_en": "Mulgama",
    "postcode": 70117
  },
  {
    "id": 1752,
    "district_id": 23,
    "name_en": "Nawalakanda",
    "postcode": 70469
  },
  {
    "id": 1753,
    "district_id": 23,
    "name_en": "Nawinnapinnakanda",
    "postcode": 70165
  },
  {
    "id": 1754,
    "district_id": 23,
    "name_en": "Niralagama",
    "postcode": 70038
  },
  {
    "id": 1755,
    "district_id": 23,
    "name_en": "Nivitigala",
    "postcode": 70400
  },
  {
    "id": 1756,
    "district_id": 23,
    "name_en": "Omalpe",
    "postcode": 70215
  },
  {
    "id": 1757,
    "district_id": 23,
    "name_en": "Opanayaka",
    "postcode": 70080
  },
  {
    "id": 1758,
    "district_id": 23,
    "name_en": "Padalangala",
    "postcode": 70230
  },
  {
    "id": 1759,
    "district_id": 23,
    "name_en": "Pallebedda",
    "postcode": 70170
  },
  {
    "id": 1760,
    "district_id": 23,
    "name_en": "Pallekanda",
    "postcode": 82454
  },
  {
    "id": 1761,
    "district_id": 23,
    "name_en": "Pambagolla",
    "postcode": 70133
  },
  {
    "id": 1762,
    "district_id": 23,
    "name_en": "Panamura",
    "postcode": 70218
  },
  {
    "id": 1763,
    "district_id": 23,
    "name_en": "Panapola",
    "postcode": 70461
  },
  {
    "id": 1764,
    "district_id": 23,
    "name_en": "Paragala",
    "postcode": 81474
  },
  {
    "id": 1765,
    "district_id": 23,
    "name_en": "Parakaduwa",
    "postcode": 70550
  },
  {
    "id": 1766,
    "district_id": 23,
    "name_en": "Pebotuwa",
    "postcode": 70045
  },
  {
    "id": 1767,
    "district_id": 23,
    "name_en": "Pelmadulla",
    "postcode": 70070
  },
  {
    "id": 1768,
    "district_id": 23,
    "name_en": "Pinnawala",
    "postcode": 70130
  },
  {
    "id": 1769,
    "district_id": 23,
    "name_en": "Pothdeniya",
    "postcode": 81538
  },
  {
    "id": 1770,
    "district_id": 23,
    "name_en": "Rajawaka",
    "postcode": 70116
  },
  {
    "id": 1771,
    "district_id": 23,
    "name_en": "Ranwala",
    "postcode": 70162
  },
  {
    "id": 1772,
    "district_id": 23,
    "name_en": "Rassagala",
    "postcode": 70135
  },
  {
    "id": 1773,
    "district_id": 23,
    "name_en": "Rathgama",
    "postcode": 80260
  },
  {
    "id": 1774,
    "district_id": 23,
    "name_en": "Ratna Hangamuwa",
    "postcode": 70036
  },
  {
    "id": 1775,
    "district_id": 23,
    "name_en": "Ratnapura",
    "postcode": 70000
  },
  {
    "id": 1776,
    "district_id": 23,
    "name_en": "Sewanagala",
    "postcode": 70250
  },
  {
    "id": 1777,
    "district_id": 23,
    "name_en": "Sri Palabaddala",
    "postcode": 70004
  },
  {
    "id": 1778,
    "district_id": 23,
    "name_en": "Sudagala",
    "postcode": 70502
  },
  {
    "id": 1779,
    "district_id": 23,
    "name_en": "Thalakolahinna",
    "postcode": 70101
  },
  {
    "id": 1780,
    "district_id": 23,
    "name_en": "Thanjantenna",
    "postcode": 70118
  },
  {
    "id": 1781,
    "district_id": 23,
    "name_en": "Theppanawa",
    "postcode": 70512
  },
  {
    "id": 1782,
    "district_id": 23,
    "name_en": "Thunkama",
    "postcode": 70205
  },
  {
    "id": 1783,
    "district_id": 23,
    "name_en": "Udakarawita",
    "postcode": 70044
  },
  {
    "id": 1784,
    "district_id": 23,
    "name_en": "Udaniriella",
    "postcode": 70034
  },
  {
    "id": 1785,
    "district_id": 23,
    "name_en": "Udawalawe",
    "postcode": 70190
  },
  {
    "id": 1786,
    "district_id": 23,
    "name_en": "Ullinduwawa",
    "postcode": 70345
  },
  {
    "id": 1787,
    "district_id": 23,
    "name_en": "Veddagala",
    "postcode": 70459
  },
  {
    "id": 1788,
    "district_id": 23,
    "name_en": "Vijeriya",
    "postcode": 70348
  },
  {
    "id": 1789,
    "district_id": 23,
    "name_en": "Waleboda",
    "postcode": 70138
  },
  {
    "id": 1790,
    "district_id": 23,
    "name_en": "Watapotha",
    "postcode": 70408
  },
  {
    "id": 1791,
    "district_id": 23,
    "name_en": "Waturawa",
    "postcode": 70456
  },
  {
    "id": 1792,
    "district_id": 23,
    "name_en": "Weligepola",
    "postcode": 70104
  },
  {
    "id": 1793,
    "district_id": 23,
    "name_en": "Welipathayaya",
    "postcode": 70124
  },
  {
    "id": 1794,
    "district_id": 23,
    "name_en": "Wikiliya",
    "postcode": 70114
  },
  {
    "id": 1795,
    "district_id": 24,
    "name_en": "Agbopura",
    "postcode": 31304
  },
  {
    "id": 1796,
    "district_id": 24,
    "name_en": "Buckmigama",
    "postcode": 31028
  },
  {
    "id": 1797,
    "district_id": 24,
    "name_en": "China Bay",
    "postcode": 31050
  },
  {
    "id": 1798,
    "district_id": 24,
    "name_en": "Dehiwatte",
    "postcode": 31226
  },
  {
    "id": 1799,
    "district_id": 24,
    "name_en": "Echchilampattai",
    "postcode": 31236
  },
  {
    "id": 1800,
    "district_id": 24,
    "name_en": "Galmetiyawa",
    "postcode": 31318
  },
  {
    "id": 1801,
    "district_id": 24,
    "name_en": "Gomarankadawala",
    "postcode": 31026
  },
  {
    "id": 1802,
    "district_id": 24,
    "name_en": "Kaddaiparichchan",
    "postcode": 31212
  },
  {
    "id": 1803,
    "district_id": 24,
    "name_en": "Kallar",
    "postcode": 30250
  },
  {
    "id": 1804,
    "district_id": 24,
    "name_en": "Kanniya",
    "postcode": 31032
  },
  {
    "id": 1805,
    "district_id": 24,
    "name_en": "Kantalai",
    "postcode": 31300
  },
  {
    "id": 1806,
    "district_id": 24,
    "name_en": "Kantalai Sugar Factory",
    "postcode": 31306
  },
  {
    "id": 1807,
    "district_id": 24,
    "name_en": "Kiliveddy",
    "postcode": 31220
  },
  {
    "id": 1808,
    "district_id": 24,
    "name_en": "Kinniya",
    "postcode": 31100
  },
  {
    "id": 1809,
    "district_id": 24,
    "name_en": "Kuchchaveli",
    "postcode": 31014
  },
  {
    "id": 1810,
    "district_id": 24,
    "name_en": "Kumburupiddy",
    "postcode": 31012
  },
  {
    "id": 1811,
    "district_id": 24,
    "name_en": "Kurinchakemy",
    "postcode": 31112
  },
  {
    "id": 1812,
    "district_id": 24,
    "name_en": "Lankapatuna",
    "postcode": 31234
  },
  {
    "id": 1813,
    "district_id": 24,
    "name_en": "Mahadivulwewa",
    "postcode": 31036
  },
  {
    "id": 1814,
    "district_id": 24,
    "name_en": "Maharugiramam",
    "postcode": 31106
  },
  {
    "id": 1815,
    "district_id": 24,
    "name_en": "Mallikativu",
    "postcode": 31224
  },
  {
    "id": 1816,
    "district_id": 24,
    "name_en": "Mawadichenai",
    "postcode": 31238
  },
  {
    "id": 1817,
    "district_id": 24,
    "name_en": "Mullipothana",
    "postcode": 31312
  },
  {
    "id": 1818,
    "district_id": 24,
    "name_en": "Mutur",
    "postcode": 31200
  },
  {
    "id": 1819,
    "district_id": 24,
    "name_en": "Neelapola",
    "postcode": 31228
  },
  {
    "id": 1820,
    "district_id": 24,
    "name_en": "Nilaveli",
    "postcode": 31010
  },
  {
    "id": 1821,
    "district_id": 24,
    "name_en": "Pankulam",
    "postcode": 31034
  },
  {
    "id": 1822,
    "district_id": 24,
    "name_en": "Pulmoddai",
    "postcode": 50567
  },
  {
    "id": 1823,
    "district_id": 24,
    "name_en": "Rottawewa",
    "postcode": 31038
  },
  {
    "id": 1824,
    "district_id": 24,
    "name_en": "Sampaltivu",
    "postcode": 31006
  },
  {
    "id": 1825,
    "district_id": 24,
    "name_en": "Sampoor",
    "postcode": 31216
  },
  {
    "id": 1826,
    "district_id": 24,
    "name_en": "Serunuwara",
    "postcode": 31232
  },
  {
    "id": 1827,
    "district_id": 24,
    "name_en": "Seruwila",
    "postcode": 31260
  },
  {
    "id": 1828,
    "district_id": 24,
    "name_en": "Sirajnagar",
    "postcode": 31314
  },
  {
    "id": 1829,
    "district_id": 24,
    "name_en": "Somapura",
    "postcode": 31222
  },
  {
    "id": 1830,
    "district_id": 24,
    "name_en": "Tampalakamam",
    "postcode": 31046
  },
  {
    "id": 1831,
    "district_id": 24,
    "name_en": "Thuraineelavanai",
    "postcode": 30254
  },
  {
    "id": 1832,
    "district_id": 24,
    "name_en": "Tiriyayi",
    "postcode": 31016
  },
  {
    "id": 1833,
    "district_id": 24,
    "name_en": "Toppur",
    "postcode": 31250
  },
  {
    "id": 1834,
    "district_id": 24,
    "name_en": "Trincomalee",
    "postcode": 31000
  },
  {
    "id": 1835,
    "district_id": 24,
    "name_en": "Wanela",
    "postcode": 31308
  },
  {
    "id": 1836,
    "district_id": 25,
    "name_en": "Vavuniya",
    "postcode": 43000
  },
  {
    "id": 1837,
    "district_id": 5,
    "name_en": "Colombo 1",
    "postcode": 100
  },
  {
    "id": 1838,
    "district_id": 5,
    "name_en": "Colombo 3",
    "postcode": 300
  },
  {
    "id": 1839,
    "district_id": 5,
    "name_en": "Colombo 4",
    "postcode": 400
  },
  {
    "id": 1840,
    "district_id": 5,
    "name_en": "Colombo 5",
    "postcode": 500
  },
  {
    "id": 1841,
    "district_id": 5,
    "name_en": "Colombo 7",
    "postcode": 700
  },
  {
    "id": 1842,
    "district_id": 5,
    "name_en": "Colombo 9",
    "postcode": 900
  },
  {
    "id": 1843,
    "district_id": 5,
    "name_en": "Colombo 10",
    "postcode": 1000
  },
  {
    "id": 1844,
    "district_id": 5,
    "name_en": "Colombo 11",
    "postcode": 1100
  },
  {
    "id": 1845,
    "district_id": 5,
    "name_en": "Colombo 12",
    "postcode": 1200
  },
  {
    "id": 1846,
    "district_id": 5,
    "name_en": "Colombo 14",
    "postcode": 1400
  },
  {
    "id": 1847,
    "district_id": 5,
    "name_en": "Kottawa",
    "postcode": 10230
  }
]